Address Rule Id,Residentials Addresses Linked,Num From,Num To,RangeType,Street Name,Zip5,City,TownCode,Ward,District,CongressionalDistrictCode,AssemblyDistrictCode,SenateDistrictCode,LegislativeDistrictCode,VillageCode,SchoolCode,FireCode,CityCouncilCode,TownWardCode
2470,20,111,156,ALL,ABERDEEN TER,13206,SYRACUSE,,005,011,022,129,048,007,,,,005,
2471,8,201,240,ALL,ABERDEEN TER,13206,SYRACUSE,,005,002,022,129,048,009,,,,005,
2728,15,7,129,ALL,ACADEMY GREEN,13207,SYRACUSE,,013,009,022,129,048,015,,,,004,
2729,54,102,503,ALL,ACADEMY PL,13207,SYRACUSE,,013,009,022,129,048,015,,,,004,
2730,4,100,205,ALL,ACADEMY ST,13207,SYRACUSE,,013,009,022,129,048,015,,,,004,
703,93,608,968,ALL,ACKERMAN AVE,13210,SYRACUSE,,016,003,022,129,048,017,,,,003,
704,31,1000,1061,ALL,ACKERMAN AVE,13210,SYRACUSE,,016,002,022,129,048,016,,,,003,
705,1,100,100,EVEN,ACORN PATH,13210,SYRACUSE,,016,002,022,129,048,016,,,,003,
2731,15,100,139,ALL,ALANSON RD,13207,SYRACUSE,,012,005,022,129,048,008,,,,002,
2732,3,201,205,ODD,ALANSON RD,13207,SYRACUSE,,013,003,022,129,048,015,,,,002,
2733,2,202,204,EVEN,ALANSON RD,13207,SYRACUSE,,012,005,022,129,048,008,,,,002,
7329,3,202,208,EVEN,ALBERT RD,13214,SYRACUSE,,017,016,022,128,048,017,,,,003,
7330,15,302,324,ALL,ALBERT RD,13214,SYRACUSE,,017,017,022,128,048,017,,,,003,
4513,29,101,180,ALL,ALBERT TER,13202,SYRACUSE,,018,001,022,128,048,016,,,,004,
706,14,100,139,ALL,ALDEN ST,13210,SYRACUSE,,019,008,022,129,048,016,,,,004,
4514,4,110,123,ALL,ALEXANDER AVE,13202,SYRACUSE,,018,001,022,128,048,016,,,,004,
707,40,203,326,ALL,ALLEN ST,13210,SYRACUSE,,017,006,022,128,048,017,,,,005,
708,49,416,560,ALL,ALLEN ST,13210,SYRACUSE,,017,004,022,128,048,017,,,,003,
709,29,600,700,ALL,ALLEN ST,13210,SYRACUSE,,017,003,022,128,048,015,,,,003,
710,15,701,753,ODD,ALLEN ST,13210,SYRACUSE,,017,012,022,128,048,015,,,,003,
711,19,706,758,EVEN,ALLEN ST,13210,SYRACUSE,,017,003,022,128,048,015,,,,003,
712,240,1207,1207,ODD,ALMOND ST,13210,SYRACUSE,,015,005,022,129,048,016,,,,003,
7521,11,101,208,ALL,ALTON ST,13215,SYRACUSE,,011,007,022,129,048,008,,,,002,
2734,6,100,200,ALL,AMES AVE,13207,SYRACUSE,,013,005,022,129,048,015,,,,004,
3640,21,113,228,ALL,AMHERST AVE,13205,SYRACUSE,,019,005,022,128,048,016,,,,004,
4807,3,114,122,EVEN,AMY ST,13204,SYRACUSE,,008,003,022,128,048,008,,,,002,
3641,29,118,198,ALL,ANDERSON AVE,13205,SYRACUSE,,014,008,022,128,048,016,,,,004,
713,1,206,206,EVEN,ANDOVER RD,13210,SYRACUSE,,019,007,022,129,048,015,,,,003,
4515,19,100,124,ALL,ANGELOU TER,13202,SYRACUSE,,009,005,022,128,048,016,,,,004,
2735,19,105,161,ALL,ANNETTA ST,13207,SYRACUSE,,013,001,022,128,048,015,,,,004,
4808,67,205,339,ALL,APPLE ST,13204,SYRACUSE,,002,001,022,129,048,008,,,,002,
2473,11,100,122,ALL,ARCH ST,13206,SYRACUSE,,005,010,022,129,048,007,,,,005,
2474,18,200,235,ALL,ARCH ST,13206,SYRACUSE,,005,002,022,129,048,009,,,,005,
2736,15,101,121,ALL,ARCHER RD,13207,SYRACUSE,,011,007,022,129,048,008,,,,002,
2737,2,100,108,EVEN,ARDEN DR,13207,SYRACUSE,,012,005,022,129,048,008,,,,002,
2738,4,101,107,ODD,ARDEN DR,13207,SYRACUSE,,013,003,022,129,048,015,,,,002,
2739,2,200,320,EVEN,ARDEN DR,13207,SYRACUSE,,011,004,022,129,048,008,,,,002,
1546,5,115,124,ALL,ARDMORE PL,13208,SYRACUSE,,001,001,022,129,048,009,,,,001,
2740,7,102,109,ALL,ARGONNE DR,13207,SYRACUSE,,011,004,022,129,048,008,,,,002,
2741,10,101,120,ALL,ARLINGTON AVE,13207,SYRACUSE,,012,005,022,129,048,008,,,,002,
2742,37,201,330,ALL,ARLINGTON AVE,13207,SYRACUSE,,013,003,022,129,048,015,,,,002,
2743,35,108,257,ALL,ARMSTRONG PL,13207,SYRACUSE,,013,004,022,129,048,015,,,,002,
2475,7,100,222,EVEN,ARNETT AVE,13206,SYRACUSE,,004,010,022,129,048,007,,,,005,
2476,4,121,211,ODD,ARNETT AVE,13206,SYRACUSE,,004,008,022,129,048,007,,,,005,
714,24,201,417,ALL,ARNOLD AVE,13210,SYRACUSE,,019,003,022,129,048,015,,,,003,
1547,14,101,119,ALL,ARNTS PL,13208,SYRACUSE,,001,005,022,129,048,009,,,,001,
3642,15,100,148,ALL,ARSENAL DR,13205,SYRACUSE,,014,006,022,129,048,015,,,,004,
2744,5,503,510,ALL,ARTHUR ST,13207,SYRACUSE,,011,005,022,128,048,008,,,,002,
2745,15,602,706,ALL,ARTHUR ST,13207,SYRACUSE,,011,003,022,129,048,008,,,,002,
4809,22,201,312,ALL,ARTHUR ST,13204,SYRACUSE,,011,001,022,128,048,008,,,,002,
4810,5,400,404,EVEN,ARTHUR ST,13204,SYRACUSE,,011,002,022,129,048,008,,,,002,
4811,3,403,407,ODD,ARTHUR ST,13204,SYRACUSE,,011,005,022,128,048,008,,,,002,
1548,16,111,407,ODD,ASH ST,13208,SYRACUSE,,003,001,022,129,048,008,,,,001,
1549,6,204,406,EVEN,ASH ST,13208,SYRACUSE,,003,002,022,129,048,009,,,,001,
1550,37,410,711,ALL,ASH ST,13208,SYRACUSE,,003,002,022,129,048,009,,,,001,
2477,35,117,167,ALL,ASHDALE AVE,13206,SYRACUSE,,005,006,022,129,048,007,,,,005,
2478,82,200,385,ALL,ASHDALE AVE,13206,SYRACUSE,,004,009,022,129,048,007,,,,005,
715,6,102,224,EVEN,ASHWORTH PL,13210,SYRACUSE,,016,006,022,129,048,017,,,,005,
716,17,105,231,ODD,ASHWORTH PL,13210,SYRACUSE,,015,006,022,128,048,016,,,,005,
2746,17,101,145,ALL,ATKINSON AVE,13207,SYRACUSE,,011,004,022,129,048,008,,,,002,
2747,22,200,630,EVEN,ATLANTIC AVE,13207,SYRACUSE,,013,001,022,128,048,015,,,,004,
2748,13,201,625,ODD,ATLANTIC AVE,13207,SYRACUSE,,013,008,022,128,048,015,,,,004,
6296,102,300,636,ALL,AUDUBON PKWY,13224,SYRACUSE,,017,010,022,128,048,017,,,,005,
2749,35,103,224,ALL,AUSTIN AVE,13207,SYRACUSE,,011,007,022,129,048,008,,,,002,
4812,16,105,123,ALL,AVERY AVE,13204,SYRACUSE,,008,004,022,129,048,008,,,,002,
4813,94,201,714,ALL,AVERY AVE,13204,SYRACUSE,,007,002,022,129,048,008,,,,002,
4814,158,800,1243,ALL,AVERY AVE,13204,SYRACUSE,,007,001,022,129,048,008,,,,002,
4815,16,101,115,ALL,AVOCA ST,13204,SYRACUSE,,008,004,022,129,048,008,,,,002,
2479,11,113,161,ODD,AVON RD,13206,SYRACUSE,,005,010,022,129,048,007,,,,005,
717,28,100,145,ALL,AVONDALE PL,13210,SYRACUSE,,017,003,022,128,048,015,,,,003,
3643,29,114,252,ALL,BAKER AVE,13205,SYRACUSE,,018,002,022,128,048,016,,,,004,
3644,28,304,352,ALL,BAKER AVE,13205,SYRACUSE,,019,005,022,128,048,016,,,,004,
3645,33,113,189,ALL,BALDWIN AVE,13205,SYRACUSE,,013,006,022,128,048,016,,,,004,
718,1,123,123,ODD,BALL CIR,13210,SYRACUSE,,014,004,022,129,048,015,,,,003,
3646,107,117,304,ALL,BALLANTYNE RD,13205,SYRACUSE,,014,003,022,128,048,016,,,,004,
3647,1,305,305,ODD,BALLANTYNE RD,13205,SYRACUSE,,014,008,022,128,048,016,,,,004,
3648,2,312,312,EVEN,BALLANTYNE RD,13205,SYRACUSE,,014,003,022,128,048,016,,,,004,
2750,39,621,1118,ALL,BALLANTYNE RD,13207,SYRACUSE,,013,008,022,128,048,015,,,,004,
3649,14,100,148,ALL,BALLARD AVE,13205,SYRACUSE,,012,002,022,128,048,016,,,,004,
2751,62,106,716,ALL,BARNES AVE,13207,SYRACUSE,,013,005,022,129,048,015,,,,004,
4816,20,134,217,ALL,BARRETT ST,13204,SYRACUSE,,010,001,022,128,048,008,,,,002,
7338,37,102,325,ALL,BARRINGTON RD,13214,SYRACUSE,,017,016,022,128,048,017,,,,003,
7339,1,326,326,EVEN,BARRINGTON RD,13214,SYRACUSE,,017,013,022,128,048,017,,,,003,
1551,6,302,320,EVEN,BASIN ST,13208,SYRACUSE,,002,003,022,129,048,008,,,,001,
719,21,125,222,ALL,BASSETT ST,13210,SYRACUSE,,017,005,022,128,048,015,,,,003,
9190,1,107,107,ALL,BASSETT ST,13210,SYRACUSE,,017,005,022,128,048,015,,,,003,
1552,3,207,211,ALL,BEAR ST,13208,SYRACUSE,,002,003,022,129,048,008,,,,001,
1553,31,306,416,ALL,BEAR ST,13208,SYRACUSE,,001,004,022,129,048,009,,,,001,
1554,57,501,812,ALL,BEAR ST,13208,SYRACUSE,,001,002,022,129,048,009,,,,001,
3650,2,100,113,ALL,BEARD PL,13205,SYRACUSE,,019,005,022,128,048,016,,,,004,
6297,60,142,622,EVEN,BEATTIE ST,13224,SYRACUSE,,017,011,022,128,048,017,,,,005,
6298,64,211,617,ODD,BEATTIE ST,13224,SYRACUSE,,017,008,022,128,048,017,,,,005,
7340,2,102,104,EVEN,BEAUMONT PL,13214,SYRACUSE,,017,016,022,128,048,017,,,,003,
1555,9,101,120,ALL,BECKER ST,13208,SYRACUSE,,003,006,022,129,048,009,,,,001,
4607,33,105,230,ALL,BEECHER ST,13203,SYRACUSE,,006,003,022,129,048,009,,,,001,
4608,19,301,330,ALL,BEECHER ST,13203,SYRACUSE,,004,001,022,129,048,009,,,,001,
2752,9,104,126,ALL,BELLAIRE PL,13207,SYRACUSE,,012,004,022,128,048,015,,,,004,
3651,53,100,251,ALL,BELLE AVE,13205,SYRACUSE,,014,003,022,128,048,016,,,,004,
5931,36,2000,2547,ALL,BELLEVUE AVE,13219,SYRACUSE,,011,007,022,129,048,008,,,,002,
4817,9,131,234,ALL,BELLEVUE AVE,13204,SYRACUSE,,012,002,022,128,048,016,,,,004,
4818,26,301,606,ALL,BELLEVUE AVE,13204,SYRACUSE,,012,001,022,128,048,015,,,,004,
4819,1,606,606,EVEN,BELLEVUE AVE,13204,SYRACUSE,,012,001,022,128,048,015,,,,004,
4820,13,607,705,ALL,BELLEVUE AVE,13204,SYRACUSE,,012,001,022,128,048,015,,,,004,
4821,35,814,978,EVEN,BELLEVUE AVE,13204,SYRACUSE,,010,003,022,128,048,015,,,,002,
4822,5,901,915,ODD,BELLEVUE AVE,13204,SYRACUSE,,012,003,022,128,048,015,,,,002,
4823,20,1000,1020,EVEN,BELLEVUE AVE,13204,SYRACUSE,,011,005,022,128,048,008,,,,002,
4824,7,1001,1027,ODD,BELLEVUE AVE,13204,SYRACUSE,,011,006,022,129,048,015,,,,002,
4825,71,1032,1307,ALL,BELLEVUE AVE,13204,SYRACUSE,,011,005,022,128,048,008,,,,002,
4826,66,1310,1926,EVEN,BELLEVUE AVE,13204,SYRACUSE,,011,002,022,129,048,008,,,,002,
4827,5,1309,1329,ODD,BELLEVUE AVE,13204,SYRACUSE,,011,005,022,128,048,008,,,,002,
4828,52,1401,1933,ODD,BELLEVUE AVE,13204,SYRACUSE,,011,003,022,129,048,008,,,,002,
1556,12,100,129,ALL,BELLSHIRE LN,13208,SYRACUSE,,001,005,022,129,048,009,,,,001,
720,31,101,133,ALL,BENEDICT AVE,13210,SYRACUSE,,019,008,022,129,048,016,,,,004,
3652,14,102,222,EVEN,BENNINGTON DR,13205,SYRACUSE,,014,003,022,128,048,016,,,,004,
3653,12,117,233,ODD,BENNINGTON DR,13205,SYRACUSE,,014,002,022,128,048,016,,,,004,
3654,36,101,196,ALL,BERGER AVE,13205,SYRACUSE,,013,006,022,128,048,016,,,,004,
721,11,100,208,EVEN,BERKELEY DR,13210,SYRACUSE,,016,002,022,129,048,016,,,,003,
722,10,101,209,ODD,BERKELEY DR,13210,SYRACUSE,,016,003,022,129,048,017,,,,003,
723,21,210,338,ALL,BERKELEY DR,13210,SYRACUSE,,016,002,022,129,048,016,,,,003,
1557,46,111,325,ALL,BERKSHIRE AVE,13208,SYRACUSE,,003,005,022,129,048,007,,,,001,
2753,29,100,162,ALL,BERTRAM PL,13207,SYRACUSE,,013,001,022,128,048,015,,,,004,
724,25,100,128,ALL,BERWYN AVE,13210,SYRACUSE,,019,008,022,129,048,016,,,,004,
2754,32,104,179,ALL,BEVERLY RD,13207,SYRACUSE,,012,005,022,129,048,008,,,,002,
2755,47,112,423,ALL,BISHOP AVE,13207,SYRACUSE,,013,001,022,128,048,015,,,,004,
4516,20,101,135,ALL,BLAINE ST,13202,SYRACUSE,,018,001,022,128,048,016,,,,004,
6299,21,100,116,ALL,BLOSSOM RD,13224,SYRACUSE,,017,007,022,128,048,017,,,,003,
725,11,101,216,ALL,BOISE DR,13210,SYRACUSE,,019,006,022,129,048,016,,,,003,
2480,7,116,144,EVEN,BOSTON ST,13206,SYRACUSE,,005,009,022,129,048,007,,,,005,
2481,50,204,339,ALL,BOSTON ST,13206,SYRACUSE,,005,011,022,129,048,007,,,,005,
2482,24,408,454,ALL,BOSTON ST,13206,SYRACUSE,,005,002,022,129,048,009,,,,005,
4609,1,121,121,ODD,BOYDEN PL,13203,SYRACUSE,,005,001,022,129,048,007,,,,005,
4610,27,103,205,ALL,BOYDEN ST,13203,SYRACUSE,,006,005,022,129,048,009,,,,005,
4611,15,206,326,EVEN,BOYDEN ST,13203,SYRACUSE,,006,006,022,129,048,009,,,,005,
4612,8,207,303,ODD,BOYDEN ST,13203,SYRACUSE,,006,005,022,129,048,009,,,,005,
4613,7,311,325,ODD,BOYDEN ST,13203,SYRACUSE,,005,001,022,129,048,007,,,,005,
2483,47,400,528,ALL,BOYDEN ST,13206,SYRACUSE,,005,001,022,129,048,007,,,,005,
1559,5,120,142,ALL,BRACE ST,13208,SYRACUSE,,001,005,022,129,048,009,,,,001,
2756,23,1,26,ALL,BRADFORD CT,13207,SYRACUSE,,013,005,022,129,048,015,,,,004,
6303,11,101,113,ALL,BRADFORD LN,13224,SYRACUSE,,017,009,022,128,048,015,,,,003,
6305,14,100,200,ALL,BRADFORD PKWY,13224,SYRACUSE,,017,009,022,128,048,015,,,,003,
6306,1,201,201,ODD,BRADFORD PKWY,13224,SYRACUSE,,017,015,022,128,048,017,,,,003,
6307,3,202,204,EVEN,BRADFORD PKWY,13224,SYRACUSE,,017,009,022,128,048,015,,,,003,
6308,48,205,525,ALL,BRADFORD PKWY,13224,SYRACUSE,,017,015,022,128,048,017,,,,003,
2757,15,113,151,ALL,BRADFORD ST,13207,SYRACUSE,,013,005,022,129,048,015,,,,004,
4829,8,101,114,ALL,BRADLEY ST,13204,SYRACUSE,,011,005,022,128,048,008,,,,002,
4830,3,206,208,EVEN,BRADLEY ST,13204,SYRACUSE,,011,001,022,128,048,008,,,,002,
4831,19,300,414,ALL,BRADLEY ST,13204,SYRACUSE,,011,005,022,128,048,008,,,,002,
3657,41,114,228,ALL,BRAMPTON RD,13205,SYRACUSE,,014,007,022,129,048,015,,,,004,
4614,13,1,201,ALL,BRATTLE RD,13203,SYRACUSE,,004,005,022,129,048,007,,,,005,
4615,19,204,264,EVEN,BRATTLE RD,13203,SYRACUSE,,004,006,022,129,048,007,,,,005,
4616,16,207,267,ODD,BRATTLE RD,13203,SYRACUSE,,004,005,022,129,048,007,,,,005,
4617,63,303,531,ALL,BRATTLE RD,13203,SYRACUSE,,004,004,022,129,048,007,,,,005,
1561,64,104,281,ALL,BRIGGS ST,13208,SYRACUSE,,003,005,022,129,048,007,,,,001,
726,66,1101,4101,ALL,BRIGHTON PL,13210,SYRACUSE,,019,008,022,129,048,016,,,,004,
727,15,100,109,ALL,BRISTOL PL,13210,SYRACUSE,,017,005,022,128,048,015,,,,003,
6310,7,1202,1342,ALL,BROAD ST,13224,SYRACUSE,,017,012,022,128,048,015,,,,003,
728,2,119,311,ODD,BROAD ST,13210,SYRACUSE,,016,002,022,129,048,016,,,,003,
729,26,300,520,EVEN,BROAD ST,13210,SYRACUSE,,019,007,022,129,048,015,,,,003,
730,15,515,1115,ODD,BROAD ST,13210,SYRACUSE,,017,002,022,128,048,015,,,,003,
731,1,1116,1116,EVEN,BROAD ST,13210,SYRACUSE,,019,004,022,129,048,015,,,,003,
7546,27,100,317,ALL,BROADVIEW DR,13215,SYRACUSE,,011,007,022,129,048,008,,,,002,
3658,5,100,115,ALL,BRONSON ST,13205,SYRACUSE,,014,011,022,129,048,015,,,,004,
1562,7,101,111,ALL,BRONX AVE,13208,SYRACUSE,,003,005,022,129,048,007,,,,001,
6311,4,102,108,EVEN,BROOKFORD RD,13224,SYRACUSE,,017,009,022,128,048,015,,,,003,
6312,51,109,501,ALL,BROOKFORD RD,13224,SYRACUSE,,017,015,022,128,048,017,,,,003,
2758,15,100,303,ALL,BROOKLEA DR,13207,SYRACUSE,,013,009,022,129,048,015,,,,004,
2759,43,103,223,ALL,BROOKLEA PL,13207,SYRACUSE,,013,009,022,129,048,015,,,,004,
6313,63,200,384,ALL,BRUCE ST,13224,SYRACUSE,,017,011,022,128,048,017,,,,005,
4832,86,116,376,ALL,BRYANT AVE,13204,SYRACUSE,,008,002,022,129,048,008,,,,002,
4833,54,403,569,ALL,BRYANT AVE,13204,SYRACUSE,,008,004,022,129,048,008,,,,002,
732,54,105,263,ALL,BUCKINGHAM AVE,13210,SYRACUSE,,016,002,022,129,048,016,,,,003,
733,60,311,476,ALL,BUCKINGHAM AVE,13210,SYRACUSE,,019,007,022,129,048,015,,,,003,
734,11,485,559,ODD,BUCKINGHAM AVE,13210,SYRACUSE,,019,004,022,129,048,015,,,,003,
735,9,520,562,EVEN,BUCKINGHAM AVE,13210,SYRACUSE,,019,007,022,129,048,015,,,,003,
2760,21,100,126,ALL,BUNGALOW TER,13207,SYRACUSE,,011,003,022,129,048,008,,,,002,
2761,8,301,354,ALL,BUNKER HILL WAY,13207,SYRACUSE,,011,004,022,129,048,008,,,,002,
1566,79,114,420,ALL,BURDICK AVE,13208,SYRACUSE,,001,005,022,129,048,009,,,,001,
4618,10,99,111,ALL,BURLINGAME RD,13203,SYRACUSE,,004,005,022,129,048,007,,,,005,
4619,8,111,125,ODD,BURNET AVE,13203,SYRACUSE,,009,004,022,129,048,009,,,,001,
4620,6,112,132,EVEN,BURNET AVE,13203,SYRACUSE,,006,009,022,129,048,009,,,,001,
4621,51,200,648,ALL,BURNET AVE,13203,SYRACUSE,,006,001,022,129,048,009,,,,001,
4622,36,707,1114,ALL,BURNET AVE,13203,SYRACUSE,,006,002,022,129,048,009,,,,005,
2484,53,1313,1621,ALL,BURNET AVE,13206,SYRACUSE,,006,006,022,129,048,009,,,,005,
2485,37,1701,1855,ODD,BURNET AVE,13206,SYRACUSE,,005,005,022,129,048,007,,,,005,
2486,1,1854,1854,EVEN,BURNET AVE,13206,SYRACUSE,,005,002,022,129,048,009,,,,005,
2487,23,1901,2404,ALL,BURNET AVE,13206,SYRACUSE,,005,002,022,129,048,009,,,,005,
2488,3,2511,2525,ODD,BURNET AVE,13206,SYRACUSE,,005,010,022,129,048,007,,,,005,
2489,21,2560,2723,ALL,BURNET AVE,13206,SYRACUSE,,005,002,022,129,048,009,,,,005,
2490,19,2801,2817,ODD,BURNET AVE,13206,SYRACUSE,,005,011,022,129,048,007,,,,005,
2491,75,2904,3441,ALL,BURNET AVE,13206,SYRACUSE,,005,002,022,129,048,009,,,,005,
4834,21,100,414,EVEN,BURNET PARK DR,13204,SYRACUSE,,008,004,022,129,048,008,,,,002,
4835,24,117,409,ODD,BURNET PARK DR,13204,SYRACUSE,,008,002,022,129,048,008,,,,002,
2493,17,130,162,ALL,BURNS AVE,13206,SYRACUSE,,005,009,022,129,048,007,,,,005,
2494,49,200,340,ALL,BURNS AVE,13206,SYRACUSE,,005,011,022,129,048,007,,,,005,
2495,20,414,442,ALL,BURNS AVE,13206,SYRACUSE,,005,002,022,129,048,009,,,,005,
2496,1,1328,1328,EVEN,BURNT AVE,13206,SYRACUSE,,006,006,022,129,048,009,,,,005,
4517,198,300,450,EVEN,BURT ST,13202,SYRACUSE,,018,001,022,128,048,016,,,,004,
736,9,100,121,ALL,BURTEN ST,13210,SYRACUSE,,019,008,022,129,048,016,,,,004,
737,10,100,145,ALL,BUTLER ST,13210,SYRACUSE,,019,003,022,129,048,015,,,,003,
1567,29,317,811,ODD,BUTTERNUT ST,13208,SYRACUSE,,003,002,022,129,048,009,,,,001,
1568,4,420,420,EVEN,BUTTERNUT ST,13208,SYRACUSE,,009,002,022,129,048,008,,,,001,
1569,23,624,814,EVEN,BUTTERNUT ST,13208,SYRACUSE,,006,003,022,129,048,009,,,,001,
1570,40,826,1122,EVEN,BUTTERNUT ST,13208,SYRACUSE,,004,001,022,129,048,009,,,,001,
1571,48,915,1229,ODD,BUTTERNUT ST,13208,SYRACUSE,,003,004,022,129,048,009,,,,001,
1572,51,1200,1406,EVEN,BUTTERNUT ST,13208,SYRACUSE,,004,002,022,129,048,007,,,,001,
1573,40,1301,1345,ODD,BUTTERNUT ST,13208,SYRACUSE,,003,006,022,129,048,009,,,,001,
1574,41,1405,1843,ODD,BUTTERNUT ST,13208,SYRACUSE,,003,003,022,129,048,009,,,,001,
1575,28,1510,1838,EVEN,BUTTERNUT ST,13208,SYRACUSE,,003,005,022,129,048,007,,,,001,
3660,18,100,117,ALL,BYRNE PL,13205,SYRACUSE,,014,006,022,129,048,015,,,,004,
1576,30,115,420,ALL,CADILLAC ST,13208,SYRACUSE,,001,005,022,129,048,009,,,,001,
1577,27,502,906,ALL,CADILLAC ST,13208,SYRACUSE,,001,001,022,129,048,009,,,,001,
4836,1,8,8,EVEN,CADWELL PL,13204,SYRACUSE,,011,001,022,128,048,008,,,,002,
4837,6,106,208,EVEN,CADWELL ST,13204,SYRACUSE,,011,008,022,129,048,008,,,,002,
4838,5,201,205,ODD,CADWELL ST,13204,SYRACUSE,,008,003,022,128,048,008,,,,002,
4839,10,309,329,ALL,CADWELL ST,13204,SYRACUSE,,011,001,022,128,048,008,,,,002,
2497,7,201,515,ALL,CALEB AVE,13206,SYRACUSE,,005,005,022,129,048,007,,,,005,
2498,15,610,912,EVEN,CALEB AVE,13206,SYRACUSE,,005,002,022,129,048,009,,,,005,
2499,6,613,725,ODD,CALEB AVE,13206,SYRACUSE,,005,005,022,129,048,007,,,,005,
2500,2,801,801,ODD,CALEB AVE,13206,SYRACUSE,,005,010,022,129,048,007,,,,005,
2501,17,913,1129,ALL,CALEB AVE,13206,SYRACUSE,,005,010,022,129,048,007,,,,005,
2502,2,1200,1300,EVEN,CALEB AVE,13206,SYRACUSE,,005,002,022,129,048,009,,,,005,
2503,2,1219,1301,ODD,CALEB AVE,13206,SYRACUSE,,005,010,022,129,048,007,,,,005,
2504,4,1400,1425,ALL,CALEB AVE,13206,SYRACUSE,,005,011,022,129,048,007,,,,005,
2505,42,1500,1972,EVEN,CALEB AVE,13206,SYRACUSE,,005,002,022,129,048,009,,,,005,
2506,19,1701,1951,ODD,CALEB AVE,13206,SYRACUSE,,005,011,022,129,048,007,,,,005,
9174,2,909,909,ALL,CALEB AVE,13206,SYRACUSE,,005,010,022,129,048,007,,,,005,
2763,2,105,106,ALL,CALVIN RD,13207,SYRACUSE,,011,004,022,129,048,008,,,,002,
738,52,123,255,ALL,CAMBRIDGE ST,13210,SYRACUSE,,017,004,022,128,048,017,,,,003,
2764,39,101,231,ALL,CAMP AVE,13207,SYRACUSE,,013,005,022,129,048,015,,,,004,
739,4,790,790,EVEN,CANAL ST,13210,SYRACUSE,,006,007,022,128,048,009,,,,005,
6315,16,101,302,ALL,CANDEE AVE,13224,SYRACUSE,,017,008,022,128,048,017,,,,005,
3661,37,118,516,ALL,CANNON ST,13205,SYRACUSE,,019,002,022,128,048,016,,,,004,
3662,45,609,1158,ALL,CANNON ST,13205,SYRACUSE,,014,001,022,128,048,016,,,,004,
1580,129,107,536,ALL,CARBON ST,13208,SYRACUSE,,003,004,022,129,048,009,,,,001,
1581,46,605,806,ALL,CARBON ST,13208,SYRACUSE,,001,006,022,129,048,009,,,,001,
1582,19,903,1006,ALL,CARBON ST,13208,SYRACUSE,,001,002,022,129,048,009,,,,001,
1583,15,1009,1305,ODD,CARBON ST,13208,SYRACUSE,,001,004,022,129,048,009,,,,001,
1584,26,1010,1216,EVEN,CARBON ST,13208,SYRACUSE,,001,002,022,129,048,009,,,,001,
1585,12,103,117,ALL,CARLISLE ST,13208,SYRACUSE,,001,006,022,129,048,009,,,,001,
7347,20,102,220,ALL,CARLTON DR,13214,SYRACUSE,,017,016,022,128,048,017,,,,003,
7348,7,302,316,EVEN,CARLTON DR,13214,SYRACUSE,,017,017,022,128,048,017,,,,003,
7349,2,305,315,ODD,CARLTON DR,13214,SYRACUSE,,017,016,022,128,048,017,,,,003,
8797,2,212,213,ALL,CARLTON DR,13212,SYRACUSE,,017,016,022,128,048,017,,,,003,
2765,28,98,300,ALL,CARLTON RD,13207,SYRACUSE,,011,004,022,129,048,008,,,,002,
2766,13,301,323,ODD,CARLTON RD,13207,SYRACUSE,,013,003,022,129,048,015,,,,002,
2767,9,302,318,EVEN,CARLTON RD,13207,SYRACUSE,,011,004,022,129,048,008,,,,002,
1586,2,208,208,EVEN,CATAWBA ST,13208,SYRACUSE,,003,001,022,129,048,008,,,,001,
1587,4,207,219,ODD,CATAWBA ST,13208,SYRACUSE,,002,003,022,129,048,008,,,,001,
4623,23,200,319,ALL,CATHERINE ST,13203,SYRACUSE,,006,001,022,129,048,009,,,,001,
4624,103,501,710,ALL,CATHERINE ST,13203,SYRACUSE,,009,002,022,129,048,008,,,,001,
4840,89,108,425,ALL,CAYUGA ST,13204,SYRACUSE,,007,002,022,129,048,008,,,,002,
740,5,520,520,EVEN,CEDAR ST,13210,SYRACUSE,,015,002,022,128,048,016,,,,002,
2768,101,1,21,ALL,CENTENNIAL DR,13207,SYRACUSE,,012,004,022,128,048,015,,,,004,
4841,5,101,106,ALL,CENTRAL AVE,13204,SYRACUSE,,008,003,022,128,048,008,,,,002,
2769,51,117,267,ALL,CHAFFEE AVE,13207,SYRACUSE,,013,007,022,129,048,015,,,,004,
2507,25,107,244,ALL,CHAMPLIN DR,13206,SYRACUSE,,005,010,022,129,048,007,,,,005,
3663,3,110,112,ALL,CHANNING PL,13205,SYRACUSE,,014,006,022,129,048,015,,,,004,
4842,12,102,121,ALL,CHARLOTTE ST,13204,SYRACUSE,,007,001,022,129,048,008,,,,002,
2770,27,100,167,ALL,CHARMOUTH DR,13207,SYRACUSE,,013,001,022,128,048,015,,,,004,
2771,12,600,613,ALL,CHARMOUTH DR,13207,SYRACUSE,,013,003,022,129,048,015,,,,002,
1588,9,100,111,ALL,CHATHAM PL,13208,SYRACUSE,,001,001,022,129,048,009,,,,001,
4625,17,118,170,ALL,CHATHAM RD,13203,SYRACUSE,,004,004,022,129,048,007,,,,005,
4518,22,200,222,ALL,CHAVEZ TER,13202,SYRACUSE,,009,005,022,128,048,016,,,,004,
4843,51,201,425,ALL,CHEMUNG ST,13204,SYRACUSE,,007,001,022,129,048,008,,,,002,
6316,6,100,106,ALL,CHENAULT DR,13224,SYRACUSE,,017,012,022,128,048,015,,,,003,
2772,19,100,134,ALL,CHENEY ST,13207,SYRACUSE,,012,001,022,128,048,015,,,,004,
741,8,203,217,ODD,CHERRY ST,13210,SYRACUSE,,017,006,022,128,048,017,,,,005,
742,17,402,418,ALL,CHERRY ST,13210,SYRACUSE,,017,005,022,128,048,015,,,,003,
743,1,419,419,ODD,CHERRY ST,13210,SYRACUSE,,017,005,022,128,048,015,,,,003,
744,5,421,425,ODD,CHERRY ST,13210,SYRACUSE,,017,005,022,128,048,015,,,,003,
2773,2,136,145,ALL,CHESTER ST,13207,SYRACUSE,,012,002,022,128,048,016,,,,004,
745,53,201,441,ALL,CHINOOK DR,13210,SYRACUSE,,019,003,022,129,048,015,,,,003,
3664,89,116,417,ALL,CHURCHILL AVE,13205,SYRACUSE,,014,002,022,128,048,016,,,,004,
746,26,100,140,ALL,CIRCLE RD,13210,SYRACUSE,,016,002,022,129,048,016,,,,003,
7354,24,100,132,ALL,CLAIRE RD,13214,SYRACUSE,,017,016,022,128,048,017,,,,003,
2774,2,111,139,ODD,CLAIRMONTE AVE,13207,SYRACUSE,,012,003,022,128,048,015,,,,002,
2775,14,120,236,EVEN,CLAIRMONTE AVE,13207,SYRACUSE,,011,006,022,129,048,015,,,,002,
2776,27,312,365,ALL,CLAIRMONTE AVE,13207,SYRACUSE,,012,005,022,129,048,008,,,,002,
3665,37,103,418,ALL,CLARENCE AVE,13205,SYRACUSE,,014,008,022,128,048,016,,,,004,
747,15,106,317,ALL,CLARENDON ST,13210,SYRACUSE,,016,003,022,129,048,017,,,,003,
748,17,401,545,ODD,CLARENDON ST,13210,SYRACUSE,,017,001,022,129,048,017,,,,003,
749,22,502,722,EVEN,CLARENDON ST,13210,SYRACUSE,,016,003,022,129,048,017,,,,003,
750,12,601,715,ODD,CLARENDON ST,13210,SYRACUSE,,017,003,022,128,048,015,,,,003,
751,21,101,205,ALL,CLARKE ST,13210,SYRACUSE,,017,003,022,128,048,015,,,,003,
752,2,206,210,EVEN,CLARKE ST,13210,SYRACUSE,,017,012,022,128,048,015,,,,003,
753,2,207,211,ODD,CLARKE ST,13210,SYRACUSE,,017,003,022,128,048,015,,,,003,
2777,6,100,111,ALL,CLAYTON AVE,13207,SYRACUSE,,013,004,022,129,048,015,,,,002,
1590,4,100,104,EVEN,CLEVELAND AVE,13208,SYRACUSE,,003,006,022,129,048,009,,,,001,
1591,11,101,109,ODD,CLEVELAND AVE,13208,SYRACUSE,,003,004,022,129,048,009,,,,001,
1592,40,203,243,ALL,CLEVELAND AVE,13208,SYRACUSE,,003,006,022,129,048,009,,,,001,
1593,11,302,315,ALL,CLEVELAND AVE,13208,SYRACUSE,,003,003,022,129,048,009,,,,001,
754,22,100,132,ALL,CLIFFSIDE DR,13210,SYRACUSE,,019,008,022,129,048,016,,,,004,
2508,50,118,195,ALL,CLIFTON PL,13206,SYRACUSE,,005,003,022,129,048,007,,,,005,
2509,14,200,215,ALL,CLIFTON PL,13206,SYRACUSE,,005,001,022,129,048,007,,,,005,
2511,14,143,179,ALL,CLOVERIDGE DR,13206,SYRACUSE,,005,009,022,129,048,007,,,,005,
2512,56,200,362,ALL,CLOVERIDGE DR,13206,SYRACUSE,,005,011,022,129,048,007,,,,005,
2513,13,415,447,ALL,CLOVERIDGE DR,13206,SYRACUSE,,005,002,022,129,048,009,,,,005,
2778,40,114,218,ALL,CLYDE AVE,13207,SYRACUSE,,013,001,022,128,048,015,,,,004,
4845,8,111,122,ALL,CODY AVE,13204,SYRACUSE,,008,004,022,129,048,008,,,,002,
4846,2,104,105,ALL,COFFEY DR,13204,SYRACUSE,,008,002,022,129,048,008,,,,002,
2514,34,100,192,ALL,COLBY AVE,13206,SYRACUSE,,004,009,022,129,048,007,,,,005,
3666,1,200,200,EVEN,COLDBROOK DR,13205,SYRACUSE,,014,006,022,129,048,015,,,,004,
3667,4,514,923,ALL,COLDBROOK DR,13205,SYRACUSE,,014,007,022,129,048,015,,,,004,
4847,48,100,296,EVEN,COLERIDGE AVE,13204,SYRACUSE,,008,002,022,129,048,008,,,,002,
4848,19,300,394,EVEN,COLERIDGE AVE,13204,SYRACUSE,,008,004,022,129,048,008,,,,002,
755,2,101,131,ODD,COLLEGE PL,13210,SYRACUSE,,016,001,022,129,048,017,,,,003,
2779,38,100,231,ALL,COLUMBIA AVE,13207,SYRACUSE,,013,003,022,129,048,015,,,,002,
756,36,204,309,ALL,COLUMBUS AVE,13210,SYRACUSE,,017,006,022,128,048,017,,,,005,
757,51,424,558,ALL,COLUMBUS AVE,13210,SYRACUSE,,017,005,022,128,048,015,,,,003,
1594,2,104,104,EVEN,COMMONWEALTH AVE,13208,SYRACUSE,,001,004,022,129,048,009,,,,001,
758,18,101,116,ALL,COMSTOCK AVE,13210,SYRACUSE,,016,006,022,129,048,017,,,,005,
759,419,200,775,ALL,COMSTOCK AVE,13210,SYRACUSE,,016,001,022,129,048,017,,,,003,
760,9,801,821,ODD,COMSTOCK AVE,13210,SYRACUSE,,016,003,022,129,048,017,,,,003,
761,18,901,953,ODD,COMSTOCK AVE,13210,SYRACUSE,,016,002,022,129,048,016,,,,003,
762,45,1200,1541,ALL,COMSTOCK AVE,13210,SYRACUSE,,019,003,022,129,048,015,,,,003,
763,16,113,231,ALL,COMSTOCK PL,13210,SYRACUSE,,016,006,022,129,048,017,,,,005,
3668,13,101,145,ALL,CONAN ST,13205,SYRACUSE,,013,006,022,128,048,016,,,,004,
764,22,100,126,ALL,CONCORD PL,13210,SYRACUSE,,017,003,022,128,048,015,,,,003,
4849,3,107,115,ALL,CONGRESS AVE,13204,SYRACUSE,,010,003,022,128,048,015,,,,002,
3669,18,107,217,ODD,CONIFER DR,13205,SYRACUSE,,014,007,022,129,048,015,,,,004,
2515,14,112,238,ALL,CONKLIN AVE,13206,SYRACUSE,,005,011,022,129,048,007,,,,005,
2516,40,117,192,ALL,COOK AVE,13206,SYRACUSE,,005,003,022,129,048,007,,,,005,
2780,51,210,357,ALL,COOLIDGE AVE,13207,SYRACUSE,,012,001,022,128,048,015,,,,004,
4850,22,115,163,ALL,COOLIDGE AVE,13204,SYRACUSE,,012,001,022,128,048,015,,,,004,
2781,15,114,219,ALL,CORAL AVE,13207,SYRACUSE,,013,008,022,128,048,015,,,,004,
4851,22,2,23,ALL,CORCORAN CT,13204,SYRACUSE,,008,001,022,128,048,016,,,,002,
3670,18,101,141,ALL,CORDOVA ST,13205,SYRACUSE,,014,002,022,128,048,016,,,,004,
2782,12,100,133,ALL,CORNELL AVE,13207,SYRACUSE,,013,004,022,129,048,015,,,,002,
3671,1,391,391,ODD,CORTLAND AVE,13205,SYRACUSE,,018,002,022,128,048,016,,,,004,
3672,47,410,554,ALL,CORTLAND AVE,13205,SYRACUSE,,012,002,022,128,048,016,,,,004,
4519,18,152,366,ALL,CORTLAND AVE,13202,SYRACUSE,,018,001,022,128,048,016,,,,004,
2783,16,113,154,ALL,CORTLAND PL,13207,SYRACUSE,,013,008,022,128,048,015,,,,004,
4852,15,1,16,ALL,COSTELLO CT,13204,SYRACUSE,,008,001,022,128,048,016,,,,002,
2517,22,207,829,ALL,COUGHLIN AVE,13206,SYRACUSE,,004,009,022,129,048,007,,,,005,
1595,10,146,215,ALL,COURT ST,13208,SYRACUSE,,002,003,022,129,048,008,,,,001,
1596,1,215,215,ODD,COURT ST,13208,SYRACUSE,,002,003,022,129,048,008,,,,001,
1597,3,217,259,ODD,COURT ST,13208,SYRACUSE,,002,003,022,129,048,008,,,,001,
1598,53,304,536,EVEN,COURT ST,13208,SYRACUSE,,001,006,022,129,048,009,,,,001,
1599,46,409,809,ODD,COURT ST,13208,SYRACUSE,,001,002,022,129,048,009,,,,001,
1600,46,604,1250,EVEN,COURT ST,13208,SYRACUSE,,001,007,022,129,048,009,,,,001,
1601,55,901,1437,ODD,COURT ST,13208,SYRACUSE,,001,005,022,129,048,009,,,,001,
1602,80,1300,2216,EVEN,COURT ST,13208,SYRACUSE,,003,003,022,129,048,009,,,,001,
1603,22,1617,2005,ODD,COURT ST,13208,SYRACUSE,,001,001,022,129,048,009,,,,001,
1608,8,109,135,ALL,COURT TER,13208,SYRACUSE,,001,007,022,129,048,009,,,,001,
2520,1,215,215,ODD,COWIE AVE,13206,SYRACUSE,,004,009,022,129,048,007,,,,005,
4853,13,104,116,ALL,COYKENDALL AVE,13204,SYRACUSE,,007,001,022,129,048,008,,,,002,
4520,6,100,105,ALL,COYNE CIR,13202,SYRACUSE,,012,002,022,128,048,016,,,,004,
2784,33,110,419,ALL,CRADDOCK ST,13207,SYRACUSE,,013,001,022,128,048,015,,,,004,
2785,4,101,203,ALL,CRAFTON AVE,13207,SYRACUSE,,013,009,022,129,048,015,,,,004,
1610,4,108,115,ALL,CRAIG ST,13208,SYRACUSE,,003,004,022,129,048,009,,,,001,
1611,34,211,425,ALL,CRAIG ST,13208,SYRACUSE,,003,006,022,129,048,009,,,,001,
1612,8,509,522,ALL,CRAIG ST,13208,SYRACUSE,,003,003,022,129,048,009,,,,001,
4626,22,103,214,ALL,CRATON ST,13203,SYRACUSE,,006,006,022,129,048,009,,,,005,
6317,16,98,200,ALL,CRAWFORD AVE,13224,SYRACUSE,,017,007,022,128,048,017,,,,003,
6318,13,201,223,ODD,CRAWFORD AVE,13224,SYRACUSE,,017,009,022,128,048,015,,,,003,
6319,8,202,224,EVEN,CRAWFORD AVE,13224,SYRACUSE,,017,007,022,128,048,017,,,,003,
6320,35,225,506,ALL,CRAWFORD AVE,13224,SYRACUSE,,017,009,022,128,048,015,,,,003,
6321,51,600,914,ALL,CRAWFORD AVE,13224,SYRACUSE,,017,012,022,128,048,015,,,,003,
3673,6,107,207,ODD,CREHANGE ST,13205,SYRACUSE,,019,001,022,128,048,016,,,,004,
2786,4,110,135,ALL,CRESCENT AVE,13207,SYRACUSE,,012,001,022,128,048,015,,,,004,
2787,5,207,225,ODD,CRESCENT AVE,13207,SYRACUSE,,012,004,022,128,048,015,,,,004,
2788,9,222,260,EVEN,CRESCENT AVE,13207,SYRACUSE,,012,001,022,128,048,015,,,,004,
2523,27,116,174,ALL,CRESLINE DR,13206,SYRACUSE,,005,010,022,129,048,007,,,,005,
2789,31,106,220,ALL,CRESTVIEW DR,13207,SYRACUSE,,013,007,022,129,048,015,,,,004,
3674,44,114,224,ALL,CRIPPEN AVE,13205,SYRACUSE,,014,010,022,128,048,015,,,,004,
3675,17,111,120,ALL,CRIPPEN PL,13205,SYRACUSE,,014,010,022,128,048,015,,,,004,
6322,92,101,283,ALL,CROLY ST,13224,SYRACUSE,,017,011,022,128,048,017,,,,005,
2790,29,122,715,ALL,CROSSETT ST,13207,SYRACUSE,,012,005,022,129,048,008,,,,002,
4521,23,101,121,ALL,CROTON TER,13202,SYRACUSE,,018,001,022,128,048,016,,,,004,
6326,20,103,233,ALL,CROYDEN RD,13224,SYRACUSE,,017,012,022,128,048,015,,,,003,
4855,7,105,112,ALL,CRYSLER ST,13204,SYRACUSE,,008,002,022,129,048,008,,,,002,
1613,69,105,171,ALL,CULBERT ST,13208,SYRACUSE,,001,003,022,129,048,009,,,,001,
765,31,113,147,ALL,CUMBERLAND AVE,13210,SYRACUSE,,017,007,022,128,048,017,,,,003,
766,27,501,663,ODD,CUMBERLAND AVE,13210,SYRACUSE,,017,012,022,128,048,015,,,,003,
767,26,514,652,EVEN,CUMBERLAND AVE,13210,SYRACUSE,,017,002,022,128,048,015,,,,003,
768,69,801,1232,ALL,CUMBERLAND AVE,13210,SYRACUSE,,019,004,022,129,048,015,,,,003,
769,8,1308,1326,ALL,CUMBERLAND AVE,13210,SYRACUSE,,019,003,022,129,048,015,,,,003,
770,1,201,201,ODD,CUMBERLAND PL,13210,SYRACUSE,,017,012,022,128,048,015,,,,003,
771,1,216,216,EVEN,CUMBERLAND PL,13210,SYRACUSE,,017,002,022,128,048,015,,,,003,
1614,3,109,117,ODD,CUMMINGS AVE,13208,SYRACUSE,,002,003,022,129,048,008,,,,001,
1615,19,104,318,ALL,CURTIS ST,13208,SYRACUSE,,003,004,022,129,048,009,,,,001,
4522,55,100,139,ALL,DABLON CT,13202,SYRACUSE,,009,005,022,128,048,016,,,,004,
4856,3,102,104,EVEN,DAISY ST,13204,SYRACUSE,,012,002,022,128,048,016,,,,004,
6327,20,308,616,ALL,DAKIN ST,13224,SYRACUSE,,017,011,022,128,048,017,,,,005,
772,5,103,202,ALL,DAKOTA ST,13210,SYRACUSE,,017,002,022,128,048,015,,,,003,
773,1,401,401,ODD,DAKOTA ST,13210,SYRACUSE,,017,012,022,128,048,015,,,,003,
1616,62,103,282,ALL,DALE ST,13208,SYRACUSE,,003,003,022,129,048,009,,,,001,
1617,17,115,416,ALL,DANFORTH ST,13208,SYRACUSE,,002,003,022,129,048,008,,,,001,
1618,46,508,715,ALL,DANFORTH ST,13208,SYRACUSE,,001,006,022,129,048,009,,,,001,
1619,94,800,1063,ALL,DANFORTH ST,13208,SYRACUSE,,001,007,022,129,048,009,,,,001,
4523,13,101,121,ALL,DANFORTH TER,13202,SYRACUSE,,018,001,022,128,048,016,,,,004,
1620,69,112,524,ALL,DARLINGTON RD,13208,SYRACUSE,,003,005,022,129,048,007,,,,001,
1621,57,529,917,ALL,DARLINGTON RD,13208,SYRACUSE,,003,003,022,129,048,009,,,,001,
4857,57,102,226,ALL,DAVIS ST,13204,SYRACUSE,,010,001,022,128,048,008,,,,002,
3676,13,120,168,EVEN,DAWES AVE,13205,SYRACUSE,,014,003,022,128,048,016,,,,004,
3677,9,129,161,ODD,DAWES AVE,13205,SYRACUSE,,014,008,022,128,048,016,,,,004,
3678,8,169,213,ALL,DAWES AVE,13205,SYRACUSE,,014,008,022,128,048,016,,,,004,
774,4,1,4,ALL,DAYBREAK LN,13210,SYRACUSE,,019,006,022,129,048,016,,,,003,
3679,19,107,126,ALL,DEARBORN PL,13205,SYRACUSE,,012,002,022,128,048,016,,,,004,
7361,15,206,225,ALL,DEFOREST RD,13214,SYRACUSE,,017,017,022,128,048,017,,,,003,
7362,20,300,323,ALL,DEFOREST RD,13214,SYRACUSE,,017,013,022,128,048,017,,,,003,
4858,1,121,121,ODD,DELAWARE ST,13204,SYRACUSE,,010,003,022,128,048,015,,,,002,
4859,6,132,136,EVEN,DELAWARE ST,13204,SYRACUSE,,010,007,022,128,048,015,,,,004,
4860,23,139,313,ALL,DELAWARE ST,13204,SYRACUSE,,010,003,022,128,048,015,,,,002,
4861,45,417,575,ALL,DELAWARE ST,13204,SYRACUSE,,010,001,022,128,048,008,,,,002,
4627,26,204,233,ALL,DELHI ST,13203,SYRACUSE,,006,002,022,129,048,009,,,,005,
775,9,101,131,ODD,DELL ST,13210,SYRACUSE,,017,005,022,128,048,015,,,,003,
776,9,112,120,EVEN,DELL ST,13210,SYRACUSE,,017,003,022,128,048,015,,,,003,
1625,40,102,141,ALL,DELONG AVE,13208,SYRACUSE,,001,003,022,129,048,009,,,,001,
6328,48,111,255,ALL,DELRAY AVE,13224,SYRACUSE,,017,014,022,128,048,017,,,,005,
7363,16,102,512,EVEN,DEMONG DR,13214,SYRACUSE,,017,017,022,128,048,017,,,,003,
7364,6,301,511,ODD,DEMONG DR,13214,SYRACUSE,,017,016,022,128,048,017,,,,003,
7365,29,513,806,ALL,DEMONG DR,13214,SYRACUSE,,017,016,022,128,048,017,,,,003,
4862,20,100,165,ALL,DEPALMA AVE,13204,SYRACUSE,,011,002,022,129,048,008,,,,002,
4863,13,119,137,ALL,DEWEY AVE,13204,SYRACUSE,,002,001,022,129,048,008,,,,002,
7366,39,100,312,ALL,DEWITT RD,13214,SYRACUSE,,017,013,022,128,048,017,,,,003,
4628,29,128,240,ALL,DEWITT ST,13203,SYRACUSE,,004,005,022,129,048,007,,,,005,
4629,83,301,925,ODD,DEWITT ST,13203,SYRACUSE,,004,002,022,129,048,007,,,,001,
4630,6,308,514,EVEN,DEWITT ST,13203,SYRACUSE,,004,005,022,129,048,007,,,,005,
4631,30,620,932,EVEN,DEWITT ST,13203,SYRACUSE,,004,003,022,129,048,007,,,,005,
777,14,101,128,ALL,DIANA AVE,13210,SYRACUSE,,014,004,022,129,048,015,,,,003,
4524,18,122,122,EVEN,DICKERSON ST,13202,SYRACUSE,,010,006,022,129,048,016,,,,002,
6330,32,112,165,ALL,DIDAMA ST,13224,SYRACUSE,,017,008,022,128,048,017,,,,005,
2525,8,103,208,ALL,DILLAYE AVE,13206,SYRACUSE,,006,006,022,129,048,009,,,,005,
778,2,103,105,ODD,DODGE DR,13210,SYRACUSE,,019,004,022,129,048,015,,,,003,
7368,25,100,135,ALL,DOLL PKWY,13214,SYRACUSE,,017,016,022,128,048,017,,,,003,
4632,5,106,121,ALL,DORCHESTER AVE,13203,SYRACUSE,,004,004,022,129,048,007,,,,005,
4633,63,201,255,ALL,DORCHESTER AVE,13203,SYRACUSE,,004,007,022,129,048,007,,,,005,
4634,29,100,227,ALL,DOROTHY ST,13203,SYRACUSE,,006,005,022,129,048,009,,,,005,
779,22,100,130,ALL,DORSET RD,13210,SYRACUSE,,016,003,022,129,048,017,,,,003,
3681,45,115,251,ALL,DORWIN AVE,13205,SYRACUSE,,014,011,022,129,048,015,,,,004,
3682,4,360,390,EVEN,DORWIN AVE,13205,SYRACUSE,,013,009,022,129,048,015,,,,004,
3683,3,100,110,EVEN,DOUGALL AVE,13205,SYRACUSE,,019,005,022,128,048,016,,,,004,
4635,46,105,351,ALL,DOUGLAS ST,13203,SYRACUSE,,006,003,022,129,048,009,,,,001,
4636,20,404,432,EVEN,DOUGLAS ST,13203,SYRACUSE,,004,011,022,129,048,009,,,,005,
4637,14,405,431,ODD,DOUGLAS ST,13203,SYRACUSE,,004,001,022,129,048,009,,,,001,
4864,8,100,202,ALL,DRISCOLL AVE,13204,SYRACUSE,,007,001,022,129,048,008,,,,002,
4865,6,203,211,ODD,DRISCOLL AVE,13204,SYRACUSE,,007,002,022,129,048,008,,,,002,
4866,3,206,300,EVEN,DRISCOLL AVE,13204,SYRACUSE,,007,001,022,129,048,008,,,,002,
2791,2,115,117,ODD,DUANE ST,13207,SYRACUSE,,011,005,022,128,048,008,,,,002,
2792,1,116,116,EVEN,DUANE ST,13207,SYRACUSE,,011,003,022,129,048,008,,,,002,
2793,25,122,321,ALL,DUANE ST,13207,SYRACUSE,,011,003,022,129,048,008,,,,002,
4868,1,205,205,ODD,DUDLEY ST,13204,SYRACUSE,,010,003,022,128,048,015,,,,002,
4869,8,206,510,EVEN,DUDLEY ST,13204,SYRACUSE,,011,005,022,128,048,008,,,,002,
2794,16,101,123,ALL,DUNDEE DR,13207,SYRACUSE,,011,007,022,129,048,008,,,,002,
4638,33,101,223,ODD,DURSTON AVE,13203,SYRACUSE,,004,006,022,129,048,007,,,,005,
4639,31,128,222,EVEN,DURSTON AVE,13203,SYRACUSE,,004,004,022,129,048,007,,,,005,
4640,75,224,529,ALL,DURSTON AVE,13203,SYRACUSE,,004,004,022,129,048,007,,,,005,
780,27,100,103,ALL,DYER CT,13210,SYRACUSE,,015,004,022,128,048,016,,,,004,
781,22,1011,1011,ODD,E ADAMS ST,13210,SYRACUSE,,015,008,022,129,048,016,,,,003,
782,4,1303,1309,ODD,E ADAMS ST,13210,SYRACUSE,,016,001,022,129,048,017,,,,003,
3684,15,101,121,ALL,E BEARD AVE,13205,SYRACUSE,,019,005,022,128,048,016,,,,004,
4641,10,202,205,ALL,E BELDEN AVE,13203,SYRACUSE,,009,002,022,129,048,008,,,,001,
2795,37,109,185,ALL,E BISSELL ST,13207,SYRACUSE,,012,004,022,128,048,015,,,,004,
3685,4,115,125,ODD,E BORDEN AVE,13205,SYRACUSE,,018,002,022,128,048,016,,,,004,
3686,4,128,202,EVEN,E BORDEN AVE,13205,SYRACUSE,,019,005,022,128,048,016,,,,004,
3687,4,109,109,ALL,E BRIGHTON AVE,13205,SYRACUSE,,019,005,022,128,048,016,,,,004,
3688,14,112,140,EVEN,E BRIGHTON AVE,13205,SYRACUSE,,014,001,022,128,048,016,,,,004,
3689,8,113,143,ODD,E BRIGHTON AVE,13205,SYRACUSE,,019,005,022,128,048,016,,,,004,
3690,40,700,700,EVEN,E BRIGHTON AVE,13205,SYRACUSE,,014,012,022,129,048,015,,,,003,
3691,7,750,750,EVEN,E BRIGHTON AVE,13205,SYRACUSE,,014,005,022,128,048,015,,,,004,
3692,467,812,944,ALL,E BRIGHTON AVE,13205,SYRACUSE,,014,012,022,129,048,015,,,,003,
783,15,302,520,EVEN,E BRIGHTON AVE,13210,SYRACUSE,,014,013,022,129,048,015,,,,004,
784,3,551,551,ODD,E BRIGHTON AVE,13210,SYRACUSE,,014,004,022,129,048,015,,,,003,
2796,17,107,135,ALL,E CHAFFEE AVE,13207,SYRACUSE,,013,009,022,129,048,015,,,,004,
3693,35,102,225,ALL,E CHELTENHAM RD,13205,SYRACUSE,,014,006,022,129,048,015,,,,004,
3694,22,126,414,ALL,E COLVIN ST,13205,SYRACUSE,,019,005,022,128,048,016,,,,004,
785,16,426,736,EVEN,E COLVIN ST,13210,SYRACUSE,,019,008,022,129,048,016,,,,004,
786,22,835,1126,ALL,E COLVIN ST,13210,SYRACUSE,,019,006,022,129,048,016,,,,003,
787,1,2001,2001,ODD,E COLVIN ST,13210,SYRACUSE,,019,004,022,129,048,015,,,,003,
788,8,2024,2212,EVEN,E COLVIN ST,13210,SYRACUSE,,019,003,022,129,048,015,,,,003,
3695,5,116,120,ALL,E CORNING AVE,13205,SYRACUSE,,014,001,022,128,048,016,,,,004,
1627,23,312,421,ALL,E DIVISION ST,13208,SYRACUSE,,003,001,022,129,048,008,,,,001,
1628,50,602,656,ALL,E DIVISION ST,13208,SYRACUSE,,003,002,022,129,048,009,,,,001,
1629,32,703,1002,ALL,E DIVISION ST,13208,SYRACUSE,,003,004,022,129,048,009,,,,001,
4525,2,124,124,EVEN,E ERIE BLVD,13202,SYRACUSE,,009,003,022,129,048,008,,,,002,
4526,3,500,500,EVEN,E ERIE BLVD,13202,SYRACUSE,,009,001,022,129,048,008,,,,002,
789,2,701,701,ODD,E ERIE BLVD,13210,SYRACUSE,,006,010,022,128,048,009,,,,002,
790,2,1630,1758,EVEN,E ERIE BLVD,13210,SYRACUSE,,017,006,022,128,048,017,,,,005,
6333,2,2156,2156,EVEN,E ERIE BLVD,13224,SYRACUSE,,017,011,022,128,048,017,,,,005,
6334,4,2433,2433,ODD,E ERIE BLVD,13224,SYRACUSE,,005,008,022,128,048,009,,,,005,
6335,1,2544,2544,EVEN,E ERIE BLVD,13224,SYRACUSE,,017,010,022,128,048,017,,,,005,
6336,1,2737,2737,ODD,E ERIE BLVD,13224,SYRACUSE,,005,002,022,129,048,009,,,,005,
9173,2,1801,1801,ALL,E ERIE BLVD,13210,SYRACUSE,,017,006,022,128,048,017,,,,005,
6337,89,2003,2515,ALL,E FAYETTE ST,13224,SYRACUSE,,017,011,022,128,048,017,,,,005,
6338,27,2616,2712,ALL,E FAYETTE ST,13224,SYRACUSE,,017,008,022,128,048,017,,,,005,
791,30,712,900,EVEN,E FAYETTE ST,13210,SYRACUSE,,015,002,022,128,048,016,,,,002,
792,38,1003,1228,ALL,E FAYETTE ST,13210,SYRACUSE,,015,006,022,128,048,016,,,,005,
793,222,1304,1918,ALL,E FAYETTE ST,13210,SYRACUSE,,017,006,022,128,048,017,,,,005,
4527,64,150,505,ALL,E FAYETTE ST,13202,SYRACUSE,,009,001,022,129,048,008,,,,002,
3696,1,209,209,ODD,E FLORENCE AVE,13205,SYRACUSE,,014,002,022,128,048,016,,,,004,
3697,2,210,216,EVEN,E FLORENCE AVE,13205,SYRACUSE,,014,008,022,128,048,016,,,,004,
3698,16,219,343,ALL,E FLORENCE AVE,13205,SYRACUSE,,014,002,022,128,048,016,,,,004,
7375,4,100,106,EVEN,E GENESEE PKWY,13214,SYRACUSE,,017,013,022,128,048,017,,,,003,
7376,10,201,307,ODD,E GENESEE PKWY,13214,SYRACUSE,,017,017,022,128,048,017,,,,003,
7377,12,405,437,ODD,E GENESEE PKWY,13214,SYRACUSE,,017,016,022,128,048,017,,,,003,
7378,3,3285,3315,ODD,E GENESEE ST,13214,SYRACUSE,,017,017,022,128,048,017,,,,003,
7379,19,3400,3956,ALL,E GENESEE ST,13214,SYRACUSE,,017,013,022,128,048,017,,,,003,
7381,55,4001,4101,ODD,E GENESEE ST,13214,SYRACUSE,,017,013,022,128,048,017,,,,003,
6339,7,2500,2510,EVEN,E GENESEE ST,13224,SYRACUSE,,017,007,022,128,048,017,,,,003,
6340,9,2501,2523,ODD,E GENESEE ST,13224,SYRACUSE,,017,011,022,128,048,017,,,,005,
6341,19,2600,2693,ALL,E GENESEE ST,13224,SYRACUSE,,017,007,022,128,048,017,,,,003,
6342,11,2700,2854,EVEN,E GENESEE ST,13224,SYRACUSE,,017,009,022,128,048,015,,,,003,
6343,10,2705,2833,ODD,E GENESEE ST,13224,SYRACUSE,,017,007,022,128,048,017,,,,003,
4528,16,120,136,EVEN,E GENESEE ST,13202,SYRACUSE,,009,003,022,129,048,008,,,,002,
4529,8,444,444,EVEN,E GENESEE ST,13202,SYRACUSE,,015,001,022,128,048,016,,,,002,
794,88,709,919,ODD,E GENESEE ST,13210,SYRACUSE,,015,002,022,128,048,016,,,,002,
795,3,1027,1027,ODD,E GENESEE ST,13210,SYRACUSE,,015,006,022,128,048,016,,,,005,
796,4,1060,1060,EVEN,E GENESEE ST,13210,SYRACUSE,,015,007,022,129,048,016,,,,005,
797,80,1105,1420,ALL,E GENESEE ST,13210,SYRACUSE,,016,006,022,129,048,017,,,,005,
798,191,1433,2325,ODD,E GENESEE ST,13210,SYRACUSE,,017,006,022,128,048,017,,,,005,
799,7,1450,1460,EVEN,E GENESEE ST,13210,SYRACUSE,,016,006,022,129,048,017,,,,005,
800,51,1500,1630,EVEN,E GENESEE ST,13210,SYRACUSE,,017,018,022,128,048,015,,,,005,
801,9,1828,1930,EVEN,E GENESEE ST,13210,SYRACUSE,,017,005,022,128,048,015,,,,003,
802,14,2004,2324,EVEN,E GENESEE ST,13210,SYRACUSE,,017,004,022,128,048,017,,,,003,
803,12,2401,2427,ODD,E GENESEE ST,13210,SYRACUSE,,017,011,022,128,048,017,,,,005,
804,13,2406,2430,EVEN,E GENESEE ST,13210,SYRACUSE,,017,007,022,128,048,017,,,,003,
3699,21,113,244,ALL,E GLEN AVE,13205,SYRACUSE,,014,008,022,128,048,016,,,,004,
3700,8,301,339,ODD,E GLEN AVE,13205,SYRACUSE,,014,002,022,128,048,016,,,,004,
3701,6,304,328,EVEN,E GLEN AVE,13205,SYRACUSE,,014,008,022,128,048,016,,,,004,
3702,4,402,416,ALL,E GLEN AVE,13205,SYRACUSE,,014,005,022,128,048,015,,,,004,
1630,32,410,829,ALL,E HIAWATHA BLVD,13208,SYRACUSE,,001,002,022,129,048,009,,,,001,
4530,1,103,103,ODD,E JEFFERSON,13202,SYRACUSE,,009,001,022,129,048,008,,,,002,
4531,20,120,205,ALL,E JEFFERSON ST,13202,SYRACUSE,,009,001,022,129,048,008,,,,002,
3703,36,102,312,ALL,E KENNEDY ST,13205,SYRACUSE,,018,002,022,128,048,016,,,,004,
3704,10,117,133,ALL,E LAFAYETTE AVE,13205,SYRACUSE,,014,001,022,128,048,016,,,,004,
4642,13,406,608,ALL,E LAUREL ST,13203,SYRACUSE,,009,002,022,129,048,008,,,,001,
4643,35,707,744,ALL,E LAUREL ST,13203,SYRACUSE,,006,003,022,129,048,009,,,,001,
3705,16,116,320,EVEN,E MARTIN LUTHER KING,13205,SYRACUSE,,018,002,022,128,048,016,,,,004,
3706,8,207,221,ODD,E MARTIN LUTHER KING,13205,SYRACUSE,,018,001,022,128,048,016,,,,004,
3707,22,108,156,ALL,E MATSON AVE,13205,SYRACUSE,,014,003,022,128,048,016,,,,004,
2529,25,125,222,ALL,E MILFORD DR,13206,SYRACUSE,,005,009,022,129,048,007,,,,005,
3708,1,101,101,ODD,E NEWELL ST,13205,SYRACUSE,,014,001,022,128,048,016,,,,004,
4532,2,240,259,ALL,E ONONDAGA ST,13202,SYRACUSE,,009,001,022,129,048,008,,,,002,
3709,12,101,110,ALL,E OSTRANDER AVE,13205,SYRACUSE,,014,003,022,128,048,016,,,,004,
4533,4,405,415,ODD,E RAYNOR AVE,13202,SYRACUSE,,018,001,022,128,048,016,,,,004,
3710,3,125,153,ODD,E SENECA TPKE,13205,SYRACUSE,,014,008,022,128,048,016,,,,004,
3711,4,136,152,EVEN,E SENECA TPKE,13205,SYRACUSE,,014,006,022,129,048,015,,,,004,
3712,13,158,302,ALL,E SENECA TPKE,13205,SYRACUSE,,014,006,022,129,048,015,,,,004,
3713,7,303,369,ODD,E SENECA TPKE,13205,SYRACUSE,,014,005,022,128,048,015,,,,004,
3714,5,306,390,EVEN,E SENECA TPKE,13205,SYRACUSE,,014,006,022,129,048,015,,,,004,
3715,5,468,518,EVEN,E SENECA TPKE,13205,SYRACUSE,,014,009,022,129,048,015,,,,003,
3716,96,485,695,ODD,E SENECA TPKE,13205,SYRACUSE,,014,012,022,129,048,015,,,,003,
3717,39,100,224,ALL,E WARRINGTON RD,13205,SYRACUSE,,014,006,022,129,048,015,,,,004,
4534,11,100,120,EVEN,E WASHINGTON ST,13202,SYRACUSE,,009,003,022,129,048,008,,,,002,
4535,72,300,447,ALL,E WASHINGTON ST,13202,SYRACUSE,,009,001,022,129,048,008,,,,002,
805,5,1402,1408,EVEN,E WASHINGTON ST,13210,SYRACUSE,,017,006,022,128,048,017,,,,005,
9152,1,246,246,EVEN,E WATER ST,13202,SYRACUSE,,009,001,022,129,048,008,,,,002,
4536,46,121,243,ODD,E WATER ST,13202,SYRACUSE,,009,003,022,129,048,008,,,,002,
4537,4,323,325,ALL,E WATER ST,13202,SYRACUSE,,009,001,022,129,048,008,,,,002,
4538,4,123,123,ODD,E WILLOW ST,13202,SYRACUSE,,009,003,022,129,048,008,,,,002,
4644,158,313,825,ALL,E WILLOW ST,13203,SYRACUSE,,009,002,022,129,048,008,,,,001,
6344,25,131,228,ALL,EAST AVE,13224,SYRACUSE,,017,007,022,128,048,017,,,,003,
2797,10,106,116,ALL,EASTMAN AVE,13207,SYRACUSE,,013,001,022,128,048,015,,,,004,
2798,1,109,109,ODD,EASTVIEW AVE,13207,SYRACUSE,,012,004,022,128,048,015,,,,004,
6345,11,121,185,ODD,EDGEHILL RD,13224,SYRACUSE,,017,017,022,128,048,017,,,,003,
6346,12,124,182,EVEN,EDGEHILL RD,13224,SYRACUSE,,017,007,022,128,048,017,,,,003,
7385,44,100,232,ALL,EDGEMONT DR,13214,SYRACUSE,,017,013,022,128,048,017,,,,003,
2799,10,100,320,EVEN,EDGEWOOD AVE,13207,SYRACUSE,,013,004,022,129,048,015,,,,002,
2800,3,101,319,ODD,EDGEWOOD AVE,13207,SYRACUSE,,013,002,022,128,048,015,,,,002,
3718,4,113,205,ALL,EDGEWOOD DR,13205,SYRACUSE,,014,007,022,129,048,015,,,,004,
4870,2,259,259,ODD,EDISON ST,13204,SYRACUSE,,002,001,022,129,048,008,,,,002,
3719,34,100,217,ALL,EDNA RD,13205,SYRACUSE,,014,011,022,129,048,015,,,,004,
2530,40,100,118,ALL,EDTIM RD,13206,SYRACUSE,,004,008,022,129,048,007,,,,005,
2531,45,112,232,ALL,ELDORADO ST,13206,SYRACUSE,,005,001,022,129,048,007,,,,005,
3720,14,101,223,ALL,ELIZABETH ST,13205,SYRACUSE,,019,005,022,128,048,016,,,,004,
3721,36,100,230,ALL,ELK ST,13205,SYRACUSE,,019,005,022,128,048,016,,,,004,
1634,8,100,115,ALL,ELLEN ST,13208,SYRACUSE,,001,005,022,129,048,009,,,,001,
4871,4,101,111,ODD,ELLIOTT ST,13204,SYRACUSE,,010,003,022,128,048,015,,,,002,
4872,16,201,319,ALL,ELLIOTT ST,13204,SYRACUSE,,011,005,022,128,048,008,,,,002,
4873,28,401,433,ALL,ELLIOTT ST,13204,SYRACUSE,,011,001,022,128,048,008,,,,002,
806,51,328,461,ALL,ELLIS ST,13210,SYRACUSE,,017,011,022,128,048,017,,,,005,
4645,145,305,433,ALL,ELM ST,13203,SYRACUSE,,006,002,022,129,048,009,,,,005,
4646,9,505,534,ALL,ELM ST,13203,SYRACUSE,,006,005,022,129,048,009,,,,005,
2801,34,106,207,ALL,ELMHURST AVE,13207,SYRACUSE,,013,001,022,128,048,015,,,,004,
3722,1,74,74,EVEN,ELMHURST AVE,13205,SYRACUSE,,019,001,022,128,048,016,,,,004,
2802,10,106,117,ALL,ELMWOOD AVE,13207,SYRACUSE,,013,002,022,128,048,015,,,,002,
2803,17,118,150,EVEN,ELMWOOD AVE,13207,SYRACUSE,,013,004,022,129,048,015,,,,002,
2804,9,119,155,ODD,ELMWOOD AVE,13207,SYRACUSE,,013,002,022,128,048,015,,,,002,
2805,13,100,119,ALL,ELOISE TER,13207,SYRACUSE,,012,004,022,128,048,015,,,,004,
4647,12,101,310,ALL,ELSNER ST,13203,SYRACUSE,,004,002,022,129,048,007,,,,001,
4874,15,101,119,ALL,EMERSON AVE,13204,SYRACUSE,,008,002,022,129,048,008,,,,002,
4875,23,206,407,ALL,EMERSON AVE,13204,SYRACUSE,,007,002,022,129,048,008,,,,002,
4876,5,408,416,EVEN,EMERSON AVE,13204,SYRACUSE,,007,001,022,129,048,008,,,,002,
4877,5,505,567,ODD,EMERSON AVE,13204,SYRACUSE,,007,002,022,129,048,008,,,,002,
4878,104,705,1021,ALL,EMERSON AVE,13204,SYRACUSE,,007,001,022,129,048,008,,,,002,
2806,22,108,269,ALL,EMPIRE AVE,13207,SYRACUSE,,013,008,022,128,048,015,,,,004,
7387,10,100,120,ALL,ENFIELD PL,13214,SYRACUSE,,017,013,022,128,048,017,,,,003,
1635,11,103,145,ODD,ENGLERT AVE,13208,SYRACUSE,,001,005,022,129,048,009,,,,001,
1636,4,112,124,EVEN,ENGLERT AVE,13208,SYRACUSE,,001,001,022,129,048,009,,,,001,
2807,28,115,429,ALL,ENGLEWOOD AVE,13207,SYRACUSE,,013,005,022,129,048,015,,,,004,
1637,1,116,116,EVEN,ERICKSON ST,13208,SYRACUSE,,005,011,022,129,048,007,,,,005,
2532,24,112,159,ALL,ERICKSON ST,13206,SYRACUSE,,005,011,022,129,048,007,,,,005,
2533,9,209,240,ALL,ERICKSON ST,13206,SYRACUSE,,005,002,022,129,048,009,,,,005,
4539,17,500,500,EVEN,ERIE BLVD E,13202,SYRACUSE,,009,001,022,129,048,008,,,,002,
9168,3,1801,1801,ODD,ERIE BLVD E,13210,SYRACUSE,,006,006,022,129,048,009,,,,005,
4879,9,538,538,EVEN,ERIE BLVD W,13204,SYRACUSE,,002,001,022,129,048,008,,,,002,
4880,57,107,415,ALL,ERIE ST,13204,SYRACUSE,,007,002,022,129,048,008,,,,002,
4881,69,103,316,ALL,ESSEX ST,13204,SYRACUSE,,007,001,022,129,048,008,,,,002,
4883,1,324,324,EVEN,ESSEX ST,13204,SYRACUSE,,007,001,022,129,048,008,,,,002,
2808,4,104,205,ALL,ETHEL ST,13207,SYRACUSE,,011,007,022,129,048,008,,,,002,
6350,11,1305,1322,ALL,EUCLID AVE,13224,SYRACUSE,,017,012,022,128,048,015,,,,003,
6351,8,1401,1609,ODD,EUCLID AVE,13224,SYRACUSE,,017,009,022,128,048,015,,,,003,
6352,6,1500,1610,EVEN,EUCLID AVE,13224,SYRACUSE,,017,012,022,128,048,015,,,,003,
6353,10,1613,1709,ALL,EUCLID AVE,13224,SYRACUSE,,017,009,022,128,048,015,,,,003,
6354,23,1807,2410,ALL,EUCLID AVE,13224,SYRACUSE,,017,015,022,128,048,017,,,,003,
807,131,125,201,ODD,EUCLID AVE,13210,SYRACUSE,,016,001,022,129,048,017,,,,003,
808,2,200,200,EVEN,EUCLID AVE,13210,SYRACUSE,,016,003,022,129,048,017,,,,003,
809,61,212,624,ALL,EUCLID AVE,13210,SYRACUSE,,016,003,022,129,048,017,,,,003,
810,13,700,758,EVEN,EUCLID AVE,13210,SYRACUSE,,016,002,022,129,048,016,,,,003,
811,31,701,827,ODD,EUCLID AVE,13210,SYRACUSE,,016,003,022,129,048,017,,,,003,
812,5,800,816,EVEN,EUCLID AVE,13210,SYRACUSE,,017,002,022,128,048,015,,,,003,
813,16,919,1014,ALL,EUCLID AVE,13210,SYRACUSE,,017,003,022,128,048,015,,,,003,
814,14,1015,1221,ODD,EUCLID AVE,13210,SYRACUSE,,017,012,022,128,048,015,,,,003,
815,7,1016,1032,EVEN,EUCLID AVE,13210,SYRACUSE,,017,003,022,128,048,015,,,,003,
816,14,1100,1264,EVEN,EUCLID AVE,13210,SYRACUSE,,017,002,022,128,048,015,,,,003,
817,14,102,117,ALL,EUCLID TER,13210,SYRACUSE,,017,003,022,128,048,015,,,,003,
4885,29,105,134,ALL,EUREKA ST,13204,SYRACUSE,,002,001,022,129,048,008,,,,002,
2809,18,204,254,ALL,EVALEEN AVE,13207,SYRACUSE,,013,008,022,128,048,015,,,,004,
4886,79,300,521,ALL,FABIUS ST,13204,SYRACUSE,,008,001,022,128,048,016,,,,002,
3726,35,106,180,ALL,FAGE AVE,13205,SYRACUSE,,019,002,022,128,048,016,,,,004,
2810,11,114,206,ALL,FAIRDALE AVE,13207,SYRACUSE,,011,004,022,129,048,008,,,,002,
2811,27,102,135,ALL,FAIRFIELD AVE,13207,SYRACUSE,,013,002,022,128,048,015,,,,002,
2812,5,201,209,ALL,FAIRFIELD AVE,13207,SYRACUSE,,013,004,022,129,048,015,,,,002,
4648,7,126,134,EVEN,FAIRVIEW AVE,13203,SYRACUSE,,006,002,022,129,048,009,,,,005,
818,29,101,191,ALL,FARM ACRE RD,13210,SYRACUSE,,019,003,022,129,048,015,,,,003,
4649,4,101,105,ALL,FARMER ST,13203,SYRACUSE,,004,002,022,129,048,007,,,,001,
4650,20,301,332,ALL,FARMER ST,13203,SYRACUSE,,004,005,022,129,048,007,,,,005,
6355,50,110,322,ALL,FAYETTE BLVD,13224,SYRACUSE,,017,014,022,128,048,017,,,,005,
6356,17,417,555,ALL,FAYETTE BLVD,13224,SYRACUSE,,017,010,022,128,048,017,,,,005,
4651,14,107,130,ALL,FEIGEL AVE,13203,SYRACUSE,,004,007,022,129,048,007,,,,005,
819,46,115,190,ALL,FELLOWS AVE,13210,SYRACUSE,,017,004,022,128,048,017,,,,003,
820,25,205,263,ODD,FELLOWS AVE,13210,SYRACUSE,,017,012,022,128,048,015,,,,003,
821,20,204,270,EVEN,FELLOWS AVE,13210,SYRACUSE,,017,003,022,128,048,015,,,,003,
822,35,271,353,ALL,FELLOWS AVE,13210,SYRACUSE,,017,012,022,128,048,015,,,,003,
823,5,410,432,EVEN,FELLOWS AVE,13210,SYRACUSE,,017,003,022,128,048,015,,,,003,
824,6,411,431,ODD,FELLOWS AVE,13210,SYRACUSE,,017,002,022,128,048,015,,,,003,
825,59,435,734,ALL,FELLOWS AVE,13210,SYRACUSE,,017,002,022,128,048,015,,,,003,
4887,15,102,132,ALL,FENTON ST,13204,SYRACUSE,,008,003,022,128,048,008,,,,002,
6357,62,101,283,ALL,FENWAY DR,13224,SYRACUSE,,017,011,022,128,048,017,,,,005,
3727,5,100,110,ALL,FERNDALE DR,13205,SYRACUSE,,014,008,022,128,048,016,,,,004,
3728,31,201,320,ALL,FERNDALE DR,13205,SYRACUSE,,014,010,022,128,048,015,,,,004,
3729,1,337,337,ODD,FERNDALE DR,13205,SYRACUSE,,014,011,022,129,048,015,,,,004,
3730,38,101,175,ALL,FERNWOOD AVE,13205,SYRACUSE,,019,002,022,128,048,016,,,,004,
6358,21,101,125,ALL,FERRIS AVE,13224,SYRACUSE,,017,007,022,128,048,017,,,,003,
3731,11,117,231,ODD,FILLMORE AVE,13205,SYRACUSE,,014,003,022,128,048,016,,,,004,
3732,11,126,208,EVEN,FILLMORE AVE,13205,SYRACUSE,,014,002,022,128,048,016,,,,004,
3733,8,232,324,ALL,FILLMORE AVE,13205,SYRACUSE,,014,002,022,128,048,016,,,,004,
1640,9,111,121,ALL,FIRST NORTH ST,13208,SYRACUSE,,003,004,022,129,048,009,,,,001,
1641,10,200,216,EVEN,FIRST NORTH ST,13208,SYRACUSE,,003,006,022,129,048,009,,,,001,
1642,3,201,205,ODD,FIRST NORTH ST,13208,SYRACUSE,,003,004,022,129,048,009,,,,001,
1643,13,301,612,ALL,FIRST NORTH ST,13208,SYRACUSE,,003,004,022,129,048,009,,,,001,
1644,38,703,910,ALL,FIRST NORTH ST,13208,SYRACUSE,,001,003,022,129,048,009,,,,001,
1645,41,1000,1112,ALL,FIRST NORTH ST,13208,SYRACUSE,,001,007,022,129,048,009,,,,001,
1646,67,1203,1618,ALL,FIRST NORTH ST,13208,SYRACUSE,,001,002,022,129,048,009,,,,001,
3734,34,101,195,ALL,FISCOE AVE,13205,SYRACUSE,,014,011,022,129,048,015,,,,004,
2813,3,104,109,ALL,FISH AVE,13207,SYRACUSE,,013,008,022,128,048,015,,,,004,
4888,22,100,155,ALL,FITCH ST,13204,SYRACUSE,,010,003,022,128,048,015,,,,002,
3407,10,208,252,EVEN,FITCH ST,13204,SYRACUSE,,010,001,022,128,048,008,,,,002,
3408,15,223,259,ODD,FITCH ST,13204,SYRACUSE,,011,005,022,128,048,008,,,,002,
3409,6,312,336,EVEN,FITCH ST,13204,SYRACUSE,,008,003,022,128,048,008,,,,002,
3410,20,319,409,ODD,FITCH ST,13204,SYRACUSE,,011,001,022,128,048,008,,,,002,
3411,5,402,410,EVEN,FITCH ST,13204,SYRACUSE,,011,008,022,129,048,008,,,,002,
3412,5,415,508,ALL,FITCH ST,13204,SYRACUSE,,011,001,022,128,048,008,,,,002,
2814,11,201,232,ALL,FLETCHER AVE,13207,SYRACUSE,,013,004,022,129,048,015,,,,002,
3735,1,110,110,EVEN,FLORAL PKWY,13205,SYRACUSE,,014,010,022,128,048,015,,,,004,
2534,2,100,120,EVEN,FOBES AVE,13206,SYRACUSE,,004,010,022,129,048,007,,,,005,
2535,19,121,269,ALL,FOBES AVE,13206,SYRACUSE,,004,008,022,129,048,007,,,,005,
2536,58,308,381,ALL,FOBES AVE,13206,SYRACUSE,,004,009,022,129,048,007,,,,005,
9171,1,113,113,ODD,FOBES AVE,13206,SYRACUSE,,004,008,022,129,048,007,,,,005,
2815,6,104,114,ALL,FORD AVE,13207,SYRACUSE,,013,001,022,128,048,015,,,,004,
4652,62,100,204,ALL,FORDHAM RD,13203,SYRACUSE,,004,007,022,129,048,007,,,,005,
1647,4,115,120,ALL,FORDLAND AVE,13208,SYRACUSE,,001,005,022,129,048,009,,,,001,
3736,32,116,184,ALL,FOREST AVE,13205,SYRACUSE,,019,002,022,128,048,016,,,,004,
3737,15,200,236,ALL,FOREST AVE,13205,SYRACUSE,,019,001,022,128,048,016,,,,004,
7619,1,105,105,ODD,FOREST EDGE DR,13215,SYRACUSE,,011,007,022,129,048,008,,,,002,
2537,95,116,275,ALL,FOREST HILL DR,13206,SYRACUSE,,005,004,022,129,048,007,,,,005,
2538,48,300,375,ALL,FOREST HILL DR,13206,SYRACUSE,,005,005,022,129,048,007,,,,005,
826,2,1,1,ODD,FORESTRY DR,13210,SYRACUSE,,016,005,022,129,048,016,,,,003,
827,1,220,220,EVEN,FORMAN AVE,13210,SYRACUSE,,009,001,022,129,048,008,,,,002,
9189,13,311,311,ALL,FORMAN AVE,13210,SYRACUSE,,015,002,022,128,048,016,,,,002,
4653,17,102,124,ALL,FOUNTAIN ST,13203,SYRACUSE,,006,002,022,129,048,009,,,,005,
1648,11,103,207,ODD,FOURTH NORTH ST,13208,SYRACUSE,,001,005,022,129,048,009,,,,001,
6359,9,111,140,ALL,FOXBORO RD,13224,SYRACUSE,,017,010,022,128,048,017,,,,005,
828,29,100,147,ALL,FRISBIE CT,13210,SYRACUSE,,015,004,022,128,048,016,,,,004,
3738,47,124,274,ALL,FURMAN ST,13205,SYRACUSE,,018,002,022,128,048,016,,,,004,
3739,28,301,373,ALL,FURMAN ST,13205,SYRACUSE,,012,002,022,128,048,016,,,,004,
829,19,101,128,ALL,GAGE CT,13210,SYRACUSE,,015,004,022,128,048,016,,,,004,
2539,3,110,112,EVEN,GALE AVE,13206,SYRACUSE,,006,006,022,129,048,009,,,,005,
1649,5,104,106,ALL,GANNETT AVE,13208,SYRACUSE,,001,005,022,129,048,009,,,,001,
3740,6,106,131,ALL,GARFIELD AVE,13205,SYRACUSE,,018,002,022,128,048,016,,,,004,
3741,9,205,235,ODD,GARFIELD AVE,13205,SYRACUSE,,019,005,022,128,048,016,,,,004,
3742,9,210,248,EVEN,GARFIELD AVE,13205,SYRACUSE,,018,002,022,128,048,016,,,,004,
3743,41,304,529,ALL,GARFIELD AVE,13205,SYRACUSE,,019,005,022,128,048,016,,,,004,
3744,4,101,120,ALL,GARY AVE,13205,SYRACUSE,,014,011,022,129,048,015,,,,004,
1650,4,117,123,ALL,GEBHARDT AVE,13208,SYRACUSE,,003,001,022,129,048,008,,,,001,
6360,77,100,288,ALL,GENESEE PK DR,13224,SYRACUSE,,017,011,022,128,048,017,,,,005,
6361,14,310,385,ALL,GENESEE PK DR,13224,SYRACUSE,,017,007,022,128,048,017,,,,003,
3413,24,102,304,ALL,GERE AVE,13204,SYRACUSE,,007,001,022,129,048,008,,,,002,
4654,41,105,134,ALL,GERTRUDE ST,13203,SYRACUSE,,006,001,022,129,048,009,,,,001,
4655,45,203,379,ALL,GERTRUDE ST,13203,SYRACUSE,,006,002,022,129,048,009,,,,005,
7392,16,100,211,ALL,GIFFORD PKWY,13214,SYRACUSE,,017,016,022,128,048,017,,,,003,
4540,22,115,206,ALL,GIFFORD ST,13202,SYRACUSE,,010,006,022,129,048,016,,,,002,
3414,114,312,448,EVEN,GIFFORD ST,13204,SYRACUSE,,008,001,022,128,048,016,,,,002,
3415,1,401,401,ODD,GIFFORD ST,13204,SYRACUSE,,010,003,022,128,048,015,,,,002,
3416,12,427,445,ODD,GIFFORD ST,13204,SYRACUSE,,010,003,022,128,048,015,,,,002,
3417,76,501,665,ALL,GIFFORD ST,13204,SYRACUSE,,008,003,022,128,048,008,,,,002,
1651,19,101,219,ALL,GILBERT AVE,13208,SYRACUSE,,003,004,022,129,048,009,,,,001,
1652,5,100,110,ALL,GILBERT ST,13208,SYRACUSE,,001,001,022,129,048,009,,,,001,
3418,10,100,110,ALL,GIMINSKI DR,13204,SYRACUSE,,002,002,022,129,048,008,,,,002,
2816,23,101,269,ALL,GIRARD AVE,13207,SYRACUSE,,013,008,022,128,048,015,,,,004,
3745,16,102,117,ALL,GLAHN AVE,13205,SYRACUSE,,019,001,022,128,048,016,,,,004,
3746,7,102,105,ALL,GLASS TER,13205,SYRACUSE,,019,005,022,128,048,016,,,,004,
2542,1,211,211,ODD,GLENCOVE RD,13206,SYRACUSE,,005,004,022,129,048,007,,,,005,
2543,1,320,320,EVEN,GLENCOVE RD,13206,SYRACUSE,,005,005,022,129,048,007,,,,005,
2544,25,404,1030,EVEN,GLENCOVE RD,13206,SYRACUSE,,005,010,022,129,048,007,,,,005,
2545,2,501,501,ODD,GLENCOVE RD,13206,SYRACUSE,,005,006,022,129,048,007,,,,005,
2546,5,1306,1621,ALL,GLENCOVE RD,13206,SYRACUSE,,005,011,022,129,048,007,,,,005,
2817,11,105,131,ODD,GLENWOOD AVE,13207,SYRACUSE,,013,002,022,128,048,015,,,,002,
2818,24,116,270,EVEN,GLENWOOD AVE,13207,SYRACUSE,,013,001,022,128,048,015,,,,004,
2819,62,201,935,ODD,GLENWOOD AVE,13207,SYRACUSE,,013,004,022,129,048,015,,,,002,
2820,33,300,822,EVEN,GLENWOOD AVE,13207,SYRACUSE,,013,003,022,129,048,015,,,,002,
2821,24,1129,1414,ALL,GLENWOOD AVE,13207,SYRACUSE,,011,004,022,129,048,008,,,,002,
2822,15,1514,1944,EVEN,GLENWOOD AVE,13207,SYRACUSE,,011,007,022,129,048,008,,,,002,
830,53,100,325,ALL,GOODRICH AVE,13210,SYRACUSE,,019,003,022,129,048,015,,,,003,
2823,41,103,242,ALL,GORDON AVE,13207,SYRACUSE,,012,005,022,129,048,008,,,,002,
2824,11,302,327,ALL,GORDON AVE,13207,SYRACUSE,,011,004,022,129,048,008,,,,002,
6362,25,102,168,ALL,GORLAND AVE,13224,SYRACUSE,,017,017,022,128,048,017,,,,003,
3419,19,108,222,EVEN,GRACE ST,13204,SYRACUSE,,010,001,022,128,048,008,,,,002,
3420,21,111,205,ODD,GRACE ST,13204,SYRACUSE,,010,003,022,128,048,015,,,,002,
3421,1,205,205,ODD,GRACE ST,13204,SYRACUSE,,010,003,022,128,048,015,,,,002,
3422,7,207,221,ODD,GRACE ST,13204,SYRACUSE,,010,003,022,128,048,015,,,,002,
3423,15,102,225,ALL,GRAND AVE,13204,SYRACUSE,,008,003,022,128,048,008,,,,002,
3424,12,231,265,ODD,GRAND AVE,13204,SYRACUSE,,011,008,022,129,048,008,,,,002,
3425,11,401,607,ODD,GRAND AVE,13204,SYRACUSE,,011,002,022,129,048,008,,,,002,
2825,4,202,212,EVEN,GRANDVIEW AVE,13207,SYRACUSE,,011,006,022,129,048,015,,,,002,
2826,19,104,428,EVEN,GRANT AVE,13207,SYRACUSE,,011,005,022,128,048,008,,,,002,
2827,22,301,433,ODD,GRANT AVE,13207,SYRACUSE,,011,003,022,129,048,008,,,,002,
4656,10,525,581,ODD,GRANT BLVD,13203,SYRACUSE,,004,007,022,129,048,007,,,,005,
4657,5,721,919,ODD,GRANT BLVD,13203,SYRACUSE,,004,004,022,129,048,007,,,,005,
4658,28,1007,1217,ODD,GRANT BLVD,13203,SYRACUSE,,004,003,022,129,048,007,,,,005,
4659,4,1130,1144,EVEN,GRANT BLVD,13203,SYRACUSE,,004,012,022,129,048,007,,,,001,
4660,11,1200,1218,EVEN,GRANT BLVD,13203,SYRACUSE,,003,005,022,129,048,007,,,,001,
2547,44,113,431,ODD,GRANT BLVD,13206,SYRACUSE,,004,007,022,129,048,007,,,,005,
2548,45,136,328,EVEN,GRANT BLVD,13206,SYRACUSE,,004,008,022,129,048,007,,,,005,
1654,52,1301,1873,ODD,GRANT BLVD,13208,SYRACUSE,,004,002,022,129,048,007,,,,001,
1655,39,1302,1844,EVEN,GRANT BLVD,13208,SYRACUSE,,003,005,022,129,048,007,,,,001,
1656,53,2006,2238,ALL,GRANT BLVD,13208,SYRACUSE,,003,003,022,129,048,009,,,,001,
1657,32,2303,2423,ALL,GRANT BLVD,13208,SYRACUSE,,001,003,022,129,048,009,,,,001,
1658,1,2501,2501,ODD,GRANT BLVD,13208,SYRACUSE,,001,002,022,129,048,009,,,,001,
1659,6,2503,2529,ODD,GRANT BLVD,13208,SYRACUSE,,001,007,022,129,048,009,,,,001,
1660,1,2601,2601,ODD,GRANT BLVD,13208,SYRACUSE,,001,002,022,129,048,009,,,,001,
1661,4,2613,2633,ODD,GRANT BLVD,13208,SYRACUSE,,001,007,022,129,048,009,,,,001,
1662,26,2710,3024,EVEN,GRANT BLVD,13208,SYRACUSE,,001,005,022,129,048,009,,,,001,
1663,20,2713,3137,ODD,GRANT BLVD,13208,SYRACUSE,,001,002,022,129,048,009,,,,001,
4541,17,100,221,ALL,GRAPE TER,13202,SYRACUSE,,018,001,022,128,048,016,,,,004,
1664,4,106,106,EVEN,GRASSMAN AVE,13208,SYRACUSE,,003,004,022,129,048,009,,,,001,
4661,20,101,307,ODD,GRAVES ST,13203,SYRACUSE,,004,001,022,129,048,009,,,,001,
4662,19,106,412,EVEN,GRAVES ST,13203,SYRACUSE,,006,003,022,129,048,009,,,,001,
4663,4,401,407,ODD,GRAVES ST,13203,SYRACUSE,,004,011,022,129,048,009,,,,005,
4664,49,100,120,EVEN,GRAY AVE,13203,SYRACUSE,,004,007,022,129,048,007,,,,005,
4665,74,103,222,ALL,GREEN ST,13203,SYRACUSE,,006,001,022,129,048,009,,,,001,
4666,54,306,362,EVEN,GREEN ST,13203,SYRACUSE,,006,002,022,129,048,009,,,,005,
4667,6,345,365,ODD,GREEN ST,13203,SYRACUSE,,006,005,022,129,048,009,,,,005,
4668,5,100,108,ALL,GREEN ST PL,13203,SYRACUSE,,006,002,022,129,048,009,,,,005,
1665,36,115,177,ALL,GREENLAND DR,13208,SYRACUSE,,003,005,022,129,048,007,,,,001,
2550,30,301,406,ALL,GREENWAY AVE,13206,SYRACUSE,,006,006,022,129,048,009,,,,005,
831,31,100,256,ALL,GREENWOOD PL,13210,SYRACUSE,,017,005,022,128,048,015,,,,003,
832,22,304,516,EVEN,GREENWOOD PL,13210,SYRACUSE,,017,001,022,129,048,017,,,,003,
833,3,315,415,ODD,GREENWOOD PL,13210,SYRACUSE,,017,003,022,128,048,015,,,,003,
2828,9,105,125,ODD,GRIFFIN ST,13207,SYRACUSE,,013,005,022,129,048,015,,,,004,
2829,8,110,124,EVEN,GRIFFIN ST,13207,SYRACUSE,,013,001,022,128,048,015,,,,004,
1666,4,110,110,EVEN,GRIFFITHS ST,13208,SYRACUSE,,003,006,022,129,048,009,,,,001,
1667,7,111,125,ALL,GRIFFITHS ST,13208,SYRACUSE,,003,004,022,129,048,009,,,,001,
1668,26,131,225,ALL,GRIFFITHS ST,13208,SYRACUSE,,003,006,022,129,048,009,,,,001,
1669,14,301,413,ODD,GRIFFITHS ST,13208,SYRACUSE,,003,004,022,129,048,009,,,,001,
1670,9,300,416,EVEN,GRIFFITHS ST,13208,SYRACUSE,,003,006,022,129,048,009,,,,001,
2830,7,100,120,ALL,GROVE ST,13207,SYRACUSE,,013,008,022,128,048,015,,,,004,
4669,32,113,225,ALL,GRUMBACH AVE,13203,SYRACUSE,,004,001,022,129,048,009,,,,001,
4670,8,226,246,EVEN,GRUMBACH AVE,13203,SYRACUSE,,004,002,022,129,048,007,,,,001,
4671,11,227,247,ODD,GRUMBACH AVE,13203,SYRACUSE,,004,001,022,129,048,009,,,,001,
6363,9,103,211,ALL,GUILFORD RD,13224,SYRACUSE,,017,015,022,128,048,017,,,,003,
7398,6,101,211,ALL,HADDON RD,13214,SYRACUSE,,017,013,022,128,048,017,,,,003,
834,15,100,206,ALL,HAFFENDEN RD,13210,SYRACUSE,,019,007,022,129,048,015,,,,003,
3747,48,112,252,ALL,HALL AVE,13205,SYRACUSE,,014,003,022,128,048,016,,,,004,
3426,8,301,309,ODD,HAMILTON ST,13204,SYRACUSE,,007,002,022,129,048,008,,,,002,
3427,9,306,312,EVEN,HAMILTON ST,13204,SYRACUSE,,007,001,022,129,048,008,,,,002,
3428,66,401,722,ALL,HAMILTON ST,13204,SYRACUSE,,007,002,022,129,048,008,,,,002,
4672,12,101,118,ALL,HAMPSHIRE RD,13203,SYRACUSE,,004,005,022,129,048,007,,,,005,
4673,15,100,228,EVEN,HAMPTON RD,13203,SYRACUSE,,004,007,022,129,048,007,,,,005,
4674,17,115,225,ODD,HAMPTON RD,13203,SYRACUSE,,004,004,022,129,048,007,,,,005,
2831,66,101,222,ALL,HANCOCK DR,13207,SYRACUSE,,011,004,022,129,048,008,,,,002,
3429,1,125,125,ODD,HARBOR ST,13204,SYRACUSE,,007,001,022,129,048,008,,,,002,
3748,21,111,215,ODD,HARDING PL,13205,SYRACUSE,,014,006,022,129,048,015,,,,004,
3749,20,116,216,EVEN,HARDING PL,13205,SYRACUSE,,014,007,022,129,048,015,,,,004,
1672,13,100,156,EVEN,HARDING ST,13208,SYRACUSE,,003,003,022,129,048,009,,,,001,
1673,11,107,159,ODD,HARDING ST,13208,SYRACUSE,,003,005,022,129,048,007,,,,001,
1674,27,160,263,ALL,HARDING ST,13208,SYRACUSE,,003,003,022,129,048,009,,,,001,
1675,42,100,356,ALL,HARFORD RD,13208,SYRACUSE,,001,001,022,129,048,009,,,,001,
1676,22,108,165,ALL,HAROLD ST,13208,SYRACUSE,,003,005,022,129,048,007,,,,001,
835,31,203,292,ALL,HARRIETTE AVE,13210,SYRACUSE,,019,006,022,129,048,016,,,,003,
6365,24,100,131,ALL,HARRINGTON RD,13224,SYRACUSE,,017,015,022,128,048,017,,,,003,
4542,89,500,600,EVEN,HARRISON ST,13202,SYRACUSE,,015,001,022,128,048,016,,,,002,
836,16,908,908,EVEN,HARRISON ST,13210,SYRACUSE,,015,008,022,129,048,016,,,,003,
837,28,1007,1208,ALL,HARRISON ST,13210,SYRACUSE,,016,001,022,129,048,017,,,,003,
4675,9,106,117,ALL,HARTLEY ST,13203,SYRACUSE,,004,002,022,129,048,007,,,,001,
3430,51,102,221,ALL,HARTSON ST,13204,SYRACUSE,,011,001,022,128,048,008,,,,002,
3431,16,300,416,ALL,HARTSON ST,13204,SYRACUSE,,011,002,022,129,048,008,,,,002,
838,20,110,328,EVEN,HARVARD PL,13210,SYRACUSE,,017,003,022,128,048,015,,,,003,
839,10,131,327,ODD,HARVARD PL,13210,SYRACUSE,,017,004,022,128,048,017,,,,003,
840,5,400,426,EVEN,HARVARD PL,13210,SYRACUSE,,017,012,022,128,048,015,,,,003,
6366,51,113,249,ALL,HARWOOD AVE,13224,SYRACUSE,,017,014,022,128,048,017,,,,005,
2551,18,120,134,ALL,HASBROUCK ST,13206,SYRACUSE,,005,002,022,129,048,009,,,,005,
2552,40,111,195,ALL,HASTINGS PL,13206,SYRACUSE,,005,003,022,129,048,007,,,,005,
2553,9,201,211,ALL,HASTINGS PL,13206,SYRACUSE,,005,001,022,129,048,007,,,,005,
3750,36,101,326,ALL,HATCH ST,13205,SYRACUSE,,019,001,022,128,048,016,,,,004,
6367,20,101,123,ALL,HATHERLY RD,13224,SYRACUSE,,017,015,022,128,048,017,,,,003,
841,1,133,133,ODD,HAVEN RD,13210,SYRACUSE,,016,004,022,129,048,016,,,,003,
2554,25,1601,1633,ALL,HAWLEY AVE,13206,SYRACUSE,,006,006,022,129,048,009,,,,005,
4676,141,114,581,ALL,HAWLEY AVE,13203,SYRACUSE,,006,001,022,129,048,009,,,,001,
4677,80,608,1414,ALL,HAWLEY AVE,13203,SYRACUSE,,006,002,022,129,048,009,,,,005,
4678,5,1421,1501,ODD,HAWLEY AVE,13203,SYRACUSE,,006,006,022,129,048,009,,,,005,
842,17,101,205,ALL,HAWTHORNE ST,13210,SYRACUSE,,017,005,022,128,048,015,,,,003,
3432,7,103,139,ODD,HAYDEN AVE,13204,SYRACUSE,,007,002,022,129,048,008,,,,002,
3433,8,108,132,EVEN,HAYDEN AVE,13204,SYRACUSE,,007,001,022,129,048,008,,,,002,
3434,16,211,314,ALL,HAYDEN AVE,13204,SYRACUSE,,007,001,022,129,048,008,,,,002,
3751,1,102,102,EVEN,HAYES TER,13205,SYRACUSE,,014,011,022,129,048,015,,,,004,
3752,5,105,203,ODD,HAYES TER,13205,SYRACUSE,,014,007,022,129,048,015,,,,004,
2555,40,103,274,ALL,HAZELHURST AVE,13206,SYRACUSE,,004,008,022,129,048,007,,,,005,
2556,3,311,333,ODD,HAZELHURST AVE,13206,SYRACUSE,,004,009,022,129,048,007,,,,005,
8904,1,106,106,EVEN,HAZELHURST AVE,13212,SYRACUSE,,004,008,022,129,048,007,,,,005,
8906,2,109,110,ALL,HAZELHURST AVE,13212,SYRACUSE,,004,008,022,129,048,007,,,,005,
8908,1,121,121,ODD,HAZELHURST AVE,13212,SYRACUSE,,004,008,022,129,048,007,,,,005,
6368,18,200,232,EVEN,HAZELWOOD AVE,13224,SYRACUSE,,017,014,022,128,048,017,,,,005,
6369,6,205,223,ODD,HAZELWOOD AVE,13224,SYRACUSE,,017,010,022,128,048,017,,,,005,
6370,67,241,1022,ALL,HAZELWOOD AVE,13224,SYRACUSE,,017,010,022,128,048,017,,,,005,
4679,150,104,731,ALL,HELEN ST,13203,SYRACUSE,,004,002,022,129,048,007,,,,001,
4680,11,111,129,ALL,HENDERSON ST,13203,SYRACUSE,,006,002,022,129,048,009,,,,005,
843,40,150,150,EVEN,HENRY ST,13210,SYRACUSE,,016,004,022,129,048,016,,,,003,
2832,15,103,153,ALL,HENSBERRY RD,13207,SYRACUSE,,011,004,022,129,048,008,,,,002,
4543,21,220,220,EVEN,HERALD PL,13202,SYRACUSE,,009,003,022,129,048,008,,,,002,
1677,37,104,311,ALL,HERBERT ST,13208,SYRACUSE,,003,004,022,129,048,009,,,,001,
4681,13,106,145,ALL,HERBST AVE,13203,SYRACUSE,,006,006,022,129,048,009,,,,005,
3435,33,100,506,EVEN,HERKIMER ST,13204,SYRACUSE,,007,001,022,129,048,008,,,,002,
3436,60,101,507,ODD,HERKIMER ST,13204,SYRACUSE,,007,002,022,129,048,008,,,,002,
3437,10,100,120,EVEN,HERRIMAN ST,13204,SYRACUSE,,011,001,022,128,048,008,,,,002,
3438,7,101,121,ODD,HERRIMAN ST,13204,SYRACUSE,,011,008,022,129,048,008,,,,002,
3439,21,200,304,ALL,HERRIMAN ST,13204,SYRACUSE,,011,001,022,128,048,008,,,,002,
844,9,116,138,ALL,HERTFORD ST,13210,SYRACUSE,,019,007,022,129,048,015,,,,003,
1678,10,106,122,ALL,HERZ ST,13208,SYRACUSE,,003,005,022,129,048,007,,,,001,
1679,1,326,326,EVEN,HIAWATHA BLVD,13208,SYRACUSE,,001,002,022,129,048,009,,,,001,
9163,4,617,617,ODD,HIAWATHA BLVD E,13208,SYRACUSE,,001,002,022,129,048,009,,,,001,
2558,108,116,367,ALL,HICKOK AVE,13206,SYRACUSE,,005,004,022,129,048,007,,,,005,
2559,11,401,479,ODD,HICKOK AVE,13206,SYRACUSE,,005,005,022,129,048,007,,,,005,
2560,14,414,490,EVEN,HICKOK AVE,13206,SYRACUSE,,005,001,022,129,048,007,,,,005,
2561,27,504,549,ALL,HICKOK AVE,13206,SYRACUSE,,005,005,022,129,048,007,,,,005,
4682,63,504,724,ALL,HICKORY ST,13203,SYRACUSE,,009,002,022,129,048,008,,,,001,
4683,59,104,250,ALL,HIER AVE,13203,SYRACUSE,,004,001,022,129,048,009,,,,001,
4684,9,300,317,ALL,HIER AVE,13203,SYRACUSE,,004,002,022,129,048,007,,,,001,
1680,14,100,117,ALL,HIGH ST,13208,SYRACUSE,,003,006,022,129,048,009,,,,001,
4685,13,117,159,ODD,HIGHLAND AVE,13203,SYRACUSE,,006,003,022,129,048,009,,,,001,
4686,7,120,216,EVEN,HIGHLAND AVE,13203,SYRACUSE,,006,005,022,129,048,009,,,,005,
4687,6,205,215,ODD,HIGHLAND AVE,13203,SYRACUSE,,004,011,022,129,048,009,,,,005,
4688,33,301,331,ALL,HIGHLAND AVE,13203,SYRACUSE,,004,005,022,129,048,007,,,,005,
4689,1,111,111,ODD,HIGHLAND PL,13203,SYRACUSE,,006,003,022,129,048,009,,,,001,
4690,9,200,206,EVEN,HIGHLAND ST,13203,SYRACUSE,,006,005,022,129,048,009,,,,005,
4691,33,300,514,ALL,HIGHLAND ST,13203,SYRACUSE,,006,003,022,129,048,009,,,,001,
4692,89,600,946,ALL,HIGHLAND ST,13203,SYRACUSE,,004,001,022,129,048,009,,,,001,
4693,71,1000,1415,ALL,HIGHLAND ST,13203,SYRACUSE,,004,002,022,129,048,007,,,,001,
7635,28,100,325,ALL,HIGHRIDGE DR,13215,SYRACUSE,,011,007,022,129,048,008,,,,002,
7636,4,100,106,ALL,HIGHRIDGE PL,13215,SYRACUSE,,011,007,022,129,048,008,,,,002,
6371,7,101,115,ALL,HILLCREST RD,13224,SYRACUSE,,017,012,022,128,048,015,,,,003,
7410,72,104,522,ALL,HILLSBORO PKWY,13214,SYRACUSE,,017,013,022,128,048,017,,,,003,
2562,75,115,272,ALL,HILLSDALE AVE,13206,SYRACUSE,,005,006,022,129,048,007,,,,005,
2563,43,300,375,ALL,HILLSDALE AVE,13206,SYRACUSE,,005,010,022,129,048,007,,,,005,
2564,38,400,480,ALL,HILLSDALE AVE,13206,SYRACUSE,,005,005,022,129,048,007,,,,005,
2565,15,500,541,ALL,HILLSDALE AVE,13206,SYRACUSE,,005,002,022,129,048,009,,,,005,
1681,4,103,201,ALL,HILLSIDE ST,13208,SYRACUSE,,003,003,022,129,048,009,,,,001,
1682,4,204,218,EVEN,HILLSIDE ST,13208,SYRACUSE,,003,005,022,129,048,007,,,,001,
1683,1,209,209,ODD,HILLSIDE ST,13208,SYRACUSE,,003,003,022,129,048,009,,,,001,
1684,22,301,720,ALL,HILLSIDE ST,13208,SYRACUSE,,003,003,022,129,048,009,,,,001,
7638,7,105,112,ALL,HILLTOP RD,13215,SYRACUSE,,011,007,022,129,048,008,,,,002,
2833,31,300,361,ALL,HILLVIEW AVE,13207,SYRACUSE,,013,001,022,128,048,015,,,,004,
3753,5,100,202,EVEN,HILTON RD,13205,SYRACUSE,,014,011,022,129,048,015,,,,004,
2566,20,118,155,ALL,HIXSON AVE,13206,SYRACUSE,,005,003,022,129,048,007,,,,005,
2567,102,200,736,ALL,HIXSON AVE,13206,SYRACUSE,,005,001,022,129,048,007,,,,005,
3754,13,101,149,ODD,HOBART AVE,13205,SYRACUSE,,014,003,022,128,048,016,,,,004,
3755,12,102,152,EVEN,HOBART AVE,13205,SYRACUSE,,014,002,022,128,048,016,,,,004,
3440,40,108,405,ALL,HOEFLER ST,13204,SYRACUSE,,011,002,022,129,048,008,,,,002,
3441,22,101,126,ALL,HOLDEN ST,13204,SYRACUSE,,011,002,022,129,048,008,,,,002,
3442,30,118,340,EVEN,HOLLAND ST,13204,SYRACUSE,,010,003,022,128,048,015,,,,002,
3443,18,119,229,ODD,HOLLAND ST,13204,SYRACUSE,,010,004,022,128,048,016,,,,004,
3444,15,251,339,ODD,HOLLAND ST,13204,SYRACUSE,,010,007,022,128,048,015,,,,004,
845,7,211,306,ALL,HOLMES ST,13210,SYRACUSE,,019,003,022,129,048,015,,,,003,
2568,61,116,269,ALL,HOMECROFT RD,13206,SYRACUSE,,005,007,022,129,048,007,,,,005,
1687,37,109,200,ALL,HOOD AVE,13208,SYRACUSE,,003,003,022,129,048,009,,,,001,
1688,17,201,279,ODD,HOOD AVE,13208,SYRACUSE,,001,003,022,129,048,009,,,,001,
1689,18,212,304,EVEN,HOOD AVE,13208,SYRACUSE,,003,003,022,129,048,009,,,,001,
1690,1,301,301,ODD,HOOD AVE,13208,SYRACUSE,,001,007,022,129,048,009,,,,001,
3757,55,112,309,ALL,HOPE AVE,13205,SYRACUSE,,019,001,022,128,048,016,,,,004,
2834,54,100,312,ALL,HOPPER RD,13207,SYRACUSE,,013,007,022,129,048,015,,,,004,
6372,13,201,263,ODD,HOUSTON AVE,13224,SYRACUSE,,017,007,022,128,048,017,,,,003,
6373,8,210,304,EVEN,HOUSTON AVE,13224,SYRACUSE,,017,012,022,128,048,015,,,,003,
6374,6,301,311,ODD,HOUSTON AVE,13224,SYRACUSE,,017,009,022,128,048,015,,,,003,
846,10,113,161,ODD,HOUSTON AVE,13210,SYRACUSE,,017,007,022,128,048,017,,,,003,
847,2,158,164,EVEN,HOUSTON AVE,13210,SYRACUSE,,017,012,022,128,048,015,,,,003,
2835,4,110,302,EVEN,HOVEY ST,13207,SYRACUSE,,012,002,022,128,048,016,,,,004,
4694,30,204,418,ALL,HOWARD ST,13203,SYRACUSE,,006,001,022,129,048,009,,,,001,
2836,34,123,228,ALL,HUBBELL AVE,13207,SYRACUSE,,011,006,022,129,048,015,,,,002,
2837,35,317,433,ALL,HUBBELL AVE,13207,SYRACUSE,,012,005,022,129,048,008,,,,002,
2838,52,212,521,ALL,HUDSON ST,13207,SYRACUSE,,012,001,022,128,048,015,,,,004,
3445,32,105,180,ALL,HUDSON ST,13204,SYRACUSE,,012,001,022,128,048,015,,,,004,
848,20,100,148,ALL,HUGHES PL,13210,SYRACUSE,,019,006,022,129,048,016,,,,003,
2839,13,108,400,EVEN,HUNT AVE,13207,SYRACUSE,,013,001,022,128,048,015,,,,004,
3446,20,102,115,ALL,HUNTER AVE,13204,SYRACUSE,,002,002,022,129,048,008,,,,002,
6062,5,108,120,EVEN,HUNTINGTON RD,13219,SYRACUSE,,011,007,022,129,048,008,,,,002,
1691,29,100,258,EVEN,HUNTLEY ST,13208,SYRACUSE,,003,005,022,129,048,007,,,,001,
1692,8,115,149,ODD,HUNTLEY ST,13208,SYRACUSE,,003,003,022,129,048,009,,,,001,
6376,44,101,321,ALL,HURLBURT RD,13224,SYRACUSE,,017,015,022,128,048,017,,,,003,
2840,7,102,130,EVEN,HURON ST,13207,SYRACUSE,,012,002,022,128,048,016,,,,004,
2841,13,104,129,ALL,HUTCHINSON AVE,13207,SYRACUSE,,013,002,022,128,048,015,,,,002,
2842,22,200,401,ALL,HUTCHINSON AVE,13207,SYRACUSE,,013,004,022,129,048,015,,,,002,
6063,3,100,120,EVEN,INVERNESS PL,13219,SYRACUSE,,011,007,022,129,048,008,,,,002,
3447,73,100,110,EVEN,IRON PIER DR,13204,SYRACUSE,,002,002,022,129,048,008,,,,002,
849,1,324,324,EVEN,IRVING AVE,13210,SYRACUSE,,015,002,022,128,048,016,,,,002,
850,8,800,800,EVEN,IRVING AVE,13210,SYRACUSE,,015,005,022,129,048,016,,,,003,
851,130,1000,1000,EVEN,IRVING AVE,13210,SYRACUSE,,016,005,022,129,048,016,,,,003,
1693,10,107,213,ALL,ISABELLA ST,13208,SYRACUSE,,002,003,022,129,048,008,,,,001,
852,206,100,1502,EVEN,IVY RIDGE RD,13210,SYRACUSE,,014,004,022,129,048,015,,,,003,
4544,2,102,105,ALL,J STANLEY COYNE CIR,13202,SYRACUSE,,012,002,022,128,048,016,,,,004,
3759,12,105,145,ALL,JACLYN DR,13205,SYRACUSE,,014,011,022,129,048,015,,,,004,
4695,8,1,8,ALL,JAMES HEATH RD,13203,SYRACUSE,,005,001,022,129,048,007,,,,005,
4696,61,400,446,EVEN,JAMES ST,13203,SYRACUSE,,009,004,022,129,048,009,,,,001,
4697,26,427,477,ODD,JAMES ST,13203,SYRACUSE,,009,002,022,129,048,008,,,,001,
4698,275,518,770,EVEN,JAMES ST,13203,SYRACUSE,,006,001,022,129,048,009,,,,001,
4699,188,615,753,ODD,JAMES ST,13203,SYRACUSE,,006,003,022,129,048,009,,,,001,
4700,289,830,989,ALL,JAMES ST,13203,SYRACUSE,,006,005,022,129,048,009,,,,005,
4701,92,1019,1235,ODD,JAMES ST,13203,SYRACUSE,,004,005,022,129,048,007,,,,005,
4702,118,1072,1512,EVEN,JAMES ST,13203,SYRACUSE,,006,005,022,129,048,009,,,,005,
4703,2,1303,1401,ODD,JAMES ST,13203,SYRACUSE,,004,006,022,129,048,007,,,,005,
4704,21,1600,1666,EVEN,JAMES ST,13203,SYRACUSE,,005,001,022,129,048,007,,,,005,
4705,2,1601,1601,ODD,JAMES ST,13203,SYRACUSE,,004,004,022,129,048,007,,,,005,
2569,54,1700,2226,EVEN,JAMES ST,13206,SYRACUSE,,005,003,022,129,048,007,,,,005,
2570,60,1701,2225,ODD,JAMES ST,13206,SYRACUSE,,004,007,022,129,048,007,,,,005,
2571,10,2300,2540,EVEN,JAMES ST,13206,SYRACUSE,,005,004,022,129,048,007,,,,005,
2572,47,2363,2541,ODD,JAMES ST,13206,SYRACUSE,,004,010,022,129,048,007,,,,005,
2573,62,2603,2909,ALL,JAMES ST,13206,SYRACUSE,,005,006,022,129,048,007,,,,005,
2574,32,3027,3333,ALL,JAMES ST,13206,SYRACUSE,,005,007,022,129,048,007,,,,005,
2575,38,3401,3606,ALL,JAMES ST,13206,SYRACUSE,,005,009,022,129,048,007,,,,005,
9159,1,1683,1683,ALL,JAMES ST,13203,SYRACUSE,,004,007,022,129,048,007,,,,005,
853,115,123,147,ALL,JAMESVILLE AVE,13210,SYRACUSE,,019,006,022,129,048,016,,,,003,
854,67,202,704,EVEN,JAMESVILLE AVE,13210,SYRACUSE,,019,008,022,129,048,016,,,,004,
855,8,267,439,ODD,JAMESVILLE AVE,13210,SYRACUSE,,019,006,022,129,048,016,,,,003,
856,19,517,1301,ODD,JAMESVILLE AVE,13210,SYRACUSE,,019,003,022,129,048,015,,,,003,
857,11,1006,1310,EVEN,JAMESVILLE AVE,13210,SYRACUSE,,014,004,022,129,048,015,,,,003,
6377,5,100,116,EVEN,JANET DR,13224,SYRACUSE,,017,012,022,128,048,015,,,,003,
6378,10,101,201,ODD,JANET DR,13224,SYRACUSE,,017,009,022,128,048,015,,,,003,
4706,8,102,112,ALL,JASPER PL,13203,SYRACUSE,,004,001,022,129,048,009,,,,001,
4707,48,112,223,ALL,JASPER ST,13203,SYRACUSE,,004,001,022,129,048,009,,,,001,
4708,18,317,340,ALL,JASPER ST,13203,SYRACUSE,,004,005,022,129,048,007,,,,005,
859,14,106,134,ALL,JEAN AVE,13210,SYRACUSE,,014,004,022,129,048,015,,,,003,
860,22,100,134,EVEN,JERICHO DR,13210,SYRACUSE,,019,008,022,129,048,016,,,,004,
861,5,101,204,ALL,JEROME ST,13210,SYRACUSE,,017,002,022,128,048,015,,,,003,
1694,84,104,162,ALL,JOHN ST,13208,SYRACUSE,,003,002,022,129,048,009,,,,001,
1695,38,201,511,ALL,JOHN ST,13208,SYRACUSE,,003,004,022,129,048,009,,,,001,
1696,4,611,617,ODD,JOHN ST,13208,SYRACUSE,,003,006,022,129,048,009,,,,001,
1697,28,106,129,ALL,JOSEPHINE ST,13208,SYRACUSE,,003,002,022,129,048,009,,,,001,
862,11,102,114,EVEN,JUDSON ST,13210,SYRACUSE,,017,003,022,128,048,015,,,,003,
863,8,103,115,ODD,JUDSON ST,13210,SYRACUSE,,017,005,022,128,048,015,,,,003,
7654,13,105,118,ALL,JUNEWAY RD,13215,SYRACUSE,,011,007,022,129,048,008,,,,002,
3448,4,100,104,EVEN,KANDACE ST,13204,SYRACUSE,,011,002,022,129,048,008,,,,002,
3449,1,101,101,ODD,KANE RD,13204,SYRACUSE,,007,001,022,129,048,008,,,,002,
1698,22,112,159,ALL,KAPPESSER ST,13208,SYRACUSE,,003,006,022,129,048,009,,,,001,
2843,10,100,133,ALL,KEEN PL,13207,SYRACUSE,,013,001,022,128,048,015,,,,004,
3450,79,105,321,ALL,KELLOGG ST,13204,SYRACUSE,,010,003,022,128,048,015,,,,002,
3760,35,101,249,ALL,KENMORE AVE,13205,SYRACUSE,,013,006,022,128,048,016,,,,004,
864,8,104,144,EVEN,KENSINGTON PL,13210,SYRACUSE,,016,002,022,129,048,016,,,,003,
865,8,105,135,ODD,KENSINGTON PL,13210,SYRACUSE,,017,002,022,128,048,015,,,,003,
866,48,200,351,ALL,KENSINGTON PL,13210,SYRACUSE,,019,007,022,129,048,015,,,,003,
867,1,102,102,EVEN,KENSINGTON RD,13210,SYRACUSE,,016,002,022,129,048,016,,,,003,
868,1,105,105,ODD,KENSINGTON RD,13210,SYRACUSE,,016,003,022,129,048,017,,,,003,
869,26,110,335,ALL,KENSINGTON RD,13210,SYRACUSE,,016,002,022,129,048,016,,,,003,
870,12,412,616,ALL,KENSINGTON RD,13210,SYRACUSE,,017,002,022,128,048,015,,,,003,
1699,64,100,325,ALL,KENWICK DR,13208,SYRACUSE,,003,005,022,129,048,007,,,,001,
1701,74,112,323,ALL,KENWOOD AVE,13208,SYRACUSE,,001,005,022,129,048,009,,,,001,
871,4,134,148,EVEN,KIDD AVE,13210,SYRACUSE,,006,008,022,128,048,009,,,,005,
6380,3,101,116,ALL,KILLIAN DR,13224,SYRACUSE,,017,015,022,128,048,017,,,,003,
2844,26,120,255,ALL,KIMBER AVE,13207,SYRACUSE,,013,005,022,129,048,015,,,,004,
6381,8,303,327,ODD,KIMBER RD,13224,SYRACUSE,,017,013,022,128,048,017,,,,003,
6382,14,308,450,EVEN,KIMBER RD,13224,SYRACUSE,,017,015,022,128,048,017,,,,003,
3451,15,101,115,ALL,KINCAID AVE,13204,SYRACUSE,,007,001,022,129,048,008,,,,002,
4545,5,213,213,ODD,KING ST,13202,SYRACUSE,,018,001,022,128,048,016,,,,004,
3452,10,1,14,ALL,KINGSLEY PL,13204,SYRACUSE,,007,001,022,129,048,008,,,,002,
2577,26,105,308,ALL,KINNE ST,13206,SYRACUSE,,005,001,022,129,048,007,,,,005,
3761,49,106,271,ALL,KIRK AVE,13205,SYRACUSE,,018,002,022,128,048,016,,,,004,
3762,37,311,468,ALL,KIRK AVE,13205,SYRACUSE,,019,001,022,128,048,016,,,,004,
3763,7,101,115,ODD,KIRK PARK DR,13205,SYRACUSE,,019,001,022,128,048,016,,,,004,
1702,16,101,315,ALL,KIRKPATRICK ST,13208,SYRACUSE,,002,003,022,129,048,008,,,,001,
1703,55,406,621,ALL,KIRKPATRICK ST,13208,SYRACUSE,,001,006,022,129,048,009,,,,001,
1704,40,703,1141,ODD,KIRKPATRICK ST,13208,SYRACUSE,,001,007,022,129,048,009,,,,001,
1705,38,702,944,EVEN,KIRKPATRICK ST,13208,SYRACUSE,,001,003,022,129,048,009,,,,001,
3764,3,101,105,ODD,KIRKWOOD PL,13205,SYRACUSE,,019,001,022,128,048,016,,,,004,
4709,14,102,219,ALL,KLINE ST,13203,SYRACUSE,,004,004,022,129,048,007,,,,005,
4710,12,105,305,ODD,KNAUL ST,13203,SYRACUSE,,004,002,022,129,048,007,,,,001,
4711,8,106,116,EVEN,KNAUL ST,13203,SYRACUSE,,004,001,022,129,048,009,,,,001,
2845,26,105,320,ALL,KRAMER DR,13207,SYRACUSE,,013,007,022,129,048,015,,,,004,
1708,36,101,177,ALL,KUHL AVE,13208,SYRACUSE,,003,003,022,129,048,009,,,,001,
1709,1,106,106,EVEN,LACY PL,13208,SYRACUSE,,001,004,022,129,048,009,,,,001,
3765,492,101,409,ALL,LAFAYETTE RD,13205,SYRACUSE,,014,009,022,129,048,015,,,,003,
2846,29,303,415,ALL,LAFORTE AVE,13207,SYRACUSE,,011,003,022,129,048,008,,,,002,
3453,88,118,308,ALL,LAKEVIEW AVE,13204,SYRACUSE,,002,001,022,129,048,008,,,,002,
872,60,100,430,ALL,LAMBRETH LN,13210,SYRACUSE,,019,003,022,129,048,015,,,,003,
2578,16,103,123,ODD,LAMSON ST,13206,SYRACUSE,,005,007,022,129,048,007,,,,005,
2579,6,114,134,EVEN,LAMSON ST,13206,SYRACUSE,,005,009,022,129,048,007,,,,005,
2580,13,205,215,ODD,LAMSON ST,13206,SYRACUSE,,004,009,022,129,048,007,,,,005,
873,15,700,743,ALL,LANCASTER AVE,13210,SYRACUSE,,016,003,022,129,048,017,,,,003,
874,21,815,959,ODD,LANCASTER AVE,13210,SYRACUSE,,016,002,022,129,048,016,,,,003,
875,33,818,960,EVEN,LANCASTER AVE,13210,SYRACUSE,,016,003,022,129,048,017,,,,003,
876,35,969,1060,ALL,LANCASTER AVE,13210,SYRACUSE,,016,002,022,129,048,016,,,,003,
877,65,1111,1589,ALL,LANCASTER AVE,13210,SYRACUSE,,019,007,022,129,048,015,,,,003,
878,1,112,112,EVEN,LANCASTER PL,13210,SYRACUSE,,019,007,022,129,048,015,,,,003,
3766,15,102,204,ALL,LANDON AVE,13205,SYRACUSE,,018,002,022,128,048,016,,,,004,
3767,7,303,402,ALL,LANDON AVE,13205,SYRACUSE,,019,002,022,128,048,016,,,,004,
4546,17,100,124,ALL,LATIMER TER,13202,SYRACUSE,,009,005,022,128,048,016,,,,004,
3768,16,105,421,ALL,LATTER DR,13205,SYRACUSE,,014,006,022,129,048,015,,,,004,
1710,43,101,143,ALL,LAWRENCE ST,13208,SYRACUSE,,001,003,022,129,048,009,,,,001,
2581,15,100,105,ALL,LEA LN,13206,SYRACUSE,,004,008,022,129,048,007,,,,005,
3454,12,200,319,ALL,LEAVENWORTH AVE,13204,SYRACUSE,,002,001,022,129,048,008,,,,002,
1711,5,215,237,ALL,LEMOYNE AVE,13208,SYRACUSE,,002,003,022,129,048,008,,,,001,
1712,5,311,411,ODD,LEMOYNE AVE,13208,SYRACUSE,,001,004,022,129,048,009,,,,001,
1713,77,507,835,ALL,LEMOYNE AVE,13208,SYRACUSE,,001,002,022,129,048,009,,,,001,
1714,62,901,1182,ALL,LEMOYNE AVE,13208,SYRACUSE,,001,005,022,129,048,009,,,,001,
1715,9,1201,1331,ODD,LEMOYNE AVE,13208,SYRACUSE,,001,001,022,129,048,009,,,,001,
1716,16,1202,1334,EVEN,LEMOYNE AVE,13208,SYRACUSE,,001,005,022,129,048,009,,,,001,
1717,48,1337,1621,ALL,LEMOYNE AVE,13208,SYRACUSE,,001,001,022,129,048,009,,,,001,
7417,5,0,0,EVEN,LEMOYNE COL,13214,SYRACUSE,,017,016,022,128,048,017,,,,003,
7418,6,0,0,EVEN,LEMOYNE COL-DABLON,13214,SYRACUSE,,017,016,022,128,048,017,,,,003,
7421,2,0,0,EVEN,LEMOYNE COL-FOERY,13214,SYRACUSE,,017,016,022,128,048,017,,,,003,
7423,4,0,0,EVEN,LEMOYNE COL-HARRISON,13214,SYRACUSE,,017,016,022,128,048,017,,,,003,
7424,4,0,0,EVEN,LEMOYNE COL-HARRISON,13214,SYRACUSE,,017,016,022,128,048,017,,,,003,
7427,1,0,0,EVEN,LEMOYNE COL-JESUIT,13214,SYRACUSE,,017,016,022,128,048,017,,,,003,
7429,2,0,0,EVEN,LEMOYNE COL-MITCHELL,13214,SYRACUSE,,017,016,022,128,048,017,,,,003,
7431,1,0,0,EVEN,LEMOYNE COL-NELLIGAN,13214,SYRACUSE,,017,016,022,128,048,017,,,,003,
7433,5,0,0,EVEN,LEMOYNE COL-ST MARY,13214,SYRACUSE,,017,016,022,128,048,017,,,,003,
7434,4,0,0,EVEN,LEMOYNE COL-ST MARY,13214,SYRACUSE,,017,016,022,128,048,017,,,,003,
7435,3,0,0,EVEN,LEMOYNE COL-TH,13214,SYRACUSE,,017,016,022,128,048,017,,,,003,
879,9,209,235,ODD,LENNOX AVE,13210,SYRACUSE,,017,003,022,128,048,015,,,,003,
880,5,216,316,EVEN,LENNOX AVE,13210,SYRACUSE,,017,002,022,128,048,015,,,,003,
3770,7,208,284,EVEN,LEON ST,13205,SYRACUSE,,018,002,022,128,048,016,,,,004,
3455,14,100,320,ALL,LEWIS ST,13204,SYRACUSE,,007,001,022,129,048,008,,,,002,
881,6,203,302,ALL,LEWISTON DR,13210,SYRACUSE,,019,004,022,129,048,015,,,,003,
882,60,109,405,ALL,LEXINGTON AVE,13210,SYRACUSE,,017,006,022,128,048,017,,,,005,
3456,53,118,426,ALL,LIBERTY ST,13204,SYRACUSE,,002,001,022,129,048,008,,,,002,
883,15,100,131,ALL,LIGHT CT,13210,SYRACUSE,,015,004,022,128,048,016,,,,004,
1720,41,109,153,ALL,LILAC ST,13208,SYRACUSE,,003,002,022,129,048,009,,,,001,
1721,32,210,260,ALL,LILAC ST,13208,SYRACUSE,,002,003,022,129,048,008,,,,001,
2583,18,100,228,EVEN,LILLIAN AVE,13206,SYRACUSE,,005,006,022,129,048,007,,,,005,
2584,10,117,227,ODD,LILLIAN AVE,13206,SYRACUSE,,004,010,022,129,048,007,,,,005,
2585,40,301,397,ALL,LILLIAN AVE,13206,SYRACUSE,,004,008,022,129,048,007,,,,005,
2586,48,401,481,ALL,LILLIAN AVE,13206,SYRACUSE,,004,009,022,129,048,007,,,,005,
6385,25,200,200,EVEN,LIME ST,13224,SYRACUSE,,017,010,022,128,048,017,,,,005,
3457,34,110,199,ALL,LINCOLN AVE,13204,SYRACUSE,,010,004,022,128,048,016,,,,004,
3458,29,200,247,ALL,LINCOLN AVE,13204,SYRACUSE,,012,002,022,128,048,016,,,,004,
4712,26,102,210,EVEN,LINCOLN PK DR,13203,SYRACUSE,,006,002,022,129,048,009,,,,005,
4713,19,103,225,ODD,LINCOLN PK DR,13203,SYRACUSE,,006,005,022,129,048,009,,,,005,
2588,62,100,119,ALL,LINWILL TER,13206,SYRACUSE,,004,008,022,129,048,007,,,,005,
884,45,702,875,ALL,LIVINGSTON AVE,13210,SYRACUSE,,016,003,022,129,048,017,,,,003,
6387,18,200,220,ALL,LOCKSLEY RD,13224,SYRACUSE,,017,015,022,128,048,017,,,,003,
7436,47,101,402,ALL,LOCKWOOD RD,13214,SYRACUSE,,017,013,022,128,048,017,,,,003,
4714,41,212,616,EVEN,LODI ST,13203,SYRACUSE,,006,002,022,129,048,009,,,,005,
4715,39,315,713,ODD,LODI ST,13203,SYRACUSE,,006,001,022,129,048,009,,,,001,
4716,141,710,712,EVEN,LODI ST,13203,SYRACUSE,,006,005,022,129,048,009,,,,005,
4717,28,913,1313,ODD,LODI ST,13203,SYRACUSE,,009,002,022,129,048,008,,,,001,
4718,14,1100,1300,EVEN,LODI ST,13203,SYRACUSE,,006,003,022,129,048,009,,,,001,
1722,25,1416,1508,ALL,LODI ST,13208,SYRACUSE,,003,002,022,129,048,009,,,,001,
1723,25,1509,1905,ODD,LODI ST,13208,SYRACUSE,,003,001,022,129,048,008,,,,001,
1724,44,1510,1914,EVEN,LODI ST,13208,SYRACUSE,,003,002,022,129,048,009,,,,001,
1725,77,2000,2716,ALL,LODI ST,13208,SYRACUSE,,002,003,022,129,048,008,,,,001,
2589,1,2425,2425,ODD,LODI ST,13206,SYRACUSE,,002,003,022,129,048,008,,,,001,
3459,21,102,134,ALL,LOEHR AVE,13204,SYRACUSE,,011,002,022,129,048,008,,,,002,
1726,32,107,172,ALL,LOMA AVE,13208,SYRACUSE,,003,003,022,129,048,009,,,,001,
1727,28,208,350,ALL,LOMA AVE,13208,SYRACUSE,,001,001,022,129,048,009,,,,001,
885,3,105,307,ODD,LOMBARD AVE,13210,SYRACUSE,,017,006,022,128,048,017,,,,005,
3773,9,100,400,ALL,LONGMEADOW CIR,13205,SYRACUSE,,014,011,022,129,048,015,,,,004,
3774,57,100,408,ALL,LONGMEADOW DR,13205,SYRACUSE,,014,011,022,129,048,015,,,,004,
2847,19,101,336,ALL,LOOMIS AVE,13207,SYRACUSE,,013,008,022,128,048,015,,,,004,
886,40,101,292,ALL,LORRAINE AVE,13210,SYRACUSE,,019,006,022,129,048,016,,,,003,
2591,31,100,203,ALL,LUDDINGTON ST,13206,SYRACUSE,,005,011,022,129,048,007,,,,005,
2592,8,207,239,ODD,LUDDINGTON ST,13206,SYRACUSE,,005,002,022,129,048,009,,,,005,
2593,8,208,228,EVEN,LUDDINGTON ST,13206,SYRACUSE,,005,011,022,129,048,007,,,,005,
3460,21,100,330,EVEN,LYDELL ST,13204,SYRACUSE,,011,002,022,129,048,008,,,,002,
3461,20,103,327,ODD,LYDELL ST,13204,SYRACUSE,,011,001,022,128,048,008,,,,002,
2848,35,103,608,ALL,LYNCH AVE,13207,SYRACUSE,,013,004,022,129,048,015,,,,002,
3775,19,105,149,ALL,LYNN CIR,13205,SYRACUSE,,014,006,022,129,048,015,,,,004,
2594,34,101,163,ALL,LYNWOOD AVE,13206,SYRACUSE,,005,007,022,129,048,007,,,,005,
2849,1,99,99,ODD,MACDOUGAL PL,13207,SYRACUSE,,013,009,022,129,048,015,,,,004,
2850,15,97,105,ALL,MACDOUGALL PL,13207,SYRACUSE,,013,009,022,129,048,015,,,,004,
4547,1,141,141,ODD,MADISON ST,13202,SYRACUSE,,009,001,022,129,048,008,,,,002,
887,13,610,620,EVEN,MADISON ST,13210,SYRACUSE,,015,003,022,129,048,016,,,,002,
888,3,635,635,ODD,MADISON ST,13210,SYRACUSE,,015,002,022,128,048,016,,,,002,
889,81,901,1219,ODD,MADISON ST,13210,SYRACUSE,,016,006,022,129,048,017,,,,005,
890,8,920,1106,EVEN,MADISON ST,13210,SYRACUSE,,016,001,022,129,048,017,,,,003,
891,15,1310,1422,EVEN,MADISON ST,13210,SYRACUSE,,017,005,022,128,048,015,,,,003,
892,9,1311,1341,ODD,MADISON ST,13210,SYRACUSE,,017,018,022,128,048,015,,,,005,
3462,14,106,220,ALL,MAGNOLIA ST,13204,SYRACUSE,,008,002,022,129,048,008,,,,002,
2851,31,101,410,ALL,MAINS AVE,13207,SYRACUSE,,013,005,022,129,048,015,,,,004,
3463,13,101,125,ALL,MALCOLM ST,13204,SYRACUSE,,010,003,022,128,048,015,,,,002,
1729,35,112,175,ALL,MALVERNE DR,13208,SYRACUSE,,003,003,022,129,048,009,,,,001,
1730,42,214,348,ALL,MALVERNE DR,13208,SYRACUSE,,001,001,022,129,048,009,,,,001,
4719,8,108,126,EVEN,MANILLA ST,13203,SYRACUSE,,006,002,022,129,048,009,,,,005,
7438,20,100,191,ALL,MANOR DR,13214,SYRACUSE,,017,016,022,128,048,017,,,,003,
7439,1,215,215,ODD,MANOR DR,13214,SYRACUSE,,017,013,022,128,048,017,,,,003,
893,21,207,325,ALL,MAPLE ST,13210,SYRACUSE,,017,006,022,128,048,017,,,,005,
894,6,405,449,ALL,MAPLE ST,13210,SYRACUSE,,017,018,022,128,048,015,,,,005,
895,47,100,170,ALL,MAPLE TER,13210,SYRACUSE,,017,018,022,128,048,015,,,,005,
1731,78,105,261,ALL,MAPLEHURST AVE,13208,SYRACUSE,,003,003,022,129,048,009,,,,001,
3776,44,112,305,ALL,MAPLEWOOD AVE,13205,SYRACUSE,,014,007,022,129,048,015,,,,004,
3464,13,112,312,ALL,MARCELLUS ST,13204,SYRACUSE,,010,006,022,129,048,016,,,,002,
3465,1,307,307,ODD,MARCELLUS ST,13204,SYRACUSE,,008,001,022,128,048,016,,,,002,
3466,1,307,307,ODD,MARCELLUS ST,13204,SYRACUSE,,008,001,022,128,048,016,,,,002,
3467,10,313,419,ODD,MARCELLUS ST,13204,SYRACUSE,,008,001,022,128,048,016,,,,002,
3468,1,318,318,EVEN,MARCELLUS ST,13204,SYRACUSE,,010,006,022,129,048,016,,,,002,
3469,19,422,517,ALL,MARCELLUS ST,13204,SYRACUSE,,008,002,022,129,048,008,,,,002,
3470,14,605,735,ODD,MARCELLUS ST,13204,SYRACUSE,,008,003,022,128,048,008,,,,002,
1732,3,121,125,ODD,MARCIA ST,13208,SYRACUSE,,001,005,022,129,048,009,,,,001,
2852,37,200,319,ALL,MARGUERITE AVE,13207,SYRACUSE,,013,001,022,128,048,015,,,,004,
2595,34,101,223,ALL,MARIPOSA ST,13206,SYRACUSE,,005,001,022,129,048,007,,,,005,
2853,20,100,118,ALL,MARIS DR,13207,SYRACUSE,,013,007,022,129,048,015,,,,004,
3777,5,100,115,ALL,MARJORIE ST,13205,SYRACUSE,,014,011,022,129,048,015,,,,004,
3778,19,102,122,ALL,MARK AVE,13205,SYRACUSE,,019,002,022,128,048,016,,,,004,
2854,46,110,268,ALL,MARKLAND AVE,13207,SYRACUSE,,011,003,022,129,048,008,,,,002,
2596,18,112,141,ALL,MARLBOROUGH RD,13206,SYRACUSE,,004,010,022,129,048,007,,,,005,
2597,38,200,359,ALL,MARLBOROUGH RD,13206,SYRACUSE,,004,008,022,129,048,007,,,,005,
2855,6,100,207,ALL,MARLETT ST,13207,SYRACUSE,,013,008,022,128,048,015,,,,004,
3471,2,506,508,EVEN,MARQUETTE ST,13204,SYRACUSE,,002,002,022,129,048,008,,,,002,
896,10,302,302,EVEN,MARSHALL ST,13210,SYRACUSE,,016,001,022,129,048,017,,,,003,
1734,37,112,185,ALL,MARTIN ST,13208,SYRACUSE,,001,005,022,129,048,009,,,,001,
1735,11,200,256,EVEN,MARTIN ST,13208,SYRACUSE,,001,001,022,129,048,009,,,,001,
1736,22,201,257,ODD,MARTIN ST,13208,SYRACUSE,,001,005,022,129,048,009,,,,001,
1737,14,301,320,ALL,MARTIN ST,13208,SYRACUSE,,001,001,022,129,048,009,,,,001,
2856,23,100,151,ALL,MARVIN RD,13207,SYRACUSE,,013,005,022,129,048,015,,,,004,
1738,65,101,156,ALL,MARY ST,13208,SYRACUSE,,003,002,022,129,048,009,,,,001,
1739,10,203,216,ALL,MARY ST,13208,SYRACUSE,,003,004,022,129,048,009,,,,001,
897,25,700,754,ALL,MARYLAND AVE,13210,SYRACUSE,,016,003,022,129,048,017,,,,003,
898,23,800,926,EVEN,MARYLAND AVE,13210,SYRACUSE,,016,002,022,129,048,016,,,,003,
899,21,815,951,ODD,MARYLAND AVE,13210,SYRACUSE,,017,002,022,128,048,015,,,,003,
3472,1,208,208,EVEN,MASSENA ST,13204,SYRACUSE,,010,001,022,128,048,008,,,,002,
3473,5,514,613,ALL,MASSENA ST,13204,SYRACUSE,,010,003,022,128,048,015,,,,002,
4720,64,107,267,ALL,MATHER ST,13203,SYRACUSE,,006,002,022,129,048,009,,,,005,
3474,12,203,211,ODD,MATTY AVE,13204,SYRACUSE,,002,001,022,129,048,008,,,,002,
2857,14,107,133,ALL,MAURICE AVE,13207,SYRACUSE,,013,005,022,129,048,015,,,,004,
2858,12,114,148,ALL,MAXWELL AVE,13207,SYRACUSE,,013,005,022,129,048,015,,,,004,
2859,22,1,26,ALL,MAXWELL CT,13207,SYRACUSE,,013,005,022,129,048,015,,,,004,
2860,19,100,220,ALL,MAY AVE,13207,SYRACUSE,,013,001,022,128,048,015,,,,004,
1741,32,112,176,ALL,MAYAR ST,13208,SYRACUSE,,003,005,022,129,048,007,,,,001,
3779,26,106,132,ALL,MAYWOOD DR,13205,SYRACUSE,,014,005,022,128,048,015,,,,004,
3780,18,104,121,ALL,MCALLISTER AVE,13205,SYRACUSE,,019,005,022,128,048,016,,,,004,
3781,11,110,124,ALL,MCCLURE AVE,13205,SYRACUSE,,019,005,022,128,048,016,,,,004,
4548,1,103,103,ODD,MCCORMICK AVE,13202,SYRACUSE,,010,006,022,129,048,016,,,,002,
7684,4,103,109,ODD,MCDONALD RD,13215,SYRACUSE,,013,004,022,129,048,015,,,,002,
7689,1,4889,4889,ODD,MCDONALD RD,13215,SYRACUSE,,011,004,022,129,048,008,,,,002,
3782,35,111,245,ALL,MCKINLEY AVE,13205,SYRACUSE,,019,005,022,128,048,016,,,,004,
3783,26,118,268,EVEN,MCLENNAN AVE,13205,SYRACUSE,,018,002,022,128,048,016,,,,004,
3784,26,123,269,ODD,MCLENNAN AVE,13205,SYRACUSE,,019,002,022,128,048,016,,,,004,
3785,2,312,314,EVEN,MCLENNAN AVE,13205,SYRACUSE,,019,001,022,128,048,016,,,,004,
3475,9,1,8,ALL,MEADE CT,13204,SYRACUSE,,008,001,022,128,048,016,,,,002,
6389,4,808,817,ALL,MEADOWBROOK DR,13224,SYRACUSE,,017,002,022,128,048,015,,,,003,
6390,29,908,1053,ALL,MEADOWBROOK DR,13224,SYRACUSE,,017,012,022,128,048,015,,,,003,
6391,25,1106,1427,ALL,MEADOWBROOK DR,13224,SYRACUSE,,017,009,022,128,048,015,,,,003,
6392,51,1503,1723,ALL,MEADOWBROOK DR,13224,SYRACUSE,,017,015,022,128,048,017,,,,003,
900,3,106,113,ALL,MEADOWBROOK DR,13210,SYRACUSE,,019,007,022,129,048,015,,,,003,
901,3,206,220,EVEN,MEADOWBROOK DR,13210,SYRACUSE,,019,004,022,129,048,015,,,,003,
902,6,223,331,ODD,MEADOWBROOK DR,13210,SYRACUSE,,019,007,022,129,048,015,,,,003,
903,5,610,707,ALL,MEADOWBROOK DR,13210,SYRACUSE,,017,002,022,128,048,015,,,,003,
2861,12,100,128,ALL,MEDORA PL,13207,SYRACUSE,,013,001,022,128,048,015,,,,004,
4889,13,100,234,EVEN,MELBOURNE AVE,13224,SYRACUSE,,017,014,022,128,048,017,,,,005,
4890,11,119,243,ODD,MELBOURNE AVE,13224,SYRACUSE,,017,010,022,128,048,017,,,,005,
2598,26,101,505,ODD,MELROSE AVE,13206,SYRACUSE,,005,003,022,129,048,007,,,,005,
2599,26,104,504,EVEN,MELROSE AVE,13206,SYRACUSE,,005,001,022,129,048,007,,,,005,
3786,5,102,206,EVEN,MENLO DR,13205,SYRACUSE,,014,003,022,128,048,016,,,,004,
3787,7,111,209,ODD,MENLO DR,13205,SYRACUSE,,014,002,022,128,048,016,,,,004,
6102,14,113,184,ALL,MERRELL RD,13219,SYRACUSE,,011,007,022,129,048,008,,,,002,
1743,80,100,232,ALL,MERRILL ST,13208,SYRACUSE,,001,001,022,129,048,009,,,,001,
3476,19,100,118,ALL,MERRIMAN AVE,13204,SYRACUSE,,010,003,022,128,048,015,,,,002,
3477,64,206,419,ALL,MERRIMAN AVE,13204,SYRACUSE,,010,001,022,128,048,008,,,,002,
2862,57,119,329,ALL,MERRITT AVE,13207,SYRACUSE,,013,007,022,129,048,015,,,,004,
4721,10,609,635,ALL,MERTENS AVE,13203,SYRACUSE,,004,003,022,129,048,007,,,,005,
4722,4,908,1015,ALL,MERTENS AVE,13203,SYRACUSE,,004,004,022,129,048,007,,,,005,
4723,20,101,113,ALL,MERZ AVE,13203,SYRACUSE,,004,001,022,129,048,009,,,,001,
1744,11,100,120,ALL,MICHAELS AVE,13208,SYRACUSE,,001,007,022,129,048,009,,,,001,
904,5,101,106,ALL,MICHAELS CIR,13210,SYRACUSE,,019,008,022,129,048,016,,,,004,
3788,8,804,936,EVEN,MIDLAND AVE,13205,SYRACUSE,,012,002,022,128,048,016,,,,004,
3789,14,809,1125,ODD,MIDLAND AVE,13205,SYRACUSE,,018,002,022,128,048,016,,,,004,
3790,56,1002,2012,EVEN,MIDLAND AVE,13205,SYRACUSE,,019,001,022,128,048,016,,,,004,
3791,41,1201,1939,ODD,MIDLAND AVE,13205,SYRACUSE,,019,002,022,128,048,016,,,,004,
3792,43,2017,2729,ODD,MIDLAND AVE,13205,SYRACUSE,,014,001,022,128,048,016,,,,004,
3793,50,2118,3020,EVEN,MIDLAND AVE,13205,SYRACUSE,,013,006,022,128,048,016,,,,004,
3794,8,2809,3019,ODD,MIDLAND AVE,13205,SYRACUSE,,014,003,022,128,048,016,,,,004,
3795,17,3100,3514,EVEN,MIDLAND AVE,13205,SYRACUSE,,014,010,022,128,048,015,,,,004,
3796,6,3101,3515,ODD,MIDLAND AVE,13205,SYRACUSE,,014,008,022,128,048,016,,,,004,
3797,21,3600,3701,ALL,MIDLAND AVE,13205,SYRACUSE,,014,010,022,128,048,015,,,,004,
3798,1,3701,3701,ODD,MIDLAND AVE,13205,SYRACUSE,,014,010,022,128,048,015,,,,004,
3799,7,3702,3737,ALL,MIDLAND AVE,13205,SYRACUSE,,014,010,022,128,048,015,,,,004,
4549,39,201,381,ALL,MIDLAND AVE,13202,SYRACUSE,,010,004,022,128,048,016,,,,004,
4550,34,410,472,ALL,MIDLAND AVE,13202,SYRACUSE,,012,002,022,128,048,016,,,,004,
4551,5,643,653,ODD,MIDLAND AVE,13202,SYRACUSE,,018,001,022,128,048,016,,,,004,
2863,45,101,323,ALL,MILBURN DR,13207,SYRACUSE,,013,008,022,128,048,015,,,,004,
2600,99,116,398,ALL,MILDRED AVE,13206,SYRACUSE,,004,007,022,129,048,007,,,,005,
905,89,100,343,ALL,MILES AVE,13210,SYRACUSE,,017,002,022,128,048,015,,,,003,
2601,9,100,152,ALL,MILFORD CT,13206,SYRACUSE,,005,009,022,129,048,007,,,,005,
4891,40,114,245,ALL,MILNOR AVE,13224,SYRACUSE,,017,014,022,128,048,017,,,,005,
3478,11,101,119,ODD,MILTON AVE,13204,SYRACUSE,,008,004,022,129,048,008,,,,002,
3479,11,102,126,EVEN,MILTON AVE,13204,SYRACUSE,,008,002,022,129,048,008,,,,002,
3480,79,203,717,ALL,MILTON AVE,13204,SYRACUSE,,007,002,022,129,048,008,,,,002,
3481,103,801,1305,ALL,MILTON AVE,13204,SYRACUSE,,007,001,022,129,048,008,,,,002,
4892,6,101,108,ALL,MINEOLA DR,13224,SYRACUSE,,017,009,022,128,048,015,,,,003,
3800,11,116,162,EVEN,MINERVA ST,13205,SYRACUSE,,014,010,022,128,048,015,,,,004,
3801,20,121,167,ODD,MINERVA ST,13205,SYRACUSE,,014,011,022,129,048,015,,,,004,
2864,30,103,421,ALL,MITCHELL AVE,13207,SYRACUSE,,013,004,022,129,048,015,,,,002,
906,4,110,115,ALL,MONTANA ST,13210,SYRACUSE,,017,002,022,128,048,015,,,,003,
907,1,301,301,ODD,MONTANA ST,13210,SYRACUSE,,017,012,022,128,048,015,,,,003,
4552,109,106,340,ALL,MONTGOMERY ST,13202,SYRACUSE,,009,001,022,129,048,008,,,,002,
4553,1,401,401,ODD,MONTGOMERY ST,13202,SYRACUSE,,015,001,022,128,048,016,,,,002,
4554,9,1003,1003,ODD,MONTGOMERY ST,13202,SYRACUSE,,018,001,022,128,048,016,,,,004,
2602,45,100,226,ALL,MOONEY AVE,13206,SYRACUSE,,005,001,022,129,048,007,,,,005,
908,69,99,245,ALL,MOORE AVE,13210,SYRACUSE,,019,008,022,129,048,016,,,,004,
2865,2,111,112,ALL,MOREY AVE,13207,SYRACUSE,,013,008,022,128,048,015,,,,004,
3483,14,101,119,ALL,MORGAN AVE,13204,SYRACUSE,,007,001,022,129,048,008,,,,002,
909,2,100,200,EVEN,MORNINGSIDE TER,13210,SYRACUSE,,019,007,022,129,048,015,,,,003,
2866,3,101,106,ALL,MORTON AVE,13207,SYRACUSE,,012,004,022,128,048,015,,,,004,
3484,7,201,208,ALL,MORTON ST,13204,SYRACUSE,,007,001,022,129,048,008,,,,002,
2603,67,120,271,ALL,MOSLEY DR,13206,SYRACUSE,,005,007,022,129,048,007,,,,005,
2604,17,317,500,ALL,MOSLEY DR,13206,SYRACUSE,,005,010,022,129,048,007,,,,005,
2605,18,505,537,ODD,MOSLEY DR,13206,SYRACUSE,,005,002,022,129,048,009,,,,005,
4893,9,158,181,ALL,MOUNTAINVIEW AVE,13224,SYRACUSE,,017,008,022,128,048,017,,,,005,
4894,35,200,402,ALL,MOUNTAINVIEW AVE,13224,SYRACUSE,,017,014,022,128,048,017,,,,005,
4895,42,419,737,ALL,MOUNTAINVIEW AVE,13224,SYRACUSE,,017,010,022,128,048,017,,,,005,
910,249,1,2,ALL,MT OLYMPUS DR,13210,SYRACUSE,,016,005,022,129,048,016,,,,003,
4555,6,106,121,ALL,MULBERRY TER,13202,SYRACUSE,,018,001,022,128,048,016,,,,004,
3802,19,104,122,ALL,MUNSON DR,13205,SYRACUSE,,014,006,022,129,048,015,,,,004,
1745,19,102,117,ALL,MURRAY AVE,13208,SYRACUSE,,001,005,022,129,048,009,,,,001,
9157,1,501,503,ODD,MYRTLE ST,13204,SYRACUSE,,007,002,022,129,048,008,,,,002,
3485,3,110,120,EVEN,MYRTLE ST,13204,SYRACUSE,,008,004,022,129,048,008,,,,002,
3486,16,204,700,EVEN,MYRTLE ST,13204,SYRACUSE,,007,002,022,129,048,008,,,,002,
3487,13,301,421,ODD,MYRTLE ST,13204,SYRACUSE,,008,004,022,129,048,008,,,,002,
3489,2,713,715,ALL,MYRTLE ST,13204,SYRACUSE,,007,002,022,129,048,008,,,,002,
3491,7,904,910,ALL,MYRTLE ST,13204,SYRACUSE,,007,001,022,129,048,008,,,,002,
3493,1,921,921,ODD,MYRTLE ST,13204,SYRACUSE,,007,001,022,129,048,008,,,,002,
1746,48,700,912,EVEN,N ALVORD ST,13208,SYRACUSE,,001,006,022,129,048,009,,,,001,
1747,22,717,821,ODD,N ALVORD ST,13208,SYRACUSE,,002,003,022,129,048,008,,,,001,
4724,24,309,353,ALL,N BEECH ST,13203,SYRACUSE,,006,002,022,129,048,009,,,,005,
3803,2,114,122,EVEN,N CHELTENHAM RD,13205,SYRACUSE,,014,006,022,129,048,015,,,,004,
3494,143,689,800,ALL,N CLINTON ST,13204,SYRACUSE,,002,002,022,129,048,008,,,,002,
4556,2,101,223,ODD,N CLINTON ST,13202,SYRACUSE,,009,003,022,129,048,008,,,,002,
2606,23,119,163,ALL,N COLLINGWOOD AVE,13206,SYRACUSE,,005,006,022,129,048,007,,,,005,
2607,75,200,389,ALL,N COLLINGWOOD AVE,13206,SYRACUSE,,004,009,022,129,048,007,,,,005,
4725,8,209,315,ALL,N CROUSE AVE,13203,SYRACUSE,,006,001,022,129,048,009,,,,001,
2608,23,114,162,ALL,N EDWARDS AVE,13206,SYRACUSE,,005,006,022,129,048,007,,,,005,
2609,86,200,387,ALL,N EDWARDS AVE,13206,SYRACUSE,,004,009,022,129,048,007,,,,005,
3495,156,429,600,ALL,N FRANKLIN ST,13204,SYRACUSE,,002,002,022,129,048,008,,,,002,
4557,4,212,218,ALL,N FRANKLIN ST,13202,SYRACUSE,,009,003,022,129,048,008,,,,002,
3496,52,132,612,ALL,N GEDDES ST,13204,SYRACUSE,,002,001,022,129,048,008,,,,002,
3497,2,814,822,EVEN,N GEDDES ST,13204,SYRACUSE,,002,002,022,129,048,008,,,,002,
2610,24,1102,1256,EVEN,N GLENCOVE RD,13206,SYRACUSE,,005,011,022,129,048,007,,,,005,
2611,28,1113,1267,ODD,N GLENCOVE RD,13206,SYRACUSE,,005,009,022,129,048,007,,,,005,
911,9,104,207,ALL,N HUGHES PL,13210,SYRACUSE,,019,006,022,129,048,016,,,,003,
912,12,108,119,ALL,N LORRAINE AVE,13210,SYRACUSE,,019,006,022,129,048,016,,,,003,
3498,23,103,147,ALL,N LOWELL AVE,13204,SYRACUSE,,008,002,022,129,048,008,,,,002,
3499,34,200,307,ALL,N LOWELL AVE,13204,SYRACUSE,,007,002,022,129,048,008,,,,002,
3500,12,525,618,ALL,N LOWELL AVE,13204,SYRACUSE,,007,001,022,129,048,008,,,,002,
1749,14,900,914,ALL,N MCBRIDE ST,13208,SYRACUSE,,003,002,022,129,048,009,,,,001,
1750,19,1000,1111,ALL,N MCBRIDE ST,13208,SYRACUSE,,003,001,022,129,048,008,,,,001,
4726,19,202,306,ALL,N MCBRIDE ST,13203,SYRACUSE,,006,001,022,129,048,009,,,,001,
4727,68,407,809,ALL,N MCBRIDE ST,13203,SYRACUSE,,009,002,022,129,048,008,,,,001,
2612,20,117,157,ODD,N MIDLER AVE,13206,SYRACUSE,,005,006,022,129,048,007,,,,005,
2613,18,118,162,EVEN,N MIDLER AVE,13206,SYRACUSE,,005,007,022,129,048,007,,,,005,
2614,95,200,386,ALL,N MIDLER AVE,13206,SYRACUSE,,004,009,022,129,048,007,,,,005,
3804,31,124,430,EVEN,N MONTICELLO DR,13205,SYRACUSE,,014,005,022,128,048,015,,,,004,
3805,4,133,141,ODD,N MONTICELLO DR,13205,SYRACUSE,,014,006,022,129,048,015,,,,004,
3806,13,217,421,ODD,N MONTICELLO DR,13205,SYRACUSE,,014,008,022,128,048,016,,,,004,
1752,68,507,759,ALL,N SALINA ST,13208,SYRACUSE,,003,001,022,129,048,008,,,,001,
1753,56,804,1303,ALL,N SALINA ST,13208,SYRACUSE,,002,003,022,129,048,008,,,,001,
1754,4,1308,1408,EVEN,N SALINA ST,13208,SYRACUSE,,001,004,022,129,048,009,,,,001,
1755,27,1305,1637,ODD,N SALINA ST,13208,SYRACUSE,,002,003,022,129,048,008,,,,001,
4728,38,315,466,ALL,N SALINA ST,13203,SYRACUSE,,009,002,022,129,048,008,,,,001,
4558,18,100,126,EVEN,N SALINA ST,13202,SYRACUSE,,009,003,022,129,048,008,,,,002,
1756,15,824,1042,EVEN,N STATE ST,13208,SYRACUSE,,003,001,022,129,048,008,,,,001,
1757,61,1100,1513,ALL,N STATE ST,13208,SYRACUSE,,002,003,022,129,048,008,,,,001,
4729,27,215,701,ALL,N STATE ST,13203,SYRACUSE,,009,002,022,129,048,008,,,,001,
4730,14,201,207,ODD,N TOWNSEND ST,13203,SYRACUSE,,009,004,022,129,048,009,,,,001,
4731,25,202,212,EVEN,N TOWNSEND ST,13203,SYRACUSE,,006,001,022,129,048,009,,,,001,
4732,52,502,718,EVEN,N TOWNSEND ST,13203,SYRACUSE,,009,002,022,129,048,008,,,,001,
1758,34,809,826,ALL,N TOWNSEND ST,13208,SYRACUSE,,003,002,022,129,048,009,,,,001,
1759,37,901,1114,ALL,N TOWNSEND ST,13208,SYRACUSE,,003,001,022,129,048,008,,,,001,
1760,18,1119,1119,ODD,N TOWNSEND ST,13208,SYRACUSE,,002,003,022,129,048,008,,,,001,
4559,2,128,128,EVEN,N WARREN ST,13202,SYRACUSE,,009,003,022,129,048,008,,,,002,
3501,10,105,121,ODD,N WILBUR AVE,13204,SYRACUSE,,008,002,022,129,048,008,,,,002,
3502,5,205,215,ODD,N WILBUR AVE,13204,SYRACUSE,,007,002,022,129,048,008,,,,002,
3503,24,114,166,ALL,NELSON ST,13204,SYRACUSE,,008,002,022,129,048,008,,,,002,
1761,11,107,132,ALL,NEUTRAL CT,13208,SYRACUSE,,003,002,022,129,048,009,,,,001,
913,87,102,124,ALL,NEWBURY HOLLOW LN,13210,SYRACUSE,,014,004,022,129,048,015,,,,003,
3504,4,205,703,ODD,NIAGARA ST,13204,SYRACUSE,,010,006,022,129,048,016,,,,002,
3505,6,206,504,EVEN,NIAGARA ST,13204,SYRACUSE,,008,001,022,128,048,016,,,,002,
2617,94,105,274,ALL,NICHOLS AVE,13206,SYRACUSE,,005,007,022,129,048,007,,,,005,
2618,43,304,437,ALL,NICHOLS AVE,13206,SYRACUSE,,005,010,022,129,048,007,,,,005,
2619,5,500,606,EVEN,NICHOLS AVE,13206,SYRACUSE,,005,002,022,129,048,009,,,,005,
2620,3,503,507,ODD,NICHOLS AVE,13206,SYRACUSE,,005,010,022,129,048,007,,,,005,
4896,31,112,166,ALL,NIVEN ST,13224,SYRACUSE,,017,008,022,128,048,017,,,,005,
2867,7,104,138,ALL,NORMAN AVE,13207,SYRACUSE,,013,009,022,129,048,015,,,,004,
2868,21,102,155,ALL,NORMANOR DR,13207,SYRACUSE,,013,009,022,129,048,015,,,,004,
2622,7,126,137,ALL,NORTH AVE,13206,SYRACUSE,,004,010,022,129,048,007,,,,005,
2623,108,201,331,ALL,NORTH AVE,13206,SYRACUSE,,004,008,022,129,048,007,,,,005,
2624,8,400,422,ALL,NORTH AVE,13206,SYRACUSE,,004,009,022,129,048,007,,,,005,
2626,1,320,320,EVEN,NORTHCLIFFE RD,13206,SYRACUSE,,005,004,022,129,048,007,,,,005,
2627,12,415,701,ALL,NORTHCLIFFE RD,13206,SYRACUSE,,005,006,022,129,048,007,,,,005,
2628,1,814,814,EVEN,NORTHCLIFFE RD,13206,SYRACUSE,,005,007,022,129,048,007,,,,005,
2629,28,1304,1439,ALL,NORTHCLIFFE RD,13206,SYRACUSE,,005,009,022,129,048,007,,,,005,
2630,5,1514,1800,EVEN,NORTHCLIFFE RD,13206,SYRACUSE,,005,011,022,129,048,007,,,,005,
2631,2,1519,1715,ODD,NORTHCLIFFE RD,13206,SYRACUSE,,005,009,022,129,048,007,,,,005,
4897,42,722,1017,ALL,NORTHWAY ST,13224,SYRACUSE,,017,010,022,128,048,017,,,,005,
2632,22,114,159,ALL,NORWOOD AVE,13206,SYRACUSE,,005,006,022,129,048,007,,,,005,
2633,23,200,296,EVEN,NORWOOD AVE,13206,SYRACUSE,,004,009,022,129,048,007,,,,005,
2634,28,201,297,ODD,NORWOOD AVE,13206,SYRACUSE,,004,008,022,129,048,007,,,,005,
2635,24,298,385,ALL,NORWOOD AVE,13206,SYRACUSE,,004,009,022,129,048,007,,,,005,
914,12,105,223,ODD,NOTTINGHAM RD,13210,SYRACUSE,,017,012,022,128,048,015,,,,003,
915,35,210,566,EVEN,NOTTINGHAM RD,13210,SYRACUSE,,019,004,022,129,048,015,,,,003,
917,20,5,38,ALL,NURSERY LN,13210,SYRACUSE,,019,006,022,129,048,016,,,,003,
4733,17,103,108,ALL,OAK PL,13203,SYRACUSE,,006,002,022,129,048,009,,,,005,
4734,24,102,214,ALL,OAK ST,13203,SYRACUSE,,006,002,022,129,048,009,,,,005,
4735,1,214,214,EVEN,OAK ST,13203,SYRACUSE,,006,002,022,129,048,009,,,,005,
4736,47,220,320,ALL,OAK ST,13203,SYRACUSE,,006,002,022,129,048,009,,,,005,
4737,21,401,535,ODD,OAK ST,13203,SYRACUSE,,006,005,022,129,048,009,,,,005,
4738,27,526,714,EVEN,OAK ST,13203,SYRACUSE,,004,005,022,129,048,007,,,,005,
4739,2,601,603,ODD,OAK ST,13203,SYRACUSE,,004,011,022,129,048,009,,,,005,
4740,14,619,713,ODD,OAK ST,13203,SYRACUSE,,004,001,022,129,048,009,,,,001,
4741,151,806,1419,ALL,OAK ST,13203,SYRACUSE,,004,002,022,129,048,007,,,,001,
2869,9,2,12,ALL,OAKDALE CT,13207,SYRACUSE,,013,005,022,129,048,015,,,,004,
2870,13,113,207,ALL,OAKDALE DR,13207,SYRACUSE,,013,005,022,129,048,015,,,,004,
918,215,120,160,EVEN,OAKLAND ST,13210,SYRACUSE,,016,004,022,129,048,016,,,,003,
3807,53,101,342,ALL,OAKLEY DR E,13205,SYRACUSE,,014,007,022,129,048,015,,,,004,
4560,37,215,460,ALL,OAKWOOD AVE,13202,SYRACUSE,,018,001,022,128,048,016,,,,004,
3808,19,500,637,ALL,OAKWOOD AVE,13205,SYRACUSE,,018,002,022,128,048,016,,,,004,
1762,6,106,115,ALL,OBERST ST,13208,SYRACUSE,,003,004,022,129,048,009,,,,001,
3506,25,104,124,ALL,OLIVE ST,13204,SYRACUSE,,007,001,022,129,048,008,,,,002,
4561,7,510,616,EVEN,ONEIDA ST,13202,SYRACUSE,,018,001,022,128,048,016,,,,004,
3507,15,102,120,EVEN,ONONDAGA AVE,13204,SYRACUSE,,010,003,022,128,048,015,,,,002,
3508,23,105,125,ODD,ONONDAGA AVE,13204,SYRACUSE,,012,001,022,128,048,015,,,,004,
2871,8,200,212,EVEN,ONONDAGA AVE,13207,SYRACUSE,,012,003,022,128,048,015,,,,002,
2872,26,201,409,ODD,ONONDAGA AVE,13207,SYRACUSE,,012,001,022,128,048,015,,,,004,
2873,34,512,927,ALL,ONONDAGA AVE,13207,SYRACUSE,,012,004,022,128,048,015,,,,004,
6130,26,4624,4624,EVEN,ONONDAGA BLVD,13219,SYRACUSE,,011,007,022,129,048,008,,,,002,
2874,10,300,408,EVEN,ONONDAGA TER,13207,SYRACUSE,,012,003,022,128,048,015,,,,002,
3509,8,210,312,ALL,ONTARIO ST,13204,SYRACUSE,,008,003,022,128,048,008,,,,002,
919,10,101,117,ODD,ORISKANY DR,13210,SYRACUSE,,019,008,022,129,048,016,,,,004,
3809,21,115,213,ALL,ORLANDO AVE,13205,SYRACUSE,,014,008,022,128,048,016,,,,004,
3810,3,218,222,EVEN,ORLANDO AVE,13205,SYRACUSE,,014,006,022,129,048,015,,,,004,
3811,2,219,223,ODD,ORLANDO AVE,13205,SYRACUSE,,014,008,022,128,048,016,,,,004,
1763,4,101,108,ALL,ORWOOD PL,13208,SYRACUSE,,003,003,022,129,048,009,,,,001,
920,5,100,101,ALL,OSTROM AVE,13210,SYRACUSE,,016,006,022,129,048,017,,,,005,
921,30,202,718,EVEN,OSTROM AVE,13210,SYRACUSE,,016,001,022,129,048,017,,,,003,
922,32,721,875,ALL,OSTROM AVE,13210,SYRACUSE,,016,003,022,129,048,017,,,,003,
3510,2,204,206,EVEN,OSWEGO ST,13204,SYRACUSE,,008,002,022,129,048,008,,,,002,
3511,2,209,211,ODD,OSWEGO ST,13204,SYRACUSE,,008,001,022,128,048,016,,,,002,
3512,11,501,719,ODD,OSWEGO ST,13204,SYRACUSE,,010,003,022,128,048,015,,,,002,
3513,8,600,618,EVEN,OSWEGO ST,13204,SYRACUSE,,008,003,022,128,048,008,,,,002,
3514,4,702,714,EVEN,OSWEGO ST,13204,SYRACUSE,,010,001,022,128,048,008,,,,002,
3515,9,109,113,ODD,OTISCO ST,13204,SYRACUSE,,010,006,022,129,048,016,,,,002,
3516,36,201,420,ALL,OTISCO ST,13204,SYRACUSE,,008,001,022,128,048,016,,,,002,
3517,4,502,506,EVEN,OTISCO ST,13204,SYRACUSE,,008,002,022,129,048,008,,,,002,
3518,1,506,506,EVEN,OTISCO ST,13204,SYRACUSE,,008,002,022,129,048,008,,,,002,
3519,10,508,520,EVEN,OTISCO ST,13204,SYRACUSE,,008,002,022,129,048,008,,,,002,
3520,44,603,743,ALL,OTISCO ST,13204,SYRACUSE,,008,003,022,128,048,008,,,,002,
2875,21,101,323,ALL,OVERLOOK DR,13207,SYRACUSE,,011,007,022,129,048,008,,,,002,
4562,6,107,115,ALL,OXFORD ST,13202,SYRACUSE,,018,001,022,128,048,016,,,,004,
2876,21,111,521,ODD,PACIFIC AVE,13207,SYRACUSE,,013,008,022,128,048,015,,,,004,
3521,19,118,163,ALL,PALMER AVE,13204,SYRACUSE,,012,001,022,128,048,015,,,,004,
2877,36,210,348,ALL,PALMER AVE,13207,SYRACUSE,,012,001,022,128,048,015,,,,004,
2878,4,105,105,ODD,PALMER LN,13207,SYRACUSE,,013,005,022,129,048,015,,,,004,
3522,243,107,927,ALL,PARK AVE,13204,SYRACUSE,,002,001,022,129,048,008,,,,002,
4742,13,101,207,ODD,PARK ST,13203,SYRACUSE,,004,005,022,129,048,007,,,,005,
4743,7,104,202,EVEN,PARK ST,13203,SYRACUSE,,004,002,022,129,048,007,,,,001,
4744,1,202,202,EVEN,PARK ST,13203,SYRACUSE,,004,002,022,129,048,007,,,,001,
4745,12,204,308,EVEN,PARK ST,13203,SYRACUSE,,004,002,022,129,048,007,,,,001,
4746,1,307,307,ODD,PARK ST,13203,SYRACUSE,,004,001,022,129,048,009,,,,001,
4747,91,311,629,ALL,PARK ST,13203,SYRACUSE,,004,001,022,129,048,009,,,,001,
1765,60,710,1128,EVEN,PARK ST,13208,SYRACUSE,,003,004,022,129,048,009,,,,001,
1766,49,801,1127,ODD,PARK ST,13208,SYRACUSE,,003,002,022,129,048,009,,,,001,
1767,92,1204,1411,ALL,PARK ST,13208,SYRACUSE,,001,006,022,129,048,009,,,,001,
1768,5,1504,1512,ALL,PARK ST,13208,SYRACUSE,,001,002,022,129,048,009,,,,001,
1769,34,1600,1810,ALL,PARK ST,13208,SYRACUSE,,001,004,022,129,048,009,,,,001,
2879,42,109,201,ALL,PARKSIDE AVE,13207,SYRACUSE,,012,004,022,128,048,015,,,,004,
2880,7,103,125,ODD,PARKVIEW AVE,13207,SYRACUSE,,012,004,022,128,048,015,,,,004,
2881,61,117,311,ALL,PARKWAY DR,13207,SYRACUSE,,012,004,022,128,048,015,,,,004,
3812,1,176,176,EVEN,PARKWAY DR,13205,SYRACUSE,,012,004,022,128,048,015,,,,004,
3813,15,105,311,ODD,PARRISH LN,13205,SYRACUSE,,014,007,022,129,048,015,,,,004,
3814,13,200,312,EVEN,PARRISH LN,13205,SYRACUSE,,014,011,022,129,048,015,,,,004,
3815,9,313,405,ALL,PARRISH LN,13205,SYRACUSE,,014,007,022,129,048,015,,,,004,
1770,25,100,100,EVEN,PASTIME DR,13208,SYRACUSE,,001,002,022,129,048,009,,,,001,
4748,54,102,219,ALL,PATTISON ST,13203,SYRACUSE,,006,005,022,129,048,009,,,,005,
2636,86,100,234,ALL,PAUL AVE,13206,SYRACUSE,,004,007,022,129,048,007,,,,005,
4749,9,324,502,EVEN,PEARL ST,13203,SYRACUSE,,009,002,022,129,048,008,,,,001,
2637,70,100,216,ALL,PECK AVE,13206,SYRACUSE,,004,007,022,129,048,007,,,,005,
1771,7,105,113,ALL,PENNSYLVANIA AVE,13208,SYRACUSE,,001,005,022,129,048,009,,,,001,
923,7,101,115,ODD,PENTA DR,13210,SYRACUSE,,019,008,022,129,048,016,,,,004,
1772,6,114,132,EVEN,PERSHING AVE,13208,SYRACUSE,,003,005,022,129,048,007,,,,001,
1773,22,105,131,ALL,PETERS ST,13208,SYRACUSE,,003,002,022,129,048,009,,,,001,
3523,40,105,229,ALL,PHARIS ST,13204,SYRACUSE,,007,001,022,129,048,008,,,,002,
3817,5,106,117,ALL,PHELPS PL,13205,SYRACUSE,,014,006,022,129,048,015,,,,004,
7457,11,100,112,ALL,PHILLIPS RD,13214,SYRACUSE,,017,016,022,128,048,017,,,,003,
3818,16,100,152,ALL,PIERCE ST,13205,SYRACUSE,,013,006,022,128,048,016,,,,004,
924,9,200,224,ALL,PINE GROVE ST,13210,SYRACUSE,,019,003,022,129,048,015,,,,003,
925,8,303,311,ODD,PINE ST,13210,SYRACUSE,,017,006,022,128,048,017,,,,005,
926,2,308,310,EVEN,PINE ST,13210,SYRACUSE,,015,006,022,128,048,016,,,,005,
927,2,314,316,EVEN,PINE ST,13210,SYRACUSE,,016,006,022,129,048,017,,,,005,
1774,7,112,120,EVEN,PLEASANTVIEW AVE,13208,SYRACUSE,,004,012,022,129,048,007,,,,001,
1775,59,125,479,ALL,PLEASANTVIEW AVE,13208,SYRACUSE,,003,005,022,129,048,007,,,,001,
3524,2,124,310,ALL,PLUM ST,13204,SYRACUSE,,002,001,022,129,048,008,,,,002,
3525,57,500,528,ALL,PLUM ST,13204,SYRACUSE,,002,002,022,129,048,008,,,,002,
2638,24,119,329,ODD,PLYMOUTH DR,13206,SYRACUSE,,005,009,022,129,048,007,,,,005,
2639,33,124,330,EVEN,PLYMOUTH DR,13206,SYRACUSE,,005,007,022,129,048,007,,,,005,
2640,23,400,520,EVEN,PLYMOUTH DR,13206,SYRACUSE,,005,010,022,129,048,007,,,,005,
2641,21,401,629,ODD,PLYMOUTH DR,13206,SYRACUSE,,005,011,022,129,048,007,,,,005,
2642,6,608,630,EVEN,PLYMOUTH DR,13206,SYRACUSE,,005,002,022,129,048,009,,,,005,
4901,104,100,220,ALL,POLK ST,13224,SYRACUSE,,017,010,022,128,048,017,,,,005,
1778,13,101,116,ALL,POND LN,13208,SYRACUSE,,001,006,022,129,048,009,,,,001,
1779,58,100,414,EVEN,POND ST,13208,SYRACUSE,,003,002,022,129,048,009,,,,001,
1780,13,105,205,ODD,POND ST,13208,SYRACUSE,,002,003,022,129,048,008,,,,001,
1781,38,301,621,ODD,POND ST,13208,SYRACUSE,,001,006,022,129,048,009,,,,001,
1782,60,500,824,EVEN,POND ST,13208,SYRACUSE,,003,004,022,129,048,009,,,,001,
1783,148,703,1115,ODD,POND ST,13208,SYRACUSE,,001,003,022,129,048,009,,,,001,
1784,7,904,1008,EVEN,POND ST,13208,SYRACUSE,,003,006,022,129,048,009,,,,001,
1785,2,1104,1108,EVEN,POND ST,13208,SYRACUSE,,003,003,022,129,048,009,,,,001,
4563,20,1,40,ALL,PRESIDENTIAL CT,13202,SYRACUSE,,015,001,022,128,048,016,,,,002,
4564,90,50,60,EVEN,PRESIDENTIAL PLZ,13202,SYRACUSE,,015,001,022,128,048,016,,,,002,
4565,180,50,80,EVEN,PRESIDENTIAL PLZA,13202,SYRACUSE,,015,001,022,128,048,016,,,,002,
3819,32,214,271,ALL,PRIMROSE AVE,13205,SYRACUSE,,014,001,022,128,048,016,,,,004,
3820,29,308,352,ALL,PRIMROSE AVE,13205,SYRACUSE,,013,006,022,128,048,016,,,,004,
4750,2,206,206,EVEN,PROSPECT AVE,13203,SYRACUSE,,009,002,022,129,048,008,,,,001,
1786,11,504,518,EVEN,PROSPECT AVE,13208,SYRACUSE,,003,002,022,129,048,009,,,,001,
3526,21,103,217,ALL,PULASKI ST,13204,SYRACUSE,,002,002,022,129,048,008,,,,002,
3527,22,102,134,ALL,PUTNAM ST,13204,SYRACUSE,,010,003,022,128,048,015,,,,002,
3528,36,204,320,ALL,PUTNAM ST,13204,SYRACUSE,,011,005,022,128,048,008,,,,002,
7460,2,100,102,EVEN,RADCLIFFE RD,13214,SYRACUSE,,017,016,022,128,048,017,,,,003,
4566,36,100,119,ALL,RADISSON CT,13202,SYRACUSE,,009,005,022,128,048,016,,,,004,
4904,19,101,122,ALL,RAMSEY AVE,13224,SYRACUSE,,017,009,022,128,048,015,,,,003,
2882,23,100,134,ALL,RANDALL AVE,13207,SYRACUSE,,013,001,022,128,048,015,,,,004,
3821,21,219,349,ALL,RANDOLPH ST,13205,SYRACUSE,,014,008,022,128,048,016,,,,004,
3529,3,105,111,ODD,RANN AVE,13204,SYRACUSE,,007,001,022,129,048,008,,,,002,
3822,4,102,107,ALL,RAYMOND AVE,13205,SYRACUSE,,013,006,022,128,048,016,,,,004,
928,28,106,162,ALL,REDFIELD PL,13210,SYRACUSE,,016,003,022,129,048,017,,,,003,
2883,39,115,198,ALL,REED AVE,13207,SYRACUSE,,011,003,022,129,048,008,,,,002,
2884,32,214,284,ALL,REED AVE,13207,SYRACUSE,,011,004,022,129,048,008,,,,002,
7719,1,5072,5072,EVEN,REINMAN RD,13215,SYRACUSE,,013,004,022,129,048,015,,,,002,
929,296,103,184,ALL,REMINGTON AVE,13210,SYRACUSE,,014,004,022,129,048,015,,,,003,
930,25,300,354,EVEN,RENWICK AVE,13210,SYRACUSE,,015,004,022,128,048,016,,,,004,
2885,25,310,526,ALL,RICH ST,13207,SYRACUSE,,012,001,022,128,048,015,,,,004,
3530,5,105,111,ODD,RICH ST,13204,SYRACUSE,,010,004,022,128,048,016,,,,004,
3531,37,200,229,ALL,RICH ST,13204,SYRACUSE,,012,001,022,128,048,015,,,,004,
7722,19,101,140,ALL,RICHARD RD,13215,SYRACUSE,,011,007,022,129,048,008,,,,002,
3823,26,105,150,ALL,RICHARDSON AVE,13205,SYRACUSE,,013,006,022,128,048,016,,,,004,
3824,45,120,400,ALL,RICHFIELD AVE,13205,SYRACUSE,,014,007,022,129,048,015,,,,004,
3532,94,101,634,ALL,RICHMOND AVE,13204,SYRACUSE,,002,001,022,129,048,008,,,,002,
2886,36,100,140,ALL,RIDER AVE,13207,SYRACUSE,,011,003,022,129,048,008,,,,002,
2887,31,210,289,ALL,RIDER AVE,13207,SYRACUSE,,011,004,022,129,048,008,,,,002,
4905,20,119,180,ALL,RIDGEWAY AVE,13224,SYRACUSE,,017,008,022,128,048,017,,,,005,
2644,3,124,136,EVEN,RIDGEWOOD DR,13206,SYRACUSE,,005,009,022,129,048,007,,,,005,
2645,9,142,200,ALL,RIDGEWOOD DR,13206,SYRACUSE,,005,009,022,129,048,007,,,,005,
2646,12,201,319,ODD,RIDGEWOOD DR,13206,SYRACUSE,,005,011,022,129,048,007,,,,005,
2647,10,204,322,EVEN,RIDGEWOOD DR,13206,SYRACUSE,,005,009,022,129,048,007,,,,005,
2648,37,323,469,ALL,RIDGEWOOD DR,13206,SYRACUSE,,005,011,022,129,048,007,,,,005,
2649,54,100,162,ALL,RIGI AVE,13206,SYRACUSE,,005,007,022,129,048,007,,,,005,
2650,34,200,283,ALL,RIGI AVE,13206,SYRACUSE,,004,009,022,129,048,007,,,,005,
3825,11,101,312,ALL,RILL AVE,13205,SYRACUSE,,013,006,022,128,048,016,,,,004,
2888,83,101,273,ALL,RIVERDALE DR,13207,SYRACUSE,,013,007,022,129,048,015,,,,004,
1788,1,210,210,EVEN,RIVOLI AVE,13208,SYRACUSE,,003,005,022,129,048,007,,,,001,
1789,5,215,225,ODD,RIVOLI AVE,13208,SYRACUSE,,004,012,022,129,048,007,,,,001,
931,39,100,274,ALL,ROBERT DR,13210,SYRACUSE,,019,006,022,129,048,016,,,,003,
2889,6,111,231,ODD,ROBERTS AVE,13207,SYRACUSE,,011,006,022,129,048,015,,,,002,
2890,2,142,144,EVEN,ROBERTS AVE,13207,SYRACUSE,,011,005,022,128,048,008,,,,002,
2891,48,316,674,ALL,ROBERTS AVE,13207,SYRACUSE,,012,005,022,129,048,008,,,,002,
4751,2,2,5,ALL,ROBIN CROFT RD,13203,SYRACUSE,,006,005,022,129,048,009,,,,005,
2892,47,100,290,ALL,ROBINEAU RD,13207,SYRACUSE,,012,005,022,129,048,008,,,,002,
2893,31,300,419,ALL,ROBINEAU RD,13207,SYRACUSE,,013,003,022,129,048,015,,,,002,
2894,30,500,535,ALL,ROBINEAU RD,13207,SYRACUSE,,013,004,022,129,048,015,,,,002,
4752,18,111,147,ODD,ROBINSON ST,13203,SYRACUSE,,006,005,022,129,048,009,,,,005,
4753,26,212,347,ALL,ROBINSON ST,13203,SYRACUSE,,006,006,022,129,048,009,,,,005,
2651,15,511,609,ODD,ROBINSON ST,13206,SYRACUSE,,005,001,022,129,048,007,,,,005,
4906,3,100,103,ALL,ROCKFORD DR,13224,SYRACUSE,,017,015,022,128,048,017,,,,003,
2895,27,100,258,EVEN,ROCKLAND AVE,13207,SYRACUSE,,012,004,022,128,048,015,,,,004,
2896,21,101,263,ODD,ROCKLAND AVE,13207,SYRACUSE,,013,001,022,128,048,015,,,,004,
7723,4,101,113,ALL,ROCKWOOD PL,13215,SYRACUSE,,011,007,022,129,048,008,,,,002,
7725,4,105,113,ALL,ROCKWOOD RD,13215,SYRACUSE,,011,007,022,129,048,008,,,,002,
932,27,201,323,ALL,ROE AVE,13210,SYRACUSE,,019,003,022,129,048,015,,,,003,
933,60,102,111,ALL,RONEY LN,13210,SYRACUSE,,019,008,022,129,048,016,,,,004,
3826,19,114,155,ALL,RONEY RD,13205,SYRACUSE,,014,008,022,128,048,016,,,,004,
934,25,115,139,ALL,ROOSEVELT AVE,13210,SYRACUSE,,017,003,022,128,048,015,,,,003,
935,112,200,441,ALL,ROOSEVELT AVE,13210,SYRACUSE,,017,002,022,128,048,015,,,,003,
4567,12,112,145,ALL,ROSE AVE,13202,SYRACUSE,,018,001,022,128,048,016,,,,004,
3827,31,114,327,ALL,ROSEMONT DR,13205,SYRACUSE,,014,011,022,129,048,015,,,,004,
4754,13,104,122,ALL,ROSEWOOD ST,13203,SYRACUSE,,006,003,022,129,048,009,,,,001,
1790,77,114,297,ALL,ROSS PARK,13208,SYRACUSE,,003,003,022,129,048,009,,,,001,
3533,9,102,210,EVEN,ROWLAND ST,13204,SYRACUSE,,011,005,022,128,048,008,,,,002,
3534,3,201,209,ODD,ROWLAND ST,13204,SYRACUSE,,011,001,022,128,048,008,,,,002,
3535,56,215,416,ALL,ROWLAND ST,13204,SYRACUSE,,011,001,022,128,048,008,,,,002,
3536,25,500,613,ALL,ROWLAND ST,13204,SYRACUSE,,011,002,022,129,048,008,,,,002,
2652,33,112,263,ALL,ROXBURY RD,13206,SYRACUSE,,005,009,022,129,048,007,,,,005,
7471,2,97,99,ODD,ROYCROFT RD,13214,SYRACUSE,,017,016,022,128,048,017,,,,003,
2653,28,100,130,ALL,RUGBY RD,13206,SYRACUSE,,004,007,022,129,048,007,,,,005,
4755,3,201,205,ODD,RUGBY RD,13203,SYRACUSE,,004,007,022,129,048,007,,,,005,
4756,1,202,202,EVEN,RUGBY RD,13203,SYRACUSE,,004,004,022,129,048,007,,,,005,
4757,23,206,400,ALL,RUGBY RD,13203,SYRACUSE,,004,004,022,129,048,007,,,,005,
4758,2,401,403,ODD,RUGBY RD,13203,SYRACUSE,,004,006,022,129,048,007,,,,005,
4759,1,404,404,EVEN,RUGBY RD,13203,SYRACUSE,,004,004,022,129,048,007,,,,005,
4760,5,519,903,ODD,RUGBY RD,13203,SYRACUSE,,004,005,022,129,048,007,,,,005,
4761,9,614,906,EVEN,RUGBY RD,13203,SYRACUSE,,004,003,022,129,048,007,,,,005,
4762,1,1112,1112,EVEN,RUGBY RD,13203,SYRACUSE,,004,002,022,129,048,007,,,,001,
2897,9,104,122,EVEN,RUSKIN AVE,13207,SYRACUSE,,012,003,022,128,048,015,,,,002,
2898,9,105,125,ODD,RUSKIN AVE,13207,SYRACUSE,,012,005,022,129,048,008,,,,002,
2899,9,101,109,ALL,RUSSELL PL,13207,SYRACUSE,,013,004,022,129,048,015,,,,002,
936,28,106,187,ALL,RUTH AVE,13210,SYRACUSE,,019,006,022,129,048,016,,,,003,
1796,21,404,446,ALL,S ALVORD ST,13208,SYRACUSE,,003,002,022,129,048,009,,,,001,
4763,27,106,312,ALL,S ALVORD ST,13203,SYRACUSE,,006,003,022,129,048,009,,,,001,
3537,8,101,301,ODD,S AVERY AVE,13204,SYRACUSE,,008,004,022,129,048,008,,,,002,
937,26,203,315,ALL,S BEECH ST,13210,SYRACUSE,,017,006,022,128,048,017,,,,005,
938,4,404,412,ALL,S BEECH ST,13210,SYRACUSE,,016,006,022,129,048,017,,,,005,
939,21,421,481,ODD,S BEECH ST,13210,SYRACUSE,,017,018,022,128,048,015,,,,005,
940,45,503,710,ALL,S BEECH ST,13210,SYRACUSE,,017,005,022,128,048,015,,,,003,
941,3,711,713,ODD,S BEECH ST,13210,SYRACUSE,,017,003,022,128,048,015,,,,003,
942,2,712,714,EVEN,S BEECH ST,13210,SYRACUSE,,017,005,022,128,048,015,,,,003,
943,27,715,748,ALL,S BEECH ST,13210,SYRACUSE,,017,003,022,128,048,015,,,,003,
4764,14,106,125,ALL,S CARBON ST,13203,SYRACUSE,,004,001,022,129,048,009,,,,001,
4568,250,307,550,ALL,S CLINTON ST,13202,SYRACUSE,,009,001,022,129,048,008,,,,002,
4569,8,1047,1074,ALL,S CLINTON ST,13202,SYRACUSE,,018,001,022,128,048,016,,,,004,
2654,79,113,273,ALL,S COLLINGWOOD AVE,13206,SYRACUSE,,005,006,022,129,048,007,,,,005,
2655,42,300,373,ALL,S COLLINGWOOD AVE,13206,SYRACUSE,,005,010,022,129,048,007,,,,005,
2656,26,413,471,ALL,S COLLINGWOOD AVE,13206,SYRACUSE,,005,005,022,129,048,007,,,,005,
2657,11,506,539,ALL,S COLLINGWOOD AVE,13206,SYRACUSE,,005,002,022,129,048,009,,,,005,
944,121,501,501,ODD,S CROUSE AVE,13210,SYRACUSE,,015,008,022,129,048,016,,,,003,
945,18,614,614,EVEN,S CROUSE AVE,13210,SYRACUSE,,015,003,022,129,048,016,,,,002,
946,17,727,727,ODD,S CROUSE AVE,13210,SYRACUSE,,016,001,022,129,048,017,,,,003,
947,2,734,900,EVEN,S CROUSE AVE,13210,SYRACUSE,,016,005,022,129,048,016,,,,003,
2658,72,100,273,ALL,S EDWARDS AVE,13206,SYRACUSE,,005,006,022,129,048,007,,,,005,
2659,35,300,372,ALL,S EDWARDS AVE,13206,SYRACUSE,,005,010,022,129,048,007,,,,005,
2660,13,400,454,EVEN,S EDWARDS AVE,13206,SYRACUSE,,005,005,022,129,048,007,,,,005,
2661,9,401,449,ODD,S EDWARDS AVE,13206,SYRACUSE,,005,010,022,129,048,007,,,,005,
2662,15,500,529,ALL,S EDWARDS AVE,13206,SYRACUSE,,005,002,022,129,048,009,,,,005,
4570,20,309,408,ALL,S FRANKLIN ST,13202,SYRACUSE,,009,001,022,129,048,008,,,,002,
2900,14,1500,1510,ALL,S GEDDES ST,13207,SYRACUSE,,011,005,022,128,048,008,,,,002,
2901,8,1600,1610,EVEN,S GEDDES ST,13207,SYRACUSE,,011,003,022,129,048,008,,,,002,
2902,2,1702,1702,EVEN,S GEDDES ST,13207,SYRACUSE,,012,003,022,128,048,015,,,,002,
2903,6,1706,1710,ALL,S GEDDES ST,13207,SYRACUSE,,011,003,022,129,048,008,,,,002,
2904,8,1801,1911,ODD,S GEDDES ST,13207,SYRACUSE,,011,004,022,129,048,008,,,,002,
2905,40,2001,2155,ODD,S GEDDES ST,13207,SYRACUSE,,012,005,022,129,048,008,,,,002,
2906,11,2136,2156,EVEN,S GEDDES ST,13207,SYRACUSE,,011,004,022,129,048,008,,,,002,
2907,21,2200,2222,ALL,S GEDDES ST,13207,SYRACUSE,,013,003,022,129,048,015,,,,002,
3538,15,200,200,EVEN,S GEDDES ST,13204,SYRACUSE,,008,002,022,129,048,008,,,,002,
3539,1,207,207,ODD,S GEDDES ST,13204,SYRACUSE,,008,003,022,128,048,008,,,,002,
3540,10,701,947,ODD,S GEDDES ST,13204,SYRACUSE,,010,001,022,128,048,008,,,,002,
3541,12,1022,1110,EVEN,S GEDDES ST,13204,SYRACUSE,,011,001,022,128,048,008,,,,002,
3542,3,1101,1111,ODD,S GEDDES ST,13204,SYRACUSE,,011,005,022,128,048,008,,,,002,
3543,2,1111,1111,ODD,S GEDDES ST,13204,SYRACUSE,,011,004,022,129,048,008,,,,002,
3544,1,1115,1115,ODD,S GEDDES ST,13204,SYRACUSE,,011,005,022,128,048,008,,,,002,
3545,11,1118,1216,ALL,S GEDDES ST,13204,SYRACUSE,,011,001,022,128,048,008,,,,002,
3546,7,1301,1307,ODD,S GEDDES ST,13204,SYRACUSE,,011,005,022,128,048,008,,,,002,
3547,3,1310,1312,EVEN,S GEDDES ST,13204,SYRACUSE,,011,001,022,128,048,008,,,,002,
3548,5,1412,1428,ALL,S GEDDES ST,13204,SYRACUSE,,011,005,022,128,048,008,,,,002,
2663,43,1103,1257,ALL,S GLENCOVE RD,13206,SYRACUSE,,005,011,022,129,048,007,,,,005,
3549,60,103,405,ALL,S LOWELL AVE,13204,SYRACUSE,,008,002,022,129,048,008,,,,002,
4571,81,901,1126,ALL,S MCBRIDE ST,13202,SYRACUSE,,009,005,022,128,048,016,,,,004,
4572,11,1406,1435,ALL,S MCBRIDE ST,13202,SYRACUSE,,018,001,022,128,048,016,,,,004,
2664,39,121,275,ODD,S MIDLER AVE,13206,SYRACUSE,,005,007,022,129,048,007,,,,005,
2665,27,138,268,EVEN,S MIDLER AVE,13206,SYRACUSE,,005,006,022,129,048,007,,,,005,
2666,74,300,460,ALL,S MIDLER AVE,13206,SYRACUSE,,005,010,022,129,048,007,,,,005,
2667,11,504,528,ALL,S MIDLER AVE,13206,SYRACUSE,,005,002,022,129,048,009,,,,005,
3829,36,112,229,ALL,S MONTICELLO DR,13205,SYRACUSE,,014,006,022,129,048,015,,,,004,
4573,26,101,205,ODD,S SALINA ST,13202,SYRACUSE,,009,003,022,129,048,008,,,,002,
4574,238,304,500,ALL,S SALINA ST,13202,SYRACUSE,,009,001,022,129,048,008,,,,002,
4575,12,667,677,ODD,S SALINA ST,13202,SYRACUSE,,009,005,022,128,048,016,,,,004,
3830,64,1431,1817,ALL,S SALINA ST,13205,SYRACUSE,,018,002,022,128,048,016,,,,004,
3831,46,1818,2500,EVEN,S SALINA ST,13205,SYRACUSE,,019,002,022,128,048,016,,,,004,
3832,1,1829,1829,ODD,S SALINA ST,13205,SYRACUSE,,018,002,022,128,048,016,,,,004,
3833,26,1941,2605,ODD,S SALINA ST,13205,SYRACUSE,,019,005,022,128,048,016,,,,004,
3834,61,2809,3308,ALL,S SALINA ST,13205,SYRACUSE,,014,001,022,128,048,016,,,,004,
3835,18,3311,3525,ODD,S SALINA ST,13205,SYRACUSE,,014,003,022,128,048,016,,,,004,
3836,16,3316,3530,EVEN,S SALINA ST,13205,SYRACUSE,,014,001,022,128,048,016,,,,004,
3837,8,3607,3630,ALL,S SALINA ST,13205,SYRACUSE,,014,003,022,128,048,016,,,,004,
3838,8,3707,3727,ODD,S SALINA ST,13205,SYRACUSE,,014,002,022,128,048,016,,,,004,
3839,13,3714,3818,EVEN,S SALINA ST,13205,SYRACUSE,,014,003,022,128,048,016,,,,004,
3840,55,4300,4403,ALL,S SALINA ST,13205,SYRACUSE,,014,008,022,128,048,016,,,,004,
3841,15,4406,4518,EVEN,S SALINA ST,13205,SYRACUSE,,014,010,022,128,048,015,,,,004,
3842,26,4413,4621,ODD,S SALINA ST,13205,SYRACUSE,,014,008,022,128,048,016,,,,004,
3843,89,4608,5822,EVEN,S SALINA ST,13205,SYRACUSE,,014,011,022,129,048,015,,,,004,
3844,18,4845,5217,ODD,S SALINA ST,13205,SYRACUSE,,014,006,022,129,048,015,,,,004,
3845,30,5315,5825,ODD,S SALINA ST,13205,SYRACUSE,,014,007,022,129,048,015,,,,004,
3846,2,5841,5841,ALL,S SALINA ST,13205,SYRACUSE,,014,011,022,129,048,015,,,,004,
3848,52,1401,1628,ALL,S STATE ST,13205,SYRACUSE,,018,002,022,128,048,016,,,,004,
3849,70,1701,2418,ALL,S STATE ST,13205,SYRACUSE,,019,005,022,128,048,016,,,,004,
4576,1,117,117,ODD,S STATE ST,13202,SYRACUSE,,009,001,022,129,048,008,,,,002,
4577,3,555,555,ODD,S STATE ST,13202,SYRACUSE,,015,001,022,128,048,016,,,,002,
4578,18,1219,1327,ODD,S STATE ST,13202,SYRACUSE,,018,001,022,128,048,016,,,,004,
4579,51,901,1131,ODD,S TOWNSEND ST,13202,SYRACUSE,,009,005,022,128,048,016,,,,004,
4580,84,109,499,ODD,S WARREN ST,13202,SYRACUSE,,009,001,022,129,048,008,,,,002,
4581,49,220,220,EVEN,S WARREN ST,13202,SYRACUSE,,009,003,022,129,048,008,,,,002,
4582,2,749,749,ODD,S WARREN ST,13202,SYRACUSE,,009,005,022,128,048,016,,,,004,
4583,8,201,709,ODD,S WEST ST,13202,SYRACUSE,,010,006,022,129,048,016,,,,002,
4584,14,807,828,ALL,S WEST ST,13202,SYRACUSE,,010,005,022,128,048,016,,,,002,
3550,59,200,635,ALL,S WILBUR AVE,13204,SYRACUSE,,008,002,022,129,048,008,,,,002,
3551,8,805,839,ODD,S WILBUR AVE,13204,SYRACUSE,,008,003,022,128,048,008,,,,002,
3552,34,103,226,ALL,SABINE ST,13204,SYRACUSE,,010,001,022,128,048,008,,,,002,
3553,9,110,211,ALL,SACKETT ST,13204,SYRACUSE,,002,001,022,129,048,008,,,,002,
4907,15,513,650,ALL,SALISBURY PK DR,13224,SYRACUSE,,017,014,022,128,048,017,,,,005,
6168,1,404,404,ALL,SALISBURY RD,13219,SYRACUSE,,008,004,022,129,048,008,,,,002,
4908,26,101,427,ODD,SALT SPRINGS RD,13224,SYRACUSE,,017,011,022,128,048,017,,,,005,
4909,15,230,504,EVEN,SALT SPRINGS RD,13224,SYRACUSE,,017,007,022,128,048,017,,,,003,
4910,33,501,721,ODD,SALT SPRINGS RD,13224,SYRACUSE,,017,008,022,128,048,017,,,,005,
4911,78,720,864,EVEN,SALT SPRINGS RD,13224,SYRACUSE,,017,017,022,128,048,017,,,,003,
4912,36,805,1025,ODD,SALT SPRINGS RD,13224,SYRACUSE,,017,014,022,128,048,017,,,,005,
4913,3,1101,1119,ODD,SALT SPRINGS RD,13224,SYRACUSE,,017,010,022,128,048,017,,,,005,
7476,13,1200,1418,ALL,SALT SPRINGS RD,13214,SYRACUSE,,017,016,022,128,048,017,,,,003,
9183,23,1420,1647,ALL,SALT SPRINGS RD,13214,SYRACUSE,,017,016,022,128,048,017,,,,003,
3554,5,111,116,ALL,SAND ST,13204,SYRACUSE,,002,001,022,129,048,008,,,,002,
3555,5,301,309,ODD,SAND ST,13204,SYRACUSE,,002,002,022,129,048,008,,,,002,
3850,2,101,103,ODD,SATURN DR,13205,SYRACUSE,,014,009,022,129,048,015,,,,003,
4765,37,104,131,ALL,SCHILLER AVE,13203,SYRACUSE,,004,002,022,129,048,007,,,,001,
4766,12,104,126,EVEN,SCHNEIDER ST,13203,SYRACUSE,,004,001,022,129,048,009,,,,001,
4767,10,107,131,ODD,SCHNEIDER ST,13203,SYRACUSE,,006,003,022,129,048,009,,,,001,
4768,12,104,136,ALL,SCHOECK AVE,13203,SYRACUSE,,004,003,022,129,048,007,,,,005,
3556,13,1,14,ALL,SCHOENECK CT,13204,SYRACUSE,,008,001,022,128,048,016,,,,002,
3557,8,213,308,ALL,SCHOOL ST,13204,SYRACUSE,,007,001,022,129,048,008,,,,002,
4769,22,101,131,ALL,SCHULER ST,13203,SYRACUSE,,006,006,022,129,048,009,,,,005,
3558,90,208,737,ALL,SCHUYLER ST,13204,SYRACUSE,,007,002,022,129,048,008,,,,002,
4914,7,102,198,EVEN,SCOTT AVE,13224,SYRACUSE,,017,007,022,128,048,017,,,,003,
4915,91,200,525,ALL,SCOTT AVE,13224,SYRACUSE,,017,009,022,128,048,015,,,,003,
4917,22,100,215,ALL,SCOTTHOLM BLVD,13224,SYRACUSE,,017,007,022,128,048,017,,,,003,
4918,12,300,401,ALL,SCOTTHOLM BLVD,13224,SYRACUSE,,017,009,022,128,048,015,,,,003,
4919,29,102,248,ALL,SCOTTHOLM TER,13224,SYRACUSE,,017,007,022,128,048,017,,,,003,
4920,13,300,312,ALL,SCOTTHOLM TER,13224,SYRACUSE,,017,009,022,128,048,015,,,,003,
4770,9,100,214,ALL,SCOVILLE AVE,13203,SYRACUSE,,004,002,022,129,048,007,,,,001,
4771,18,501,674,ALL,SCOVILLE AVE,13203,SYRACUSE,,004,003,022,129,048,007,,,,005,
3851,45,115,222,ALL,SEARLWYN RD,13205,SYRACUSE,,014,007,022,129,048,015,,,,004,
1800,31,103,211,ALL,SECOND NORTH ST,13208,SYRACUSE,,001,007,022,129,048,009,,,,001,
1801,54,304,719,ALL,SECOND NORTH ST,13208,SYRACUSE,,001,002,022,129,048,009,,,,001,
4772,5,100,108,EVEN,SEDGWICK DR,13203,SYRACUSE,,004,006,022,129,048,007,,,,005,
4773,5,101,107,ODD,SEDGWICK DR,13203,SYRACUSE,,004,005,022,129,048,007,,,,005,
4774,40,202,416,ALL,SEDGWICK DR,13203,SYRACUSE,,004,005,022,129,048,007,,,,005,
4775,33,500,641,ALL,SEDGWICK DR,13203,SYRACUSE,,004,003,022,129,048,007,,,,005,
4776,19,100,142,ALL,SEDGWICK RD,13203,SYRACUSE,,004,003,022,129,048,007,,,,005,
4777,39,119,231,ALL,SEDGWICK ST,13203,SYRACUSE,,006,005,022,129,048,009,,,,005,
3852,28,119,175,ALL,SEELEY AVE,13205,SYRACUSE,,014,011,022,129,048,015,,,,004,
4922,47,201,201,ODD,SEELEY RD,13224,SYRACUSE,,017,010,022,128,048,017,,,,005,
4923,33,204,814,EVEN,SEELEY RD,13224,SYRACUSE,,017,008,022,128,048,017,,,,005,
4924,25,301,817,ODD,SEELEY RD,13224,SYRACUSE,,017,014,022,128,048,017,,,,005,
3853,65,116,312,ALL,SENECA DR,13205,SYRACUSE,,014,008,022,128,048,016,,,,004,
3854,4,403,427,ODD,SENECA DR,13205,SYRACUSE,,014,006,022,129,048,015,,,,004,
3855,6,408,430,EVEN,SENECA DR,13205,SYRACUSE,,014,008,022,128,048,016,,,,004,
2908,3,103,107,ODD,SENECA PL,13207,SYRACUSE,,013,005,022,129,048,015,,,,004,
3559,17,204,338,EVEN,SENECA ST,13204,SYRACUSE,,008,003,022,128,048,008,,,,002,
3560,1,213,213,ODD,SENECA ST,13204,SYRACUSE,,008,002,022,129,048,008,,,,002,
1802,44,102,249,ALL,SEVENTH NORTH ST,13208,SYRACUSE,,001,005,022,129,048,009,,,,001,
1803,11,310,400,EVEN,SEVENTH NORTH ST,13208,SYRACUSE,,001,001,022,129,048,009,,,,001,
1804,15,313,431,ODD,SEVENTH NORTH ST,13208,SYRACUSE,,001,005,022,129,048,009,,,,001,
4778,51,109,311,ALL,SEWARD ST,13203,SYRACUSE,,006,003,022,129,048,009,,,,001,
4779,2,410,410,EVEN,SEWARD ST,13203,SYRACUSE,,004,001,022,129,048,009,,,,001,
4585,7,140,154,EVEN,SEYMOUR ST,13202,SYRACUSE,,010,006,022,129,048,016,,,,002,
4586,10,153,153,ODD,SEYMOUR ST,13202,SYRACUSE,,010,005,022,128,048,016,,,,002,
3561,9,222,231,ALL,SEYMOUR ST,13204,SYRACUSE,,010,006,022,129,048,016,,,,002,
3562,39,307,368,ALL,SEYMOUR ST,13204,SYRACUSE,,010,003,022,128,048,015,,,,002,
3563,77,400,617,ALL,SEYMOUR ST,13204,SYRACUSE,,008,003,022,128,048,008,,,,002,
7735,6,105,120,ALL,SHARON DR,13215,SYRACUSE,,011,007,022,129,048,008,,,,002,
2909,5,102,107,ALL,SHELBOURNE PL,13207,SYRACUSE,,012,004,022,128,048,015,,,,004,
3856,17,100,157,ALL,SHELDON AVE,13205,SYRACUSE,,014,003,022,128,048,016,,,,004,
4926,11,100,255,ALL,SHERBOURNE RD,13224,SYRACUSE,,017,012,022,128,048,015,,,,003,
2669,4,100,120,ALL,SHERIDAN PL,13206,SYRACUSE,,005,010,022,129,048,007,,,,005,
4780,18,115,172,ALL,SHERWOOD AVE,13203,SYRACUSE,,006,002,022,129,048,009,,,,005,
4781,21,218,348,EVEN,SHERWOOD AVE,13203,SYRACUSE,,006,006,022,129,048,009,,,,005,
2910,24,101,339,ALL,SHIRLEY DR,13207,SYRACUSE,,013,008,022,128,048,015,,,,004,
4927,17,100,123,ALL,SHIRLEY RD,13224,SYRACUSE,,017,015,022,128,048,017,,,,003,
3564,3,115,119,ODD,SHONNARD ST,13204,SYRACUSE,,010,005,022,128,048,016,,,,002,
3565,1,119,119,ODD,SHONNARD ST,13204,SYRACUSE,,010,005,022,128,048,016,,,,002,
3566,8,121,131,ODD,SHONNARD ST,13204,SYRACUSE,,010,005,022,128,048,016,,,,002,
3567,1,131,131,ODD,SHONNARD ST,13204,SYRACUSE,,010,005,022,128,048,016,,,,002,
3568,5,200,208,EVEN,SHONNARD ST,13204,SYRACUSE,,010,003,022,128,048,015,,,,002,
3569,1,208,208,EVEN,SHONNARD ST,13204,SYRACUSE,,010,003,022,128,048,015,,,,002,
3570,11,222,244,ALL,SHONNARD ST,13204,SYRACUSE,,010,003,022,128,048,015,,,,002,
3571,29,300,468,EVEN,SHONNARD ST,13204,SYRACUSE,,008,003,022,128,048,008,,,,002,
3572,49,305,471,ODD,SHONNARD ST,13204,SYRACUSE,,010,001,022,128,048,008,,,,002,
2670,30,102,186,EVEN,SHOTWELL PK,13206,SYRACUSE,,005,003,022,129,048,007,,,,005,
2671,45,103,277,ODD,SHOTWELL PK,13206,SYRACUSE,,005,004,022,129,048,007,,,,005,
2672,15,200,260,EVEN,SHOTWELL PK,13206,SYRACUSE,,005,001,022,129,048,007,,,,005,
4782,44,102,326,ALL,SHUART AVE,13203,SYRACUSE,,006,005,022,129,048,009,,,,005,
4783,13,403,422,ALL,SHUART AVE,13203,SYRACUSE,,005,001,022,129,048,007,,,,005,
3573,3,106,114,EVEN,SIDMAN AVE,13204,SYRACUSE,,007,001,022,129,048,008,,,,002,
1805,7,103,111,ALL,SIXTH NORTH ST,13208,SYRACUSE,,001,005,022,129,048,009,,,,001,
3857,8,101,157,ODD,SLAYTON AVE,13205,SYRACUSE,,014,003,022,128,048,016,,,,004,
3858,7,106,156,EVEN,SLAYTON AVE,13205,SYRACUSE,,014,008,022,128,048,016,,,,004,
3574,12,95,221,ODD,SLOCUM AVE,13204,SYRACUSE,,010,005,022,128,048,016,,,,002,
3575,16,100,216,EVEN,SLOCUM AVE,13204,SYRACUSE,,010,003,022,128,048,015,,,,002,
3576,5,300,306,EVEN,SLOCUM AVE,13204,SYRACUSE,,010,004,022,128,048,016,,,,004,
948,7,101,500,ODD,SLOCUM DR,13210,SYRACUSE,,019,003,022,129,048,015,,,,003,
949,100,1,580,ALL,SLOCUM HGTS,13210,SYRACUSE,,019,003,022,129,048,015,,,,003,
950,108,111,415,ALL,SMALL RD,13210,SYRACUSE,,019,003,022,129,048,015,,,,003,
3859,2,106,114,EVEN,SMILEY DR,13205,SYRACUSE,,014,008,022,128,048,016,,,,004,
951,69,101,111,ALL,SMITH LN,13210,SYRACUSE,,019,008,022,129,048,016,,,,004,
2911,14,100,214,ALL,SMITH RD,13207,SYRACUSE,,013,005,022,129,048,015,,,,004,
4928,20,102,401,ALL,SMITH ST,13224,SYRACUSE,,017,010,022,128,048,017,,,,005,
3860,3,105,107,ALL,SNELL TER,13205,SYRACUSE,,014,006,022,129,048,015,,,,004,
3577,40,115,201,ODD,SOLAR ST,13204,SYRACUSE,,002,002,022,129,048,008,,,,002,
4929,11,114,135,ALL,SOMERSET RD,13224,SYRACUSE,,017,012,022,128,048,015,,,,003,
7747,4,2600,2616,EVEN,SOUTH AVE,13215,SYRACUSE,,013,004,022,129,048,015,,,,002,
3578,43,127,241,ALL,SOUTH AVE,13204,SYRACUSE,,010,004,022,128,048,016,,,,004,
3579,14,314,550,EVEN,SOUTH AVE,13204,SYRACUSE,,012,001,022,128,048,015,,,,004,
3580,5,507,545,ODD,SOUTH AVE,13204,SYRACUSE,,012,002,022,128,048,016,,,,004,
2912,32,622,862,EVEN,SOUTH AVE,13207,SYRACUSE,,012,001,022,128,048,015,,,,004,
2913,18,709,919,ODD,SOUTH AVE,13207,SYRACUSE,,012,002,022,128,048,016,,,,004,
2914,15,1202,1324,ALL,SOUTH AVE,13207,SYRACUSE,,012,004,022,128,048,015,,,,004,
2915,9,1403,1415,ODD,SOUTH AVE,13207,SYRACUSE,,013,001,022,128,048,015,,,,004,
2916,1,1418,1418,EVEN,SOUTH AVE,13207,SYRACUSE,,012,004,022,128,048,015,,,,004,
2917,16,1514,1918,ALL,SOUTH AVE,13207,SYRACUSE,,013,001,022,128,048,015,,,,004,
2918,19,2000,2242,EVEN,SOUTH AVE,13207,SYRACUSE,,013,002,022,128,048,015,,,,002,
2919,8,2015,2111,ODD,SOUTH AVE,13207,SYRACUSE,,013,001,022,128,048,015,,,,004,
2920,22,2304,2598,EVEN,SOUTH AVE,13207,SYRACUSE,,013,004,022,129,048,015,,,,002,
952,3,217,304,ALL,SPAID AVE,13210,SYRACUSE,,019,004,022,129,048,015,,,,003,
3862,17,117,190,ALL,SPAULDING AVE,13205,SYRACUSE,,014,011,022,129,048,015,,,,004,
3581,21,373,814,ALL,SPENCER ST,13204,SYRACUSE,,002,002,022,129,048,008,,,,002,
1806,2,110,112,EVEN,SPRING LN,13208,SYRACUSE,,001,006,022,129,048,009,,,,001,
1807,58,105,504,ALL,SPRING ST,13208,SYRACUSE,,003,004,022,129,048,009,,,,001,
1808,33,701,1109,ODD,SPRING ST,13208,SYRACUSE,,001,006,022,129,048,009,,,,001,
1809,21,704,908,EVEN,SPRING ST,13208,SYRACUSE,,001,003,022,129,048,009,,,,001,
1810,15,1002,1114,EVEN,SPRING ST,13208,SYRACUSE,,001,007,022,129,048,009,,,,001,
1811,91,1202,1625,ALL,SPRING ST,13208,SYRACUSE,,001,002,022,129,048,009,,,,001,
3863,6,101,301,ODD,SPRINGBROOK AVE,13205,SYRACUSE,,014,005,022,128,048,015,,,,004,
7481,1,315,315,ODD,SPRINGFIELD RD,13214,SYRACUSE,,017,010,022,128,048,017,,,,005,
2674,14,105,233,ODD,ST ANNE DR,13206,SYRACUSE,,005,001,022,129,048,007,,,,005,
2921,27,101,154,ALL,ST LOUIS AVE,13207,SYRACUSE,,013,005,022,129,048,015,,,,004,
3582,4,204,307,ALL,ST MARKS AVE,13204,SYRACUSE,,007,001,022,129,048,008,,,,002,
1812,6,100,105,ALL,ST MARYS TER,13208,SYRACUSE,,001,001,022,129,048,009,,,,001,
2922,5,104,113,ALL,STACY PL,13207,SYRACUSE,,013,009,022,129,048,015,,,,004,
953,1,300,300,EVEN,STADIUM PL,13210,SYRACUSE,,016,004,022,129,048,016,,,,003,
954,121,303,303,ODD,STADIUM PL,13210,SYRACUSE,,016,005,022,129,048,016,,,,003,
2675,84,121,300,ALL,STAFFORD AVE,13206,SYRACUSE,,005,004,022,129,048,007,,,,005,
2676,20,301,369,ODD,STAFFORD AVE,13206,SYRACUSE,,005,005,022,129,048,007,,,,005,
2677,22,304,372,EVEN,STAFFORD AVE,13206,SYRACUSE,,005,004,022,129,048,007,,,,005,
2678,64,400,544,ALL,STAFFORD AVE,13206,SYRACUSE,,005,005,022,129,048,007,,,,005,
4931,26,102,314,EVEN,STANDISH DR,13224,SYRACUSE,,017,009,022,128,048,015,,,,003,
4932,25,103,317,ODD,STANDISH DR,13224,SYRACUSE,,017,015,022,128,048,017,,,,003,
3583,38,115,208,ALL,STATE FAIR BLVD,13204,SYRACUSE,,002,001,022,129,048,008,,,,002,
3584,1,514,514,EVEN,STATE FAIR BLVD,13204,SYRACUSE,,002,002,022,129,048,008,,,,002,
1813,6,116,232,EVEN,STEDMAN ST,13208,SYRACUSE,,001,005,022,129,048,009,,,,001,
1814,1,308,308,EVEN,STEDMAN ST,13208,SYRACUSE,,001,001,022,129,048,009,,,,001,
2923,9,106,402,ALL,STERLING AVE,13207,SYRACUSE,,012,001,022,128,048,015,,,,004,
1815,34,103,147,ALL,STEUBEN ST,13208,SYRACUSE,,001,006,022,129,048,009,,,,001,
3864,3,101,109,ODD,STEVENS AVE,13205,SYRACUSE,,014,002,022,128,048,016,,,,004,
3865,3,118,204,EVEN,STEVENS AVE,13205,SYRACUSE,,014,008,022,128,048,016,,,,004,
955,8,101,115,ALL,STEVENS PL,13210,SYRACUSE,,019,008,022,129,048,016,,,,004,
4587,43,100,135,ALL,STEWART CT,13202,SYRACUSE,,009,005,022,128,048,016,,,,004,
1492,10,800,812,ALL,STINARD AVE,13207,SYRACUSE,,013,003,022,129,048,015,,,,002,
2924,13,102,127,ALL,STINARD AVE,13207,SYRACUSE,,011,005,022,128,048,008,,,,002,
2925,14,408,534,EVEN,STINARD AVE,13207,SYRACUSE,,011,004,022,129,048,008,,,,002,
2926,13,417,531,ODD,STINARD AVE,13207,SYRACUSE,,012,005,022,129,048,008,,,,002,
2927,53,535,744,ALL,STINARD AVE,13207,SYRACUSE,,012,005,022,129,048,008,,,,002,
2928,3,745,749,ODD,STINARD AVE,13207,SYRACUSE,,013,003,022,129,048,015,,,,002,
2929,4,746,752,EVEN,STINARD AVE,13207,SYRACUSE,,012,005,022,129,048,008,,,,002,
1493,18,122,228,ALL,STOLP AVE,13207,SYRACUSE,,012,005,022,129,048,008,,,,002,
1494,18,300,428,EVEN,STOLP AVE,13207,SYRACUSE,,011,006,022,129,048,015,,,,002,
1495,69,301,547,ODD,STOLP AVE,13207,SYRACUSE,,012,005,022,129,048,008,,,,002,
1496,36,601,1429,ODD,STOLP AVE,13207,SYRACUSE,,011,004,022,129,048,008,,,,002,
1497,28,706,1510,EVEN,STOLP AVE,13207,SYRACUSE,,011,003,022,129,048,008,,,,002,
1498,6,1607,1625,ALL,STOLP AVE,13207,SYRACUSE,,011,007,022,129,048,008,,,,002,
3585,23,2,28,ALL,STONE CT,13204,SYRACUSE,,008,001,022,128,048,016,,,,002,
7487,5,100,105,ALL,STONERIDGE DR,13214,SYRACUSE,,017,013,022,128,048,017,,,,003,
1816,9,102,126,EVEN,STRAND PL,13208,SYRACUSE,,003,004,022,129,048,009,,,,001,
956,9,216,415,ALL,STRATFORD ST,13210,SYRACUSE,,016,003,022,129,048,017,,,,003,
1499,4,100,104,ALL,STRATHMORE DR,13207,SYRACUSE,,012,005,022,129,048,008,,,,002,
1500,2,105,107,ODD,STRATHMORE DR,13207,SYRACUSE,,013,003,022,129,048,015,,,,002,
1501,2,106,108,EVEN,STRATHMORE DR,13207,SYRACUSE,,012,005,022,129,048,008,,,,002,
1502,44,109,318,ALL,STRATHMORE DR,13207,SYRACUSE,,013,003,022,129,048,015,,,,002,
957,31,119,235,ALL,STRONG AVE,13210,SYRACUSE,,017,003,022,128,048,015,,,,003,
1503,15,100,117,ALL,SUMMIT AVE,13207,SYRACUSE,,012,003,022,128,048,015,,,,002,
1504,20,200,522,EVEN,SUMMIT AVE,13207,SYRACUSE,,012,005,022,129,048,008,,,,002,
1505,10,201,311,ODD,SUMMIT AVE,13207,SYRACUSE,,012,003,022,128,048,015,,,,002,
1506,8,501,513,ODD,SUMMIT AVE,13207,SYRACUSE,,012,004,022,128,048,015,,,,004,
1507,21,600,718,EVEN,SUMMIT AVE,13207,SYRACUSE,,013,003,022,129,048,015,,,,002,
1508,9,605,621,ODD,SUMMIT AVE,13207,SYRACUSE,,013,001,022,128,048,015,,,,004,
958,46,701,875,ALL,SUMNER AVE,13210,SYRACUSE,,016,003,022,129,048,017,,,,003,
1509,27,105,217,ALL,SUNHILL TER,13207,SYRACUSE,,011,007,022,129,048,008,,,,002,
2679,2,100,102,EVEN,SUNNYCREST RD,13206,SYRACUSE,,005,001,022,129,048,007,,,,005,
2680,2,101,201,ODD,SUNNYCREST RD,13206,SYRACUSE,,005,004,022,129,048,007,,,,005,
2681,5,202,317,ALL,SUNNYCREST RD,13206,SYRACUSE,,005,005,022,129,048,007,,,,005,
2682,7,501,503,ODD,SUNNYCREST RD,13206,SYRACUSE,,005,010,022,129,048,007,,,,005,
2683,9,506,706,EVEN,SUNNYCREST RD,13206,SYRACUSE,,005,005,022,129,048,007,,,,005,
2684,65,801,1200,ALL,SUNNYCREST RD,13206,SYRACUSE,,005,010,022,129,048,007,,,,005,
2685,9,1321,1613,ALL,SUNNYCREST RD,13206,SYRACUSE,,005,011,022,129,048,007,,,,005,
7489,15,108,141,ALL,SUNNYSIDE PK RD,13214,SYRACUSE,,017,017,022,128,048,017,,,,003,
4937,2,111,201,ODD,SUNNYSIDE RD,13224,SYRACUSE,,017,007,022,128,048,017,,,,003,
3867,50,101,425,ALL,SUNRISE DR,13205,SYRACUSE,,014,006,022,129,048,015,,,,004,
1817,21,103,420,ALL,SUNSET AVE,13208,SYRACUSE,,002,003,022,129,048,008,,,,001,
2686,24,100,242,ALL,SUNSTRUCK DR,13206,SYRACUSE,,005,001,022,129,048,007,,,,005,
2689,7,104,140,EVEN,SWANSEA DR,13206,SYRACUSE,,004,008,022,129,048,007,,,,005,
4784,29,102,207,ALL,SWEETING ST,13203,SYRACUSE,,004,002,022,129,048,007,,,,001,
2690,4,100,201,ALL,TAFT AVE,13206,SYRACUSE,,004,008,022,129,048,007,,,,005,
2691,7,204,232,EVEN,TAFT AVE,13206,SYRACUSE,,004,009,022,129,048,007,,,,005,
2692,2,209,225,ODD,TAFT AVE,13206,SYRACUSE,,004,008,022,129,048,007,,,,005,
2693,59,241,320,ALL,TAFT AVE,13206,SYRACUSE,,004,009,022,129,048,007,,,,005,
4588,8,452,462,EVEN,TALLMAN ST,13202,SYRACUSE,,010,004,022,128,048,016,,,,004,
3586,15,506,906,EVEN,TALLMAN ST,13204,SYRACUSE,,010,004,022,128,048,016,,,,004,
3587,7,507,527,ODD,TALLMAN ST,13204,SYRACUSE,,012,002,022,128,048,016,,,,004,
3588,17,713,1015,ODD,TALLMAN ST,13204,SYRACUSE,,012,001,022,128,048,015,,,,004,
2695,34,500,743,ALL,TEALL AVE,13206,SYRACUSE,,006,006,022,129,048,009,,,,005,
2696,29,800,1024,EVEN,TEALL AVE,13206,SYRACUSE,,005,001,022,129,048,007,,,,005,
2697,15,803,1025,ODD,TEALL AVE,13206,SYRACUSE,,006,006,022,129,048,009,,,,005,
2698,67,1028,1240,ALL,TEALL AVE,13206,SYRACUSE,,005,001,022,129,048,007,,,,005,
2699,1,1244,1244,EVEN,TEALL AVE,13206,SYRACUSE,,005,003,022,129,048,007,,,,005,
2700,29,1318,1385,ALL,TEALL AVE,13206,SYRACUSE,,004,007,022,129,048,007,,,,005,
2701,5,1415,1445,ODD,TEALL AVE,13206,SYRACUSE,,004,004,022,129,048,007,,,,005,
2702,3,1412,1430,EVEN,TEALL AVE,13206,SYRACUSE,,004,007,022,129,048,007,,,,005,
2703,27,1500,1724,ALL,TEALL AVE,13206,SYRACUSE,,004,007,022,129,048,007,,,,005,
959,1,305,305,ODD,TECUMSEH ST,13210,SYRACUSE,,019,004,022,129,048,015,,,,003,
960,19,105,152,ALL,TEJAH AVE,13210,SYRACUSE,,019,003,022,129,048,015,,,,003,
1510,5,121,150,ALL,TEMPLE PL,13207,SYRACUSE,,012,004,022,128,048,015,,,,004,
4589,2,402,404,EVEN,TEMPLE ST,13202,SYRACUSE,,010,002,022,129,048,016,,,,004,
4590,6,405,409,ODD,TEMPLE ST,13202,SYRACUSE,,010,004,022,128,048,016,,,,004,
3589,73,123,369,ALL,TENNYSON AVE,13204,SYRACUSE,,008,002,022,129,048,008,,,,002,
3590,71,400,562,ALL,TENNYSON AVE,13204,SYRACUSE,,008,004,022,129,048,008,,,,002,
961,4,107,117,ODD,TERRACE RD,13210,SYRACUSE,,016,003,022,129,048,017,,,,003,
962,2,101,109,ODD,THAYER ST,13210,SYRACUSE,,014,004,022,129,048,015,,,,003,
963,17,211,422,ALL,THAYER ST,13210,SYRACUSE,,019,003,022,129,048,015,,,,003,
964,25,109,327,ODD,THURBER ST,13210,SYRACUSE,,019,008,022,129,048,016,,,,004,
965,56,114,308,EVEN,THURBER ST,13210,SYRACUSE,,014,004,022,129,048,015,,,,003,
966,23,400,712,ALL,THURBER ST,13210,SYRACUSE,,019,003,022,129,048,015,,,,003,
4591,19,101,121,ALL,THURGOOD TER,13202,SYRACUSE,,018,001,022,128,048,016,,,,004,
3868,27,101,195,ALL,THURLOW DR,13205,SYRACUSE,,014,006,022,129,048,015,,,,004,
3591,1,111,111,ODD,TIOGA ST,13204,SYRACUSE,,010,006,022,129,048,016,,,,002,
3592,12,208,408,ALL,TIOGA ST,13204,SYRACUSE,,008,001,022,128,048,016,,,,002,
1818,3,107,113,ALL,TITUS ALLEY,13208,SYRACUSE,,002,003,022,129,048,008,,,,001,
3593,68,202,431,ALL,TOMPKINS ST,13204,SYRACUSE,,008,002,022,129,048,008,,,,002,
3594,63,505,718,ALL,TOMPKINS ST,13204,SYRACUSE,,008,004,022,129,048,008,,,,002,
4592,13,100,214,EVEN,TOWERS LN,13202,SYRACUSE,,018,001,022,128,048,016,,,,004,
1819,11,102,125,ALL,TOWNSEND PL,13208,SYRACUSE,,003,002,022,129,048,009,,,,001,
967,28,101,124,ALL,TRINITY PL,13210,SYRACUSE,,017,003,022,128,048,015,,,,003,
4593,5,100,114,EVEN,TRUTH TER,13202,SYRACUSE,,018,001,022,128,048,016,,,,004,
3595,1,218,218,EVEN,TULLY ST,13204,SYRACUSE,,010,006,022,129,048,016,,,,002,
3596,110,300,523,ALL,TULLY ST,13204,SYRACUSE,,008,001,022,128,048,016,,,,002,
3597,19,603,722,ALL,TULLY ST,13204,SYRACUSE,,008,003,022,128,048,008,,,,002,
1820,17,132,218,ALL,TURTLE ST,13208,SYRACUSE,,002,003,022,129,048,008,,,,001,
1821,5,310,315,ALL,TURTLE ST,13208,SYRACUSE,,001,004,022,129,048,009,,,,001,
1822,14,316,416,EVEN,TURTLE ST,13208,SYRACUSE,,001,002,022,129,048,009,,,,001,
1823,8,405,419,ODD,TURTLE ST,13208,SYRACUSE,,001,004,022,129,048,009,,,,001,
1824,78,500,817,ALL,TURTLE ST,13208,SYRACUSE,,001,002,022,129,048,009,,,,001,
1825,27,915,1143,ALL,TURTLE ST,13208,SYRACUSE,,001,005,022,129,048,009,,,,001,
1511,43,101,235,ALL,TWIN HILLS DR,13207,SYRACUSE,,012,005,022,129,048,008,,,,002,
1512,2,300,304,EVEN,TWIN HILLS DR,13207,SYRACUSE,,013,003,022,129,048,015,,,,002,
1513,4,301,309,ODD,TWIN HILLS DR,13207,SYRACUSE,,012,005,022,129,048,008,,,,002,
4594,40,101,123,ALL,TYLER CT,13202,SYRACUSE,,009,005,022,128,048,016,,,,004,
2709,13,304,618,EVEN,TYSON PL,13206,SYRACUSE,,005,006,022,129,048,007,,,,005,
2710,33,815,1029,ODD,TYSON PL,13206,SYRACUSE,,004,009,022,129,048,007,,,,005,
2711,41,900,1024,EVEN,TYSON PL,13206,SYRACUSE,,005,007,022,129,048,007,,,,005,
3598,29,207,423,ODD,ULSTER ST,13204,SYRACUSE,,008,002,022,129,048,008,,,,002,
3599,80,202,716,EVEN,ULSTER ST,13204,SYRACUSE,,007,002,022,129,048,008,,,,002,
3600,30,505,721,ODD,ULSTER ST,13204,SYRACUSE,,008,004,022,129,048,008,,,,002,
4785,9,202,210,ALL,UNION AVE,13203,SYRACUSE,,009,002,022,129,048,008,,,,001,
1826,16,200,412,EVEN,UNION PL,13208,SYRACUSE,,002,003,022,129,048,008,,,,001,
968,45,300,300,EVEN,UNIVERSITY AVE,13210,SYRACUSE,,015,006,022,128,048,016,,,,005,
969,19,404,404,EVEN,UNIVERSITY AVE,13210,SYRACUSE,,015,007,022,129,048,016,,,,005,
970,2,411,413,ODD,UNIVERSITY AVE,13210,SYRACUSE,,016,006,022,129,048,017,,,,005,
971,5,502,502,EVEN,UNIVERSITY AVE,13210,SYRACUSE,,015,008,022,129,048,016,,,,003,
972,38,507,801,ODD,UNIVERSITY AVE,13210,SYRACUSE,,016,001,022,129,048,017,,,,003,
973,2,206,300,EVEN,UNIVERSITY PL,13210,SYRACUSE,,016,005,022,129,048,016,,,,003,
974,41,303,500,ALL,UNIVERSITY PL,13210,SYRACUSE,,016,001,022,129,048,017,,,,003,
1514,18,100,157,ALL,UPLAND RD,13207,SYRACUSE,,011,003,022,129,048,008,,,,002,
3869,7,133,169,ODD,VALE ST,13205,SYRACUSE,,013,006,022,128,048,016,,,,004,
1515,46,100,401,ALL,VALLEY DR,13207,SYRACUSE,,013,001,022,128,048,015,,,,004,
1516,59,402,1522,EVEN,VALLEY DR,13207,SYRACUSE,,013,005,022,129,048,015,,,,004,
1517,49,403,571,ODD,VALLEY DR,13207,SYRACUSE,,013,001,022,128,048,015,,,,004,
1518,59,601,1517,ODD,VALLEY DR,13207,SYRACUSE,,013,008,022,128,048,015,,,,004,
1519,52,1619,2247,ODD,VALLEY DR,13207,SYRACUSE,,013,009,022,129,048,015,,,,004,
1520,29,1632,1942,EVEN,VALLEY DR,13207,SYRACUSE,,013,007,022,129,048,015,,,,004,
5529,8,2363,2635,ODD,VALLEY DR,13120,NEDROW,,013,009,022,129,048,015,,,,004,
5530,2,2514,2570,EVEN,VALLEY DR,13120,NEDROW,,013,007,022,129,048,015,,,,004,
1521,32,115,189,ALL,VALLEY VIEW DR,13207,SYRACUSE,,013,005,022,129,048,015,,,,004,
975,263,401,410,ALL,VAN BUREN ST,13210,SYRACUSE,,016,004,022,129,048,016,,,,003,
4595,1,306,306,EVEN,VAN BUREN ST,13202,SYRACUSE,,018,001,022,128,048,016,,,,004,
3601,18,204,314,ALL,VAN RENSSELAER ST,13204,SYRACUSE,,002,001,022,129,048,008,,,,002,
3602,1,720,720,EVEN,VAN RENSSELAER ST,13204,SYRACUSE,,002,002,022,129,048,008,,,,002,
2712,66,110,436,ALL,VANN ST,13206,SYRACUSE,,006,006,022,129,048,009,,,,005,
6213,1,436,436,EVEN,VELASKO RD,13219,SYRACUSE,,011,007,022,129,048,008,,,,002,
1522,18,518,1044,EVEN,VELASKO RD,13207,SYRACUSE,,011,007,022,129,048,008,,,,002,
1523,13,519,617,ODD,VELASKO RD,13207,SYRACUSE,,011,003,022,129,048,008,,,,002,
1524,18,701,1035,ODD,VELASKO RD,13207,SYRACUSE,,011,004,022,129,048,008,,,,002,
976,25,100,129,ALL,VICTORIA PL,13210,SYRACUSE,,017,003,022,128,048,015,,,,003,
1525,10,101,155,ODD,VIEAU DR,13207,SYRACUSE,,011,003,022,129,048,008,,,,002,
2713,249,100,414,ALL,VILLAGE DR,13206,SYRACUSE,,004,008,022,129,048,007,,,,005,
977,12,109,149,ALL,VINCENT ST,13210,SYRACUSE,,019,008,022,129,048,016,,,,004,
978,13,204,340,EVEN,VINCENT ST,13210,SYRACUSE,,019,003,022,129,048,015,,,,003,
979,2,229,237,ODD,VINCENT ST,13210,SYRACUSE,,019,006,022,129,048,016,,,,003,
4786,12,208,342,ALL,VINE ST,13203,SYRACUSE,,006,002,022,129,048,009,,,,005,
4787,27,500,626,EVEN,VINE ST,13203,SYRACUSE,,006,006,022,129,048,009,,,,005,
4788,13,503,619,ODD,VINE ST,13203,SYRACUSE,,006,005,022,129,048,009,,,,005,
4789,10,700,806,ALL,VINE ST,13203,SYRACUSE,,006,005,022,129,048,009,,,,005,
3870,58,109,310,ALL,W BEARD AVE,13205,SYRACUSE,,019,002,022,128,048,016,,,,004,
3871,17,400,419,ALL,W BEARD AVE,13205,SYRACUSE,,019,001,022,128,048,016,,,,004,
3603,75,701,1270,ALL,W BELDEN AVE,13204,SYRACUSE,,002,001,022,129,048,008,,,,002,
1526,13,115,151,ALL,W BISSELL ST,13207,SYRACUSE,,012,004,022,128,048,015,,,,004,
3872,56,106,284,ALL,W BORDEN AVE,13205,SYRACUSE,,019,002,022,128,048,016,,,,004,
3873,20,129,259,ODD,W BRIGHTON AVE,13205,SYRACUSE,,014,001,022,128,048,016,,,,004,
3874,18,152,270,EVEN,W BRIGHTON AVE,13205,SYRACUSE,,019,002,022,128,048,016,,,,004,
3875,49,306,504,EVEN,W BRIGHTON AVE,13205,SYRACUSE,,019,001,022,128,048,016,,,,004,
1527,47,603,808,ALL,W BRIGHTON AVE,13207,SYRACUSE,,013,001,022,128,048,015,,,,004,
3876,68,111,278,ALL,W CALTHROP AVE,13205,SYRACUSE,,014,001,022,128,048,016,,,,004,
3877,32,310,353,ALL,W CALTHROP AVE,13205,SYRACUSE,,013,006,022,128,048,016,,,,004,
3878,15,121,177,ALL,W CHELTENHAM RD,13205,SYRACUSE,,014,011,022,129,048,015,,,,004,
3879,69,132,426,ALL,W COLVIN ST,13205,SYRACUSE,,019,002,022,128,048,016,,,,004,
3880,35,514,813,ALL,W COLVIN ST,13205,SYRACUSE,,019,001,022,128,048,016,,,,004,
1528,33,1004,1212,ALL,W COLVIN ST,13207,SYRACUSE,,013,001,022,128,048,015,,,,004,
1529,25,1322,1672,EVEN,W COLVIN ST,13207,SYRACUSE,,012,004,022,128,048,015,,,,004,
1530,34,1403,1689,ODD,W COLVIN ST,13207,SYRACUSE,,013,001,022,128,048,015,,,,004,
1531,11,1721,1917,ODD,W COLVIN ST,13207,SYRACUSE,,013,003,022,129,048,015,,,,002,
1532,15,1730,1912,EVEN,W COLVIN ST,13207,SYRACUSE,,012,005,022,129,048,008,,,,002,
3881,53,109,266,ALL,W CORNING AVE,13205,SYRACUSE,,014,001,022,128,048,016,,,,004,
3604,86,102,212,EVEN,W DIVISION ST,13204,SYRACUSE,,002,002,022,129,048,008,,,,002,
3605,26,538,538,EVEN,W ERIE BLVD,13204,SYRACUSE,,002,001,022,129,048,008,,,,002,
3606,5,1900,2010,EVEN,W ERIE BLVD,13204,SYRACUSE,,007,001,022,129,048,008,,,,002,
3607,1,501,501,ODD,W FAYETTE ST,13204,SYRACUSE,,010,006,022,129,048,016,,,,002,
3608,17,1022,1329,ALL,W FAYETTE ST,13204,SYRACUSE,,008,002,022,129,048,008,,,,002,
3609,4,1855,1939,ALL,W FAYETTE ST,13204,SYRACUSE,,007,001,022,129,048,008,,,,002,
4596,5,110,300,EVEN,W FAYETTE ST,13202,SYRACUSE,,009,003,022,129,048,008,,,,002,
4597,56,123,327,ODD,W FAYETTE ST,13202,SYRACUSE,,009,001,022,129,048,008,,,,002,
3882,27,116,185,ALL,W FLORENCE AVE,13205,SYRACUSE,,014,008,022,128,048,016,,,,004,
4598,35,208,230,EVEN,W GENESEE ST,13202,SYRACUSE,,009,003,022,129,048,008,,,,002,
3610,66,605,1318,ALL,W GENESEE ST,13204,SYRACUSE,,002,001,022,129,048,008,,,,002,
3611,6,1603,1609,ODD,W GENESEE ST,13204,SYRACUSE,,007,001,022,129,048,008,,,,002,
3612,163,1615,1921,ALL,W GENESEE ST,13204,SYRACUSE,,007,002,022,129,048,008,,,,002,
3883,8,137,155,ODD,W GLEN AVE,13205,SYRACUSE,,014,010,022,128,048,015,,,,004,
3884,5,160,212,EVEN,W GLEN AVE,13205,SYRACUSE,,014,008,022,128,048,016,,,,004,
4599,53,108,264,ALL,W JEFFERSON ST,13202,SYRACUSE,,009,001,022,129,048,008,,,,002,
3885,35,107,268,ALL,W KENNEDY ST,13205,SYRACUSE,,018,002,022,128,048,016,,,,004,
3886,33,300,388,EVEN,W KENNEDY ST,13205,SYRACUSE,,012,002,022,128,048,016,,,,004,
3887,26,309,395,ODD,W KENNEDY ST,13205,SYRACUSE,,019,001,022,128,048,016,,,,004,
1533,1,441,441,ODD,W KENNEDY ST,13207,SYRACUSE,,012,004,022,128,048,015,,,,004,
1534,33,830,951,ALL,W LAFAYETTE AVE,13207,SYRACUSE,,013,001,022,128,048,015,,,,004,
3888,49,109,279,ALL,W LAFAYETTE AVE,13205,SYRACUSE,,014,001,022,128,048,016,,,,004,
3889,26,315,621,ODD,W LAFAYETTE AVE,13205,SYRACUSE,,013,006,022,128,048,016,,,,004,
3890,30,115,182,ALL,W LYNHURST AVE,13205,SYRACUSE,,014,001,022,128,048,016,,,,004,
3613,2,207,207,ODD,W MARCELLUS ST,13204,SYRACUSE,,008,002,022,129,048,008,,,,002,
2444,16,115,259,ODD,W MARTIN LUTHER KING,13205,SYRACUSE,,018,002,022,128,048,016,,,,004,
2445,36,118,308,EVEN,W MARTIN LUTHER KING,13205,SYRACUSE,,018,001,022,128,048,016,,,,004,
2446,8,427,617,ODD,W MARTIN LUTHER KING,13205,SYRACUSE,,012,002,022,128,048,016,,,,004,
2447,30,114,254,EVEN,W MATSON AVE,13205,SYRACUSE,,014,001,022,128,048,016,,,,004,
2448,30,123,251,ODD,W MATSON AVE,13205,SYRACUSE,,014,003,022,128,048,016,,,,004,
2449,24,303,376,ALL,W MATSON AVE,13205,SYRACUSE,,013,006,022,128,048,016,,,,004,
2714,29,119,223,ALL,W MILFORD DR,13206,SYRACUSE,,005,009,022,129,048,007,,,,005,
2450,56,102,241,ALL,W NEWELL ST,13205,SYRACUSE,,014,001,022,128,048,016,,,,004,
2451,60,315,634,ALL,W NEWELL ST,13205,SYRACUSE,,013,006,022,128,048,016,,,,004,
1535,10,722,736,EVEN,W NEWELL ST,13207,SYRACUSE,,013,001,022,128,048,015,,,,004,
3614,1,500,500,EVEN,W ONONDAGA ST,13204,SYRACUSE,,010,005,022,128,048,016,,,,002,
3615,132,503,686,ALL,W ONONDAGA ST,13204,SYRACUSE,,010,004,022,128,048,016,,,,004,
3616,37,700,744,EVEN,W ONONDAGA ST,13204,SYRACUSE,,010,007,022,128,048,015,,,,004,
3617,21,703,749,ODD,W ONONDAGA ST,13204,SYRACUSE,,010,004,022,128,048,016,,,,004,
3618,31,831,1095,ALL,W ONONDAGA ST,13204,SYRACUSE,,010,003,022,128,048,015,,,,002,
3619,55,1119,1244,ALL,W ONONDAGA ST,13204,SYRACUSE,,011,005,022,128,048,008,,,,002,
3620,14,1300,1422,EVEN,W ONONDAGA ST,13204,SYRACUSE,,011,001,022,128,048,008,,,,002,
3621,13,1301,1351,ODD,W ONONDAGA ST,13204,SYRACUSE,,011,005,022,128,048,008,,,,002,
3622,7,1401,1421,ODD,W ONONDAGA ST,13204,SYRACUSE,,011,002,022,129,048,008,,,,002,
3623,178,1429,1741,ALL,W ONONDAGA ST,13204,SYRACUSE,,011,002,022,129,048,008,,,,002,
4600,2,110,110,EVEN,W ONONDAGA ST,13202,SYRACUSE,,009,001,022,129,048,008,,,,002,
4601,24,340,466,EVEN,W ONONDAGA ST,13202,SYRACUSE,,010,005,022,128,048,016,,,,002,
4602,25,377,377,ODD,W ONONDAGA ST,13202,SYRACUSE,,010,002,022,129,048,016,,,,004,
2452,53,119,255,ALL,W OSTRANDER AVE,13205,SYRACUSE,,014,001,022,128,048,016,,,,004,
2453,63,313,619,ALL,W OSTRANDER AVE,13205,SYRACUSE,,013,006,022,128,048,016,,,,004,
2454,42,102,240,ALL,W PLEASANT AVE,13205,SYRACUSE,,014,001,022,128,048,016,,,,004,
2455,16,302,322,ALL,W PLEASANT AVE,13205,SYRACUSE,,013,006,022,128,048,016,,,,004,
2456,102,122,122,EVEN,W SENECA TPKE,13205,SYRACUSE,,014,011,022,129,048,015,,,,004,
2457,1,214,214,EVEN,W SENECA TPKE,13205,SYRACUSE,,014,010,022,128,048,015,,,,004,
1536,11,265,363,ODD,W SENECA TPKE,13207,SYRACUSE,,013,009,022,129,048,015,,,,004,
1537,22,266,348,EVEN,W SENECA TPKE,13207,SYRACUSE,,013,008,022,128,048,015,,,,004,
1538,25,402,718,EVEN,W SENECA TPKE,13207,SYRACUSE,,013,005,022,129,048,015,,,,004,
1539,17,453,735,ODD,W SENECA TPKE,13207,SYRACUSE,,013,007,022,129,048,015,,,,004,
2458,20,106,213,ALL,W WARRINGTON RD,13205,SYRACUSE,,014,011,022,129,048,015,,,,004,
4603,86,208,324,EVEN,W WATER ST,13202,SYRACUSE,,009,003,022,129,048,008,,,,002,
4604,35,201,230,ALL,W WILLOW ST,13202,SYRACUSE,,009,003,022,129,048,008,,,,002,
4790,39,102,224,ALL,WADSWORTH ST,13203,SYRACUSE,,004,002,022,129,048,007,,,,001,
1827,73,307,808,ALL,WADSWORTH ST,13208,SYRACUSE,,003,005,022,129,048,007,,,,001,
1828,4,809,831,ODD,WADSWORTH ST,13208,SYRACUSE,,003,003,022,129,048,009,,,,001,
1829,6,810,836,EVEN,WADSWORTH ST,13208,SYRACUSE,,003,005,022,129,048,007,,,,001,
1830,45,839,967,ALL,WADSWORTH ST,13208,SYRACUSE,,003,003,022,129,048,009,,,,001,
1831,56,1012,1266,ALL,WADSWORTH ST,13208,SYRACUSE,,001,001,022,129,048,009,,,,001,
1832,29,104,366,EVEN,WAINWRIGHT AVE,13208,SYRACUSE,,004,012,022,129,048,007,,,,001,
1833,26,111,357,ODD,WAINWRIGHT AVE,13208,SYRACUSE,,003,005,022,129,048,007,,,,001,
3624,5,110,116,EVEN,WAITE AVE,13204,SYRACUSE,,002,001,022,129,048,008,,,,002,
3625,29,107,230,ALL,WALL ST,13204,SYRACUSE,,002,001,022,129,048,008,,,,002,
980,6,210,315,ALL,WALNUT AVE,13210,SYRACUSE,,015,006,022,128,048,016,,,,005,
981,55,502,517,ALL,WALNUT AVE,13210,SYRACUSE,,016,006,022,129,048,017,,,,005,
982,45,601,1003,ALL,WALNUT AVE,13210,SYRACUSE,,016,001,022,129,048,017,,,,003,
983,15,110,308,EVEN,WALNUT PL,13210,SYRACUSE,,016,001,022,129,048,017,,,,003,
2459,25,119,237,ALL,WALRATH RD,13205,SYRACUSE,,014,003,022,128,048,016,,,,004,
2715,3,101,125,ODD,WALTER DR,13206,SYRACUSE,,005,009,022,129,048,007,,,,005,
4605,36,110,216,ALL,WALTON ST,13202,SYRACUSE,,009,001,022,129,048,008,,,,002,
1834,22,113,331,ODD,WARHAM ST,13208,SYRACUSE,,003,006,022,129,048,009,,,,001,
1835,15,114,342,EVEN,WARHAM ST,13208,SYRACUSE,,003,003,022,129,048,009,,,,001,
2460,59,114,376,ALL,WARNER AVE,13205,SYRACUSE,,019,002,022,128,048,016,,,,004,
2461,7,420,432,ALL,WARNER AVE,13205,SYRACUSE,,019,001,022,128,048,016,,,,004,
3626,1,102,102,EVEN,WARNER CT,13204,SYRACUSE,,007,001,022,129,048,008,,,,002,
1836,35,103,237,ALL,WASHINGTON SQ,13208,SYRACUSE,,001,004,022,129,048,009,,,,001,
984,34,111,344,ALL,WAVERLY AVE,13210,SYRACUSE,,016,001,022,129,048,017,,,,003,
4791,16,101,212,ALL,WAYNE ST,13203,SYRACUSE,,006,001,022,129,048,009,,,,001,
2462,37,124,364,ALL,WEBSTER AVE,13205,SYRACUSE,,019,002,022,128,048,016,,,,004,
4606,40,100,123,ALL,WEISER CT,13202,SYRACUSE,,009,005,022,128,048,016,,,,004,
1540,30,99,214,ALL,WELLESLEY RD,13207,SYRACUSE,,013,003,022,129,048,015,,,,002,
1541,23,306,332,ALL,WELLESLEY RD,13207,SYRACUSE,,013,004,022,129,048,015,,,,002,
4792,15,100,123,ALL,WENDELL TER,13203,SYRACUSE,,004,005,022,129,048,007,,,,005,
4793,24,200,520,EVEN,WENDELL TER,13203,SYRACUSE,,004,004,022,129,048,007,,,,005,
4794,30,211,535,ODD,WENDELL TER,13203,SYRACUSE,,004,003,022,129,048,007,,,,005,
1542,26,102,163,ALL,WENTE TER,13207,SYRACUSE,,013,005,022,129,048,015,,,,004,
3627,7,112,125,ALL,WEST END DR,13204,SYRACUSE,,007,001,022,129,048,008,,,,002,
985,12,110,216,ALL,WESTCOTT ST,13210,SYRACUSE,,017,006,022,128,048,017,,,,005,
986,30,312,460,EVEN,WESTCOTT ST,13210,SYRACUSE,,017,005,022,128,048,015,,,,003,
987,36,321,471,ODD,WESTCOTT ST,13210,SYRACUSE,,017,004,022,128,048,017,,,,003,
988,14,507,701,ALL,WESTCOTT ST,13210,SYRACUSE,,017,003,022,128,048,015,,,,003,
989,15,704,738,EVEN,WESTCOTT ST,13210,SYRACUSE,,016,003,022,129,048,017,,,,003,
990,14,761,839,ODD,WESTCOTT ST,13210,SYRACUSE,,017,003,022,128,048,015,,,,003,
991,6,818,834,EVEN,WESTCOTT ST,13210,SYRACUSE,,017,002,022,128,048,015,,,,003,
992,75,900,1134,ALL,WESTCOTT ST,13210,SYRACUSE,,017,002,022,128,048,015,,,,003,
993,40,1214,1336,EVEN,WESTCOTT ST,13210,SYRACUSE,,019,007,022,129,048,015,,,,003,
994,19,101,200,ALL,WESTMINSTER AVE,13210,SYRACUSE,,016,002,022,129,048,016,,,,003,
995,8,203,233,ODD,WESTMINSTER AVE,13210,SYRACUSE,,017,002,022,128,048,015,,,,003,
996,6,208,242,EVEN,WESTMINSTER AVE,13210,SYRACUSE,,016,002,022,129,048,016,,,,003,
997,15,315,461,ODD,WESTMORELAND AVE,13210,SYRACUSE,,017,011,022,128,048,017,,,,005,
998,19,320,458,EVEN,WESTMORELAND AVE,13210,SYRACUSE,,017,006,022,128,048,017,,,,005,
999,19,516,570,EVEN,WESTMORELAND AVE,13210,SYRACUSE,,017,004,022,128,048,017,,,,003,
1000,35,521,707,ODD,WESTMORELAND AVE,13210,SYRACUSE,,017,007,022,128,048,017,,,,003,
1001,43,718,883,ALL,WESTMORELAND AVE,13210,SYRACUSE,,017,012,022,128,048,015,,,,003,
1002,73,919,1155,ALL,WESTMORELAND AVE,13210,SYRACUSE,,017,002,022,128,048,015,,,,003,
1003,68,1200,1596,ALL,WESTMORELAND AVE,13210,SYRACUSE,,019,004,022,129,048,015,,,,003,
1004,8,1608,1653,ALL,WESTMORELAND AVE,13210,SYRACUSE,,019,003,022,129,048,015,,,,003,
4945,31,201,203,ODD,WESTMORELAND AVE,13224,SYRACUSE,,017,011,022,128,048,017,,,,005,
7792,11,102,209,ALL,WESTWOOD RD,13215,SYRACUSE,,011,007,022,129,048,008,,,,002,
2463,33,107,227,ALL,WEYMOUTH RD,13205,SYRACUSE,,014,006,022,129,048,015,,,,004,
4795,11,103,149,ALL,WHEATON RD,13203,SYRACUSE,,004,004,022,129,048,007,,,,005,
4796,21,212,416,EVEN,WHEATON RD,13203,SYRACUSE,,004,007,022,129,048,007,,,,005,
4797,4,323,415,ODD,WHEATON RD,13203,SYRACUSE,,004,004,022,129,048,007,,,,005,
3628,15,101,127,ALL,WHITE ST,13204,SYRACUSE,,010,004,022,128,048,016,,,,004,
3629,95,101,359,ALL,WHITTIER AVE,13204,SYRACUSE,,008,002,022,129,048,008,,,,002,
3630,58,400,580,ALL,WHITTIER AVE,13204,SYRACUSE,,008,004,022,129,048,008,,,,002,
4798,9,102,230,EVEN,WHITWELL DR,13203,SYRACUSE,,004,002,022,129,048,007,,,,001,
4799,8,105,111,ODD,WHITWELL DR,13203,SYRACUSE,,004,001,022,129,048,009,,,,001,
4800,10,103,109,ALL,WILKIE PL,13203,SYRACUSE,,004,002,022,129,048,007,,,,001,
3631,202,225,516,ALL,WILKINSON ST,13204,SYRACUSE,,002,001,022,129,048,008,,,,002,
3632,16,1,16,ALL,WILL CT,13204,SYRACUSE,,008,001,022,128,048,016,,,,002,
3633,8,104,120,EVEN,WILLIAMS ST,13204,SYRACUSE,,007,001,022,129,048,008,,,,002,
3634,10,102,116,ALL,WILLIS AVE,13204,SYRACUSE,,008,004,022,129,048,008,,,,002,
3635,64,204,711,ALL,WILLIS AVE,13204,SYRACUSE,,007,002,022,129,048,008,,,,002,
3636,112,801,1326,ALL,WILLIS AVE,13204,SYRACUSE,,007,001,022,129,048,008,,,,002,
1839,4,101,110,ALL,WILLISTON AVE,13208,SYRACUSE,,003,006,022,129,048,009,,,,001,
1840,70,108,416,ALL,WILLUMAE DR,13208,SYRACUSE,,001,005,022,129,048,009,,,,001,
1841,10,100,113,ALL,WILMORE PL,13208,SYRACUSE,,003,003,022,129,048,009,,,,001,
1843,2,130,130,EVEN,WILMORE PL,13208,SYRACUSE,,003,003,022,129,048,009,,,,001,
7508,4,100,106,EVEN,WILSON PL,13214,SYRACUSE,,017,013,022,128,048,017,,,,003,
7509,3,101,109,ODD,WILSON PL,13214,SYRACUSE,,017,016,022,128,048,017,,,,003,
4801,16,114,328,EVEN,WILSON ST,13203,SYRACUSE,,006,005,022,129,048,009,,,,005,
4802,12,121,333,ODD,WILSON ST,13203,SYRACUSE,,005,001,022,129,048,007,,,,005,
2464,36,108,191,ALL,WIMAN AVE,13205,SYRACUSE,,013,006,022,128,048,016,,,,004,
2465,4,100,114,EVEN,WINDEMERE RD,13205,SYRACUSE,,014,007,022,129,048,015,,,,004,
2466,1,101,101,ODD,WINDEMERE RD,13205,SYRACUSE,,014,006,022,129,048,015,,,,004,
2467,2,200,204,ALL,WINDEMERE RD,13205,SYRACUSE,,014,006,022,129,048,015,,,,004,
4946,10,100,112,ALL,WINDHAM DR,13224,SYRACUSE,,017,015,022,128,048,017,,,,003,
1005,73,100,480,ALL,WINDING RIDGE RD,13210,SYRACUSE,,019,003,022,129,048,015,,,,003,
1006,11,100,123,ALL,WINDSOR PL,13210,SYRACUSE,,016,002,022,129,048,016,,,,003,
5911,58,100,709,ALL,WINKWORTH PKWY,13215,SYRACUSE,,011,007,022,129,048,008,,,,002,
2717,50,112,261,ALL,WINTHROP RD,13206,SYRACUSE,,005,009,022,129,048,007,,,,005,
4803,44,102,363,ALL,WINTON ST,13203,SYRACUSE,,006,002,022,129,048,009,,,,005,
4804,53,401,821,ALL,WINTON ST,13203,SYRACUSE,,006,006,022,129,048,009,,,,005,
1543,26,112,213,ALL,WOLCOTT AVE,13207,SYRACUSE,,011,003,022,129,048,008,,,,002,
1544,43,301,720,ALL,WOLCOTT AVE,13207,SYRACUSE,,011,004,022,129,048,008,,,,002,
1545,15,104,127,ALL,WOLCOTT TER,13207,SYRACUSE,,011,004,022,129,048,008,,,,002,
1846,1,120,120,EVEN,WOLF ST,13208,SYRACUSE,,002,003,022,129,048,008,,,,001,
1847,2,223,333,ODD,WOLF ST,13208,SYRACUSE,,001,004,022,129,048,009,,,,001,
1848,58,400,722,ALL,WOLF ST,13208,SYRACUSE,,001,002,022,129,048,009,,,,001,
1849,37,800,1140,ALL,WOLF ST,13208,SYRACUSE,,001,005,022,129,048,009,,,,001,
1850,1,1206,1206,EVEN,WOLF ST,13208,SYRACUSE,,001,001,022,129,048,009,,,,001,
2468,59,100,147,ALL,WOOD AVE,13205,SYRACUSE,,019,002,022,128,048,016,,,,004,
2718,63,100,274,EVEN,WOODBINE AVE,13206,SYRACUSE,,005,004,022,129,048,007,,,,005,
2719,83,101,275,ODD,WOODBINE AVE,13206,SYRACUSE,,005,006,022,129,048,007,,,,005,
2720,24,303,369,ODD,WOODBINE AVE,13206,SYRACUSE,,005,010,022,129,048,007,,,,005,
2721,15,304,368,EVEN,WOODBINE AVE,13206,SYRACUSE,,005,005,022,129,048,007,,,,005,
2722,39,372,500,ALL,WOODBINE AVE,13206,SYRACUSE,,005,005,022,129,048,007,,,,005,
2723,7,501,533,ODD,WOODBINE AVE,13206,SYRACUSE,,005,002,022,129,048,009,,,,005,
2724,4,504,522,EVEN,WOODBINE AVE,13206,SYRACUSE,,005,005,022,129,048,007,,,,005,
2469,16,109,231,ALL,WOODLAND AVE,13205,SYRACUSE,,018,002,022,128,048,016,,,,004,
4805,23,100,233,ALL,WOODLAWN TER,13203,SYRACUSE,,004,003,022,129,048,007,,,,005,
4806,64,102,335,ALL,WOODRUFF AVE,13203,SYRACUSE,,004,002,022,129,048,007,,,,001,
1852,38,413,475,ALL,WOODRUFF AVE,13208,SYRACUSE,,003,005,022,129,048,007,,,,001,
4947,13,101,119,ALL,WOODSIDE DR,13224,SYRACUSE,,017,015,022,128,048,017,,,,003,
1853,22,116,161,ALL,WORDEN AVE,13208,SYRACUSE,,003,005,022,129,048,007,,,,001,
3637,14,105,222,ALL,WYOMING ST,13204,SYRACUSE,,010,006,022,129,048,016,,,,002,
3638,12,400,518,EVEN,WYOMING ST,13204,SYRACUSE,,008,001,022,128,048,016,,,,002,
3639,1,417,417,ODD,WYOMING ST,13204,SYRACUSE,,010,006,022,129,048,016,,,,002,
1007,14,93,161,ALL,XAVIER CIR,13210,SYRACUSE,,019,003,022,129,048,015,,,,003,
